GEOID,STATEFP,COUNTYFP,fred_county_fips,NAME,NAMELSAD,region,region_type,region_type_id,table_id,state,state_code,parent_metro_region,parent_metro_region_metro_code,fred_child_id,fred_region_id,fred_state_id,ALAND,AWATER,INTPTLAT,INTPTLON,data_source,state_fips
06001,06,001,06001,Alameda,Alameda County,"Alameda County, CA",county,5.0,303.0,California,CA,"Oakland, CA",36084.0,27522.0,27521.0,27286.0,1910010500.0,216909647.0,37.6471385,-121.912488,Complete data,06
06003,06,003,06003,Alpine,Alpine County,"Alpine County, CA",county,5.0,304.0,California,CA,California nonmetropolitan area,,27523.0,27521.0,27286.0,1912292607.0,12557304.0,38.6217831,-119.7983522,Complete data,06
06005,06,005,06005,Amador,Amador County,"Amador County, CA",county,5.0,305.0,California,CA,California nonmetropolitan area,,27524.0,27521.0,27286.0,1539967082.0,29437117.0,38.4435493,-120.653858,Complete data,06
06007,06,007,06007,Butte,Butte County,"Butte County, CA",county,5.0,306.0,California,CA,"Chico, CA",17020.0,27525.0,27521.0,27286.0,4238545149.0,105204062.0,39.6653362,-121.6032086,Complete data,06
06009,06,009,06009,Calaveras,Calaveras County,"Calaveras County, CA",county,5.0,307.0,California,CA,California nonmetropolitan area,,27526.0,27521.0,27286.0,2641829625.0,43797225.0,38.1910682,-120.5541065,Complete data,06
06011,06,011,06011,Colusa,Colusa County,"Colusa County, CA",county,5.0,308.0,California,CA,California nonmetropolitan area,,27527.0,27521.0,27286.0,2980245451.0,14696164.0,39.1777385,-122.2375629,Complete data,06
06013,06,013,06013,Contra Costa,Contra Costa County,"Contra Costa County, CA",county,5.0,309.0,California,CA,"Oakland, CA",36084.0,27528.0,27521.0,27286.0,1856755871.0,225361409.0,37.919479,-121.9515431,Complete data,06
06015,06,015,06015,Del Norte,Del Norte County,"Del Norte County, CA",county,5.0,310.0,California,CA,"Crescent City, CA",18860.0,27529.0,27521.0,27286.0,2606049835.0,578810831.0,41.7499033,-123.9809983,Complete data,06
06017,06,017,06017,El Dorado,El Dorado County,"El Dorado County, CA",county,5.0,311.0,California,CA,"Sacramento, CA",40900.0,27530.0,27521.0,27286.0,4423288023.0,203364019.0,38.7856116,-120.5342245,Complete data,06
06019,06,019,06019,Fresno,Fresno County,"Fresno County, CA",county,5.0,312.0,California,CA,"Fresno, CA",23420.0,27531.0,27521.0,27286.0,15432656110.0,136636505.0,36.7610058,-119.6550193,Complete data,06
06021,06,021,06021,Glenn,Glenn County,"Glenn County, CA",county,5.0,313.0,California,CA,California nonmetropolitan area,,27532.0,27521.0,27286.0,3403182198.0,33671442.0,39.6025462,-122.4016998,Complete data,06
06023,06,023,06023,Humboldt,Humboldt County,"Humboldt County, CA",county,5.0,314.0,California,CA,"Eureka, CA",21700.0,27533.0,27521.0,27286.0,9241138639.0,1254152624.0,40.7066554,-123.9261757,Complete data,06
06025,06,025,06025,Imperial,Imperial County,"Imperial County, CA",county,5.0,315.0,California,CA,"El Centro, CA",20940.0,27534.0,27521.0,27286.0,10814568237.0,790135127.0,33.0408143,-115.3554001,Complete data,06
06027,06,027,06027,Inyo,Inyo County,"Inyo County, CA",county,5.0,316.0,California,CA,California nonmetropolitan area,,27535.0,27521.0,27286.0,26410783052.0,77280938.0,36.5621604,-117.4042092,Complete data,06
06029,06,029,06029,Kern,Kern County,"Kern County, CA",county,5.0,317.0,California,CA,"Bakersfield, CA",12540.0,27536.0,27521.0,27286.0,21068706348.0,78331375.0,35.3466288,-118.7295064,Complete data,06
06031,06,031,06031,Kings,Kings County,"Kings County, CA",county,5.0,318.0,California,CA,"Hanford, CA",25260.0,27537.0,27521.0,27286.0,3602601926.0,3164290.0,36.072478,-119.8155301,Complete data,06
06033,06,033,06033,Lake,Lake County,"Lake County, CA",county,5.0,319.0,California,CA,"Clearlake, CA",17340.0,27538.0,27521.0,27286.0,3250693464.0,189054363.0,39.1080094,-122.7452171,Complete data,06
06035,06,035,06035,Lassen,Lassen County,"Lassen County, CA",county,5.0,320.0,California,CA,"Susanville, CA",45000.0,27539.0,27521.0,27286.0,11762090640.0,462950977.0,40.7152866,-120.6212225,Complete data,06
06037,06,037,06037,Los Angeles,Los Angeles County,"Los Angeles County, CA",county,5.0,321.0,California,CA,"Los Angeles, CA",31084.0,27540.0,27521.0,27286.0,10516008433.0,1784982940.0,34.1963983,-118.2618616,Complete data,06
06039,06,039,06039,Madera,Madera County,"Madera County, CA",county,5.0,322.0,California,CA,"Madera, CA",31460.0,27541.0,27521.0,27286.0,5534050367.0,42266781.0,37.2098213,-119.7498023,Complete data,06
06041,06,041,06041,Marin,Marin County,"Marin County, CA",county,5.0,323.0,California,CA,"San Rafael, CA",42034.0,27542.0,27521.0,27286.0,1347158037.0,797809454.0,38.0513667,-122.7463958,Complete data,06
06043,06,043,06043,Mariposa,Mariposa County,"Mariposa County, CA",county,5.0,324.0,California,CA,California nonmetropolitan area,,27543.0,27521.0,27286.0,3752476985.0,36220865.0,37.5743432,-119.9117215,Complete data,06
06045,06,045,06045,Mendocino,Mendocino County,"Mendocino County, CA",county,5.0,325.0,California,CA,"Ukiah, CA",46380.0,27544.0,27521.0,27286.0,9082587618.0,961785254.0,39.4323876,-123.4428811,Complete data,06
06047,06,047,06047,Merced,Merced County,"Merced County, CA",county,5.0,326.0,California,CA,"Merced, CA",32900.0,27545.0,27521.0,27286.0,5019407136.0,105277636.0,37.1948063,-120.7228019,Complete data,06
06049,06,049,06049,Modoc,Modoc County,"Modoc County, CA",county,5.0,327.0,California,CA,California nonmetropolitan area,,27546.0,27521.0,27286.0,10225876984.0,660504011.0,41.5929185,-120.7183704,Complete data,06
06051,06,051,06051,Mono,Mono County,"Mono County, CA",county,5.0,328.0,California,CA,California nonmetropolitan area,,27547.0,27521.0,27286.0,7896625264.0,214695142.0,37.9158363,-118.8751668,Complete data,06
06053,06,053,06053,Monterey,Monterey County,"Monterey County, CA",county,5.0,329.0,California,CA,"Salinas, CA",41500.0,27548.0,27521.0,27286.0,8499610241.0,1267806311.0,36.2401044,-121.3155781,Complete data,06
06055,06,055,06055,Napa,Napa County,"Napa County, CA",county,5.0,330.0,California,CA,"Napa, CA",34900.0,27549.0,27521.0,27286.0,1947606941.0,104444154.0,38.5070999,-122.3259045,Complete data,06
06057,06,057,06057,Nevada,Nevada County,"Nevada County, CA",county,5.0,331.0,California,CA,"Truckee, CA",46020.0,27550.0,27521.0,27286.0,2480587300.0,41531993.0,39.2975082,-120.7713429,Complete data,06
06059,06,059,06059,Orange,Orange County,"Orange County, CA",county,5.0,332.0,California,CA,"Anaheim, CA",11244.0,27551.0,27521.0,27286.0,2053515921.0,406239359.0,33.6756872,-117.7772068,Complete data,06
06061,06,061,06061,Placer,Placer County,"Placer County, CA",county,5.0,333.0,California,CA,"Sacramento, CA",40900.0,27552.0,27521.0,27286.0,3644303250.0,246469597.0,39.0620323,-120.7227181,Complete data,06
06063,06,063,06063,Plumas,Plumas County,"Plumas County, CA",county,5.0,334.0,California,CA,California nonmetropolitan area,,27553.0,27521.0,27286.0,6612400771.0,156387638.0,39.9922953,-120.8243709,Complete data,06
06065,06,065,06065,Riverside,Riverside County,"Riverside County, CA",county,5.0,335.0,California,CA,"Riverside, CA",40140.0,27554.0,27521.0,27286.0,18671882474.0,242861394.0,33.7298275,-116.0022389,Complete data,06
06067,06,067,06067,Sacramento,Sacramento County,"Sacramento County, CA",county,5.0,336.0,California,CA,"Sacramento, CA",40900.0,27555.0,27521.0,27286.0,2500063005.0,75323439.0,38.4501363,-121.3443291,Complete data,06
06069,06,069,06069,San Benito,San Benito County,"San Benito County, CA",county,5.0,337.0,California,CA,"San Jose, CA",41940.0,27556.0,27521.0,27286.0,3596591087.0,4719300.0,36.6116507,-121.0858108,Complete data,06
06071,06,071,06071,San Bernardino,San Bernardino County,"San Bernardino County, CA",county,5.0,338.0,California,CA,"Riverside, CA",40140.0,27557.0,27521.0,27286.0,51976311347.0,96418184.0,34.8566615,-116.1815707,Complete data,06
06073,06,073,06073,San Diego,San Diego County,"San Diego County, CA",county,5.0,339.0,California,CA,"San Diego, CA",41740.0,27558.0,27521.0,27286.0,10905046431.0,816535836.0,33.0236041,-116.7761174,Complete data,06
06075,06,075,06075,San Francisco,San Francisco County,"San Francisco County, CA",county,5.0,340.0,California,CA,"San Francisco, CA",41884.0,27559.0,27521.0,27286.0,120913549.0,479701988.0,37.7272391,-123.0322294,Complete data,06
06077,06,077,06077,San Joaquin,San Joaquin County,"San Joaquin County, CA",county,5.0,341.0,California,CA,"Stockton, CA",44700.0,27560.0,27521.0,27286.0,3605878834.0,89000661.0,37.9349815,-121.272244,Complete data,06
06079,06,079,06079,San Luis Obispo,San Luis Obispo County,"San Luis Obispo County, CA",county,5.0,342.0,California,CA,"San Luis Obispo, CA",42020.0,27561.0,27521.0,27286.0,8549140866.0,815650229.0,35.3881891,-120.4488974,Complete data,06
06081,06,081,06081,San Mateo,San Mateo County,"San Mateo County, CA",county,5.0,343.0,California,CA,"San Francisco, CA",41884.0,27562.0,27521.0,27286.0,1161921071.0,757163219.0,37.4146725,-122.3715457,Complete data,06
06083,06,083,06083,Santa Barbara,Santa Barbara County,"Santa Barbara County, CA",county,5.0,344.0,California,CA,"Santa Maria, CA",42200.0,27563.0,27521.0,27286.0,7080874935.0,2729198796.0,34.5366774,-120.0383645,Complete data,06
06085,06,085,06085,Santa Clara,Santa Clara County,"Santa Clara County, CA",county,5.0,345.0,California,CA,"San Jose, CA",41940.0,27564.0,27521.0,27286.0,3343891499.0,33597067.0,37.2216142,-121.6895401,Complete data,06
06087,06,087,06087,Santa Cruz,Santa Cruz County,"Santa Cruz County, CA",county,5.0,346.0,California,CA,"Santa Cruz, CA",42100.0,27565.0,27521.0,27286.0,1152818088.0,419720203.0,37.0123466,-122.0077889,Complete data,06
06089,06,089,06089,Shasta,Shasta County,"Shasta County, CA",county,5.0,347.0,California,CA,"Redding, CA",39820.0,27566.0,27521.0,27286.0,9778891285.0,185818274.0,40.7605142,-122.0435558,Complete data,06
06091,06,091,06091,Sierra,Sierra County,"Sierra County, CA",county,5.0,348.0,California,CA,California nonmetropolitan area,,27567.0,27521.0,27286.0,2468694578.0,23299110.0,39.5769252,-120.5219926,Complete data,06
06093,06,093,06093,Siskiyou,Siskiyou County,"Siskiyou County, CA",county,5.0,349.0,California,CA,California nonmetropolitan area,,27568.0,27521.0,27286.0,16261931188.0,179151859.0,41.5879861,-122.5332868,Complete data,06
06095,06,095,06095,Solano,Solano County,"Solano County, CA",county,5.0,350.0,California,CA,"Vallejo, CA",46700.0,27569.0,27521.0,27286.0,2128287413.0,218614922.0,38.2672255,-121.939594,Complete data,06
06097,06,097,06097,Sonoma,Sonoma County,"Sonoma County, CA",county,5.0,351.0,California,CA,"Santa Rosa, CA",42220.0,27570.0,27521.0,27286.0,4080103615.0,497291856.0,38.5251824,-122.9261095,Complete data,06
06099,06,099,06099,Stanislaus,Stanislaus County,"Stanislaus County, CA",county,5.0,352.0,California,CA,"Modesto, CA",33700.0,27571.0,27521.0,27286.0,3875010967.0,46378776.0,37.5623162,-121.0028311,Complete data,06
06101,06,101,06101,Sutter,Sutter County,"Sutter County, CA",county,5.0,353.0,California,CA,"Yuba City, CA",49700.0,27572.0,27521.0,27286.0,1560975500.0,14811541.0,39.0361898,-121.7039397,Complete data,06
06103,06,103,06103,Tehama,Tehama County,"Tehama County, CA",county,5.0,354.0,California,CA,"Red Bluff, CA",39780.0,27573.0,27521.0,27286.0,7638229378.0,33767224.0,40.1261573,-122.2322737,Complete data,06
06105,06,105,06105,Trinity,Trinity County,"Trinity County, CA",county,5.0,355.0,California,CA,California nonmetropolitan area,,27574.0,27521.0,27286.0,8234265080.0,73407950.0,40.6478582,-123.114666,Complete data,06
06107,06,107,06107,Tulare,Tulare County,"Tulare County, CA",county,5.0,356.0,California,CA,"Visalia, CA",47300.0,27575.0,27521.0,27286.0,12493843650.0,37260863.0,36.2288339,-118.7810551,Complete data,06
06109,06,109,06109,Tuolumne,Tuolumne County,"Tuolumne County, CA",county,5.0,357.0,California,CA,"Sonora, CA",43760.0,27576.0,27521.0,27286.0,5752135140.0,138666931.0,38.0214344,-119.9647335,Complete data,06
06111,06,111,06111,Ventura,Ventura County,"Ventura County, CA",county,5.0,358.0,California,CA,"Oxnard, CA",37100.0,27577.0,27521.0,27286.0,4767597024.0,947364179.0,34.3587477,-119.1331453,Complete data,06
06113,06,113,06113,Yolo,Yolo County,"Yolo County, CA",county,5.0,359.0,California,CA,"Sacramento, CA",40900.0,27578.0,27521.0,27286.0,2623627933.0,22888380.0,38.6796091,-121.90275,Complete data,06
06115,06,115,06115,Yuba,Yuba County,"Yuba County, CA",county,5.0,360.0,California,CA,"Yuba City, CA",49700.0,27579.0,27521.0,27286.0,1636887863.0,31084093.0,39.27013,-121.3442587,Complete data,06
