ZIPCODE,GEOID,ALAND,AWATER,INTPTLAT,INTPTLON,STATE,STATE_NAME,STATE_FIPS,source_file,state_zip_key_x,region_type,region_type_id,redfin_tableid_zip,zip_code,state,state_code,parent_metro_region,parent_metro_region_metro_code,state_county_code,redfin_county_name,redfin_table_id_county,redfin_region_type,census_city_long,census_city,state_zip_combined,redfin_table_id_city,redfin_city,Unnamed: 17,Unnamed: 18,state_zip_key_y,data_source,has_census_data,has_redfin_data,has_geometry
30002,30002,4396684.0,35621.0,+33.7733346,-084.2616669,GA,Georgia,13,28838.0,GA_30002,zip code,2.0,12372.0,30002,Georgia,GA,"Atlanta, GA",12060.0,13089.0,"DeKalb County, GA",547.0,county,"AVONDALE ESTATES, GA",AVONDALE ESTATES,1308930002.0,1230.0,"Avondale Estates, GA",,,GA_30002,Complete data,True,True,True
30004,30004,150188235.0,1828891.0,+34.1456348,-084.2918814,GA,Georgia,13,28825.0,GA_30004,zip code,2.0,12374.0,30004,Georgia,GA,"Atlanta, GA",12060.0,13121.0,"Fulton County, GA",563.0,county,"ALPHARETTA, GA",ALPHARETTA,1312130004.0,438.0,"Alpharetta, GA",,,GA_30004,Complete data,True,True,True
30005,30005,40898015.0,897460.0,+34.0890498,-084.2170187,GA,Georgia,13,29117.0,GA_30005,zip code,2.0,12375.0,30005,Georgia,GA,"Atlanta, GA",12060.0,13121.0,"Fulton County, GA",563.0,county,"ALPHARETTA, GA",ALPHARETTA,1312130005.0,438.0,"Alpharetta, GA",,,GA_30005,Complete data,True,True,True
30008,30008,24713434.0,27393.0,+33.9005668,-084.5909235,GA,Georgia,13,28801.0,GA_30008,zip code,2.0,12378.0,30008,Georgia,GA,"Atlanta, GA",12060.0,13067.0,"Cobb County, GA",536.0,county,"MARIETTA, GA",MARIETTA,1306730008.0,12766.0,"Marietta, GA",,,GA_30008,Complete data,True,True,True
30009,30009,23587405.0,200005.0,+34.0781363,-084.3034243,GA,Georgia,13,29233.0,GA_30009,zip code,2.0,12379.0,30009,Georgia,GA,"Atlanta, GA",12060.0,13121.0,"Fulton County, GA",563.0,county,"ALPHARETTA, GA",ALPHARETTA,1312130009.0,438.0,"Alpharetta, GA",,,GA_30009,Complete data,True,True,True
30011,30011,69567925.0,498813.0,+34.0198589,-083.8371629,GA,Georgia,13,29256.0,GA_30011,zip code,2.0,12381.0,30011,Georgia,GA,"Atlanta, GA",12060.0,13013.0,"Barrow County, GA",510.0,county,"AUBURN, GA",AUBURN,1301330011.0,30770.0,"Auburn, GA",,,GA_30011,Complete data,True,True,True
30012,30012,109920722.0,2627646.0,+33.7178061,-084.0025146,GA,Georgia,13,28933.0,GA_30012,zip code,2.0,12382.0,30012,Georgia,GA,"Atlanta, GA",12060.0,13247.0,"Rockdale County, GA",625.0,county,"CONYERS, GA",CONYERS,1324730012.0,4983.0,"Conyers, GA",,,GA_30012,Complete data,True,True,True
30013,30013,73440035.0,1048385.0,+33.6426025,-083.9718529,GA,Georgia,13,29253.0,GA_30013,zip code,2.0,12383.0,30013,Georgia,GA,"Atlanta, GA",12060.0,13247.0,"Rockdale County, GA",625.0,county,"CONYERS, GA",CONYERS,1324730013.0,4983.0,"Conyers, GA",,,GA_30013,Complete data,True,True,True
30014,30014,312506047.0,9497420.0,+33.5871934,-083.8221732,GA,Georgia,13,28746.0,GA_30014,zip code,2.0,12384.0,30014,Georgia,GA,"Atlanta, GA",12060.0,13217.0,"Newton County, GA",610.0,county,"COVINGTON, GA",COVINGTON,1321730014.0,5173.0,"Covington, GA",,,GA_30014,Complete data,True,True,True
30016,30016,235232598.0,2628916.0,+33.5174331,-083.9287028,GA,Georgia,13,28875.0,GA_30016,zip code,2.0,12386.0,30016,Georgia,GA,"Atlanta, GA",12060.0,13217.0,"Newton County, GA",610.0,county,"COVINGTON, GA",COVINGTON,1321730016.0,5173.0,"Covington, GA",,,GA_30016,Complete data,True,True,True
30017,30017,29909886.0,530971.0,+33.8887221,-083.9636872,GA,Georgia,13,28915.0,GA_30017,zip code,2.0,12387.0,30017,Georgia,GA,"Atlanta, GA",12060.0,13135.0,"Gwinnett County, GA",570.0,county,"GRAYSON, GA",GRAYSON,1313530017.0,8828.0,"Grayson, GA",,,GA_30017,Complete data,True,True,True
30018,30018,1450216.0,9508.0,+33.7168902,-083.8042513,GA,Georgia,13,29340.0,GA_30018,zip code,2.0,12388.0,30018,Georgia,GA,"Atlanta, GA",12060.0,13297.0,"Walton County, GA",650.0,county,"JERSEY, GA",JERSEY,1329730018.0,10736.0,"Jersey, GA",,,GA_30018,Complete data,True,True,True
30019,30019,121409645.0,472937.0,+33.9756343,-083.8837695,GA,Georgia,13,29330.0,GA_30019,zip code,2.0,12389.0,30019,Georgia,GA,"Atlanta, GA",12060.0,13135.0,"Gwinnett County, GA",570.0,county,"DACULA, GA",DACULA,1313530019.0,5457.0,"Dacula, GA",,,GA_30019,Complete data,True,True,True
30021,30021,9260702.0,36591.0,+33.8079946,-084.2389755,GA,Georgia,13,28847.0,GA_30021,zip code,2.0,12390.0,30021,Georgia,GA,"Atlanta, GA",12060.0,13089.0,"DeKalb County, GA",547.0,county,"CLARKSTON, GA",CLARKSTON,1308930021.0,4310.0,"Clarkston, GA",,,GA_30021,Complete data,True,True,True
30022,30022,61307876.0,868249.0,+34.0260846,-084.2474331,GA,Georgia,13,29107.0,GA_30022,zip code,2.0,12391.0,30022,Georgia,GA,"Atlanta, GA",12060.0,13121.0,"Fulton County, GA",563.0,county,"ALPHARETTA, GA",ALPHARETTA,1312130022.0,438.0,"Alpharetta, GA",,,GA_30022,Complete data,True,True,True
30024,30024,107885255.0,1778596.0,+34.0634855,-084.0910996,GA,Georgia,13,28828.0,GA_30024,zip code,2.0,12393.0,30024,Georgia,GA,"Atlanta, GA",12060.0,13135.0,"Gwinnett County, GA",570.0,county,"SUWANEE, GA",SUWANEE,1313530024.0,18994.0,"Suwanee, GA",,,GA_30024,Complete data,True,True,True
30025,30025,181994806.0,1536078.0,+33.6559824,-083.6957650,GA,Georgia,13,29077.0,GA_30025,zip code,2.0,12394.0,30025,Georgia,GA,"Atlanta, GA",12060.0,13297.0,"Walton County, GA",650.0,county,"SOCIAL CIRCLE, GA",SOCIAL CIRCLE,1329730025.0,30762.0,"Social Circle, GA",,,GA_30025,Complete data,True,True,True
30028,30028,129404737.0,1617809.0,+34.2931589,-084.1759074,GA,Georgia,13,28967.0,GA_30028,zip code,2.0,12396.0,30028,Georgia,GA,"Atlanta, GA",12060.0,13117.0,"Forsyth County, GA",561.0,county,"CUMMING, GA",CUMMING,1311730028.0,5394.0,"Cumming, GA",,,GA_30028,Complete data,True,True,True
30030,30030,17445045.0,13321.0,+33.7727118,-084.2910046,GA,Georgia,13,29140.0,GA_30030,zip code,2.0,12398.0,30030,Georgia,GA,"Atlanta, GA",12060.0,13089.0,"DeKalb County, GA",547.0,county,"DECATUR, GA",DECATUR,1308930030.0,5684.0,"Decatur, GA",,,GA_30030,Complete data,True,True,True
30032,30032,35350464.0,73669.0,+33.7406681,-084.2644659,GA,Georgia,13,29122.0,GA_30032,zip code,2.0,12400.0,30032,Georgia,GA,"Atlanta, GA",12060.0,13089.0,"DeKalb County, GA",547.0,county,"DECATUR, GA",DECATUR,1308930032.0,5684.0,"Decatur, GA",,,GA_30032,Complete data,True,True,True
30033,30033,22875154.0,67596.0,+33.8136888,-084.2843771,GA,Georgia,13,29159.0,GA_30033,zip code,2.0,12401.0,30033,Georgia,GA,"Atlanta, GA",12060.0,13089.0,"DeKalb County, GA",547.0,county,"DECATUR, GA",DECATUR,1308930033.0,5684.0,"Decatur, GA",,,GA_30033,Complete data,True,True,True
30034,30034,43487955.0,572820.0,+33.6908673,-084.2486217,GA,Georgia,13,28837.0,GA_30034,zip code,2.0,12402.0,30034,Georgia,GA,"Atlanta, GA",12060.0,13089.0,"DeKalb County, GA",547.0,county,"DECATUR, GA",DECATUR,1308930034.0,5684.0,"Decatur, GA",,,GA_30034,Complete data,True,True,True
30035,30035,22081845.0,132867.0,+33.7244521,-084.2042436,GA,Georgia,13,28848.0,GA_30035,zip code,2.0,12403.0,30035,Georgia,GA,"Atlanta, GA",12060.0,13089.0,"DeKalb County, GA",547.0,county,"DECATUR, GA",DECATUR,1308930035.0,5684.0,"Decatur, GA",,,GA_30035,Complete data,True,True,True
30038,30038,74597465.0,1049409.0,+33.6664598,-084.1398552,GA,Georgia,13,28793.0,GA_30038,zip code,2.0,12406.0,30038,Georgia,GA,"Atlanta, GA",12060.0,13089.0,"DeKalb County, GA",547.0,county,"LITHONIA, GA",LITHONIA,1308930038.0,11956.0,"Lithonia, GA",,,GA_30038,Complete data,True,True,True
30039,30039,65461054.0,1138047.0,+33.7992438,-084.0344079,GA,Georgia,13,29149.0,GA_30039,zip code,2.0,12407.0,30039,Georgia,GA,"Atlanta, GA",12060.0,13135.0,"Gwinnett County, GA",570.0,county,"SNELLVILLE, GA",SNELLVILLE,1313530039.0,18285.0,"Snellville, GA",,,GA_30039,Complete data,True,True,True
30040,30040,149376604.0,1341135.0,+34.2234336,-084.1764399,GA,Georgia,13,28883.0,GA_30040,zip code,2.0,12408.0,30040,Georgia,GA,"Atlanta, GA",12060.0,13117.0,"Forsyth County, GA",561.0,county,"CUMMING, GA",CUMMING,1311730040.0,5394.0,"Cumming, GA",,,GA_30040,Complete data,True,True,True
30041,30041,154631898.0,22883597.0,+34.1962217,-084.0966760,GA,Georgia,13,28930.0,GA_30041,zip code,2.0,12409.0,30041,Georgia,GA,"Atlanta, GA",12060.0,13117.0,"Forsyth County, GA",561.0,county,"CUMMING, GA",CUMMING,1311730041.0,5394.0,"Cumming, GA",,,GA_30041,Complete data,True,True,True
30043,30043,85661514.0,958910.0,+34.0100384,-084.0050432,GA,Georgia,13,29212.0,GA_30043,zip code,2.0,12411.0,30043,Georgia,GA,"Atlanta, GA",12060.0,13135.0,"Gwinnett County, GA",570.0,county,"LAWRENCEVILLE, GA",LAWRENCEVILLE,1313530043.0,11598.0,"Lawrenceville, GA",,,GA_30043,Complete data,True,True,True
30044,30044,64314807.0,457642.0,+33.9215023,-084.0688734,GA,Georgia,13,29329.0,GA_30044,zip code,2.0,12412.0,30044,Georgia,GA,"Atlanta, GA",12060.0,13135.0,"Gwinnett County, GA",570.0,county,"LAWRENCEVILLE, GA",LAWRENCEVILLE,1313530044.0,11598.0,"Lawrenceville, GA",,,GA_30044,Complete data,True,True,True
30045,30045,55038638.0,841471.0,+33.9365175,-083.9276690,GA,Georgia,13,29300.0,GA_30045,zip code,2.0,12413.0,30045,Georgia,GA,"Atlanta, GA",12060.0,13135.0,"Gwinnett County, GA",570.0,county,"LAWRENCEVILLE, GA",LAWRENCEVILLE,1313530045.0,11598.0,"Lawrenceville, GA",,,GA_30045,Complete data,True,True,True
30046,30046,40997229.0,303738.0,+33.9497016,-083.9934510,GA,Georgia,13,28862.0,GA_30046,zip code,2.0,12414.0,30046,Georgia,GA,"Atlanta, GA",12060.0,13135.0,"Gwinnett County, GA",570.0,county,"LAWRENCEVILLE, GA",LAWRENCEVILLE,1313530046.0,11598.0,"Lawrenceville, GA",,,GA_30046,Complete data,True,True,True
30047,30047,70886282.0,853514.0,+33.8701249,-084.1123222,GA,Georgia,13,29299.0,GA_30047,zip code,2.0,12415.0,30047,Georgia,GA,"Atlanta, GA",12060.0,13135.0,"Gwinnett County, GA",570.0,county,"LILBURN, GA",LILBURN,1313530047.0,11823.0,"Lilburn, GA",,,GA_30047,Complete data,True,True,True
30052,30052,230319887.0,1717331.0,+33.8170468,-083.8973154,GA,Georgia,13,29255.0,GA_30052,zip code,2.0,12418.0,30052,Georgia,GA,"Atlanta, GA",12060.0,13135.0,"Gwinnett County, GA",570.0,county,"LOGANVILLE, GA",LOGANVILLE,1313530052.0,30755.0,"Loganville, GA",,,GA_30052,Complete data,True,True,True
30054,30054,106010596.0,1862172.0,+33.6783533,-083.8829596,GA,Georgia,13,29310.0,GA_30054,zip code,2.0,12419.0,30054,Georgia,GA,"Atlanta, GA",12060.0,13217.0,"Newton County, GA",610.0,county,"OXFORD, GA",OXFORD,1321730054.0,15213.0,"Oxford, GA",,,GA_30054,Complete data,True,True,True
30055,30055,137533667.0,2039679.0,+33.4974112,-083.7497845,GA,Georgia,13,29202.0,GA_30055,zip code,2.0,12420.0,30055,Georgia,GA,"Atlanta, GA",12060.0,13159.0,"Jasper County, GA",582.0,county,"MANSFIELD, GA",MANSFIELD,1315930055.0,12727.0,"Mansfield, GA",,,GA_30055,Complete data,True,True,True
30056,30056,113367479.0,1024483.0,+33.4919745,-083.6501439,GA,Georgia,13,29457.0,GA_30056,zip code,2.0,12421.0,30056,Georgia,GA,"Atlanta, GA",12060.0,13159.0,"Jasper County, GA",582.0,county,"NEWBORN, GA",NEWBORN,1315930056.0,14142.0,"Newborn, GA",,,GA_30056,Complete data,True,True,True
30058,30058,79079508.0,1495751.0,+33.7383504,-084.1073763,GA,Georgia,13,28799.0,GA_30058,zip code,2.0,12422.0,30058,Georgia,GA,"Atlanta, GA",12060.0,13089.0,"DeKalb County, GA",547.0,county,"LITHONIA, GA",LITHONIA,1308930058.0,11956.0,"Lithonia, GA",,,GA_30058,Complete data,True,True,True
30060,30060,40161990.0,85935.0,+33.9200621,-084.5430998,GA,Georgia,13,29148.0,GA_30060,zip code,2.0,12423.0,30060,Georgia,GA,"Atlanta, GA",12060.0,13067.0,"Cobb County, GA",536.0,county,"MARIETTA, GA",MARIETTA,1306730060.0,12766.0,"Marietta, GA",,,GA_30060,Complete data,True,True,True
30062,30062,67007780.0,689551.0,+34.0064971,-084.4729739,GA,Georgia,13,29168.0,GA_30062,zip code,2.0,12425.0,30062,Georgia,GA,"Atlanta, GA",12060.0,13067.0,"Cobb County, GA",536.0,county,"MARIETTA, GA",MARIETTA,1306730062.0,12766.0,"Marietta, GA",,,GA_30062,Complete data,True,True,True
30064,30064,79562073.0,383815.0,+33.9404553,-084.6097078,GA,Georgia,13,28932.0,GA_30064,zip code,2.0,12427.0,30064,Georgia,GA,"Atlanta, GA",12060.0,13067.0,"Cobb County, GA",536.0,county,"MARIETTA, GA",MARIETTA,1306730064.0,12766.0,"Marietta, GA",,,GA_30064,Complete data,True,True,True
30066,30066,70343043.0,656037.0,+34.0323882,-084.5051537,GA,Georgia,13,29147.0,GA_30066,zip code,2.0,12429.0,30066,Georgia,GA,"Atlanta, GA",12060.0,13067.0,"Cobb County, GA",536.0,county,"MARIETTA, GA",MARIETTA,1306730066.0,12766.0,"Marietta, GA",,,GA_30066,Complete data,True,True,True
30067,30067,37218590.0,682721.0,+33.9342780,-084.4621855,GA,Georgia,13,29213.0,GA_30067,zip code,2.0,12430.0,30067,Georgia,GA,"Atlanta, GA",12060.0,13067.0,"Cobb County, GA",536.0,county,"MARIETTA, GA",MARIETTA,1306730067.0,12766.0,"Marietta, GA",,,GA_30067,Complete data,True,True,True
30068,30068,37296980.0,1059613.0,+33.9681158,-084.4317035,GA,Georgia,13,29288.0,GA_30068,zip code,2.0,12431.0,30068,Georgia,GA,"Atlanta, GA",12060.0,13067.0,"Cobb County, GA",536.0,county,"MARIETTA, GA",MARIETTA,1306730068.0,12766.0,"Marietta, GA",,,GA_30068,Complete data,True,True,True
30070,30070,67224.0,0.0,+33.5732823,-083.8955892,GA,Georgia,13,28926.0,GA_30070,,,,,,,,,,,,,,,,,,,,,Census only,True,False,True
30071,30071,31330189.0,115248.0,+33.9406520,-084.2067337,GA,Georgia,13,28955.0,GA_30071,zip code,2.0,12434.0,30071,Georgia,GA,"Atlanta, GA",12060.0,13135.0,"Gwinnett County, GA",570.0,county,"NORCROSS, GA",NORCROSS,1313530071.0,14439.0,"Norcross, GA",,,GA_30071,Complete data,True,True,True
30072,30072,332101.0,43791.0,+33.7914096,-084.2048436,GA,Georgia,13,29166.0,GA_30072,zip code,2.0,12435.0,30072,Georgia,GA,"Atlanta, GA",12060.0,13089.0,"DeKalb County, GA",547.0,county,"PINE LAKE, GA",PINE LAKE,1308930072.0,15713.0,"Pine Lake, GA",,,GA_30072,Complete data,True,True,True
30075,30075,77073476.0,2311561.0,+34.0526876,-084.3915873,GA,Georgia,13,29465.0,GA_30075,zip code,2.0,12438.0,30075,Georgia,GA,"Atlanta, GA",12060.0,13121.0,"Fulton County, GA",563.0,county,"ROSWELL, GA",ROSWELL,1312130075.0,17232.0,"Roswell, GA",,,GA_30075,Complete data,True,True,True
30076,30076,41531804.0,1533338.0,+34.0285788,-084.3113704,GA,Georgia,13,29106.0,GA_30076,zip code,2.0,12439.0,30076,Georgia,GA,"Atlanta, GA",12060.0,13121.0,"Fulton County, GA",563.0,county,"ROSWELL, GA",ROSWELL,1312130076.0,17232.0,"Roswell, GA",,,GA_30076,Complete data,True,True,True
30078,30078,44826697.0,664106.0,+33.8610185,-084.0179928,GA,Georgia,13,28863.0,GA_30078,zip code,2.0,12441.0,30078,Georgia,GA,"Atlanta, GA",12060.0,13135.0,"Gwinnett County, GA",570.0,county,"SNELLVILLE, GA",SNELLVILLE,1313530078.0,18285.0,"Snellville, GA",,,GA_30078,Complete data,True,True,True
30079,30079,3035809.0,18701.0,+33.7917395,-084.2607473,GA,Georgia,13,29145.0,GA_30079,zip code,2.0,12442.0,30079,Georgia,GA,"Atlanta, GA",12060.0,13089.0,"DeKalb County, GA",547.0,county,"SCOTTDALE, GA",SCOTTDALE,1308930079.0,25833.0,"Scottdale, GA",,,GA_30079,Complete data,True,True,True
30080,30080,32665660.0,67909.0,+33.8778181,-084.5017029,GA,Georgia,13,28934.0,GA_30080,zip code,2.0,12443.0,30080,Georgia,GA,"Atlanta, GA",12060.0,13067.0,"Cobb County, GA",536.0,county,"SMYRNA, GA",SMYRNA,1306730080.0,18261.0,"Smyrna, GA",,,GA_30080,Complete data,True,True,True
30082,30082,27265352.0,253116.0,+33.8546536,-084.5364366,GA,Georgia,13,29151.0,GA_30082,zip code,2.0,12445.0,30082,Georgia,GA,"Atlanta, GA",12060.0,13067.0,"Cobb County, GA",536.0,county,"SMYRNA, GA",SMYRNA,1306730082.0,18261.0,"Smyrna, GA",,,GA_30082,Complete data,True,True,True
30083,30083,46254140.0,1744818.0,+33.7965973,-084.1926030,GA,Georgia,13,28794.0,GA_30083,zip code,2.0,12446.0,30083,Georgia,GA,"Atlanta, GA",12060.0,13089.0,"DeKalb County, GA",547.0,county,"STONE MOUNTAIN, GA",STONE MOUNTAIN,1308930083.0,18770.0,"Stone Mountain, GA",,,GA_30083,Complete data,True,True,True
30084,30084,38538420.0,279889.0,+33.8540965,-084.2161550,GA,Georgia,13,28796.0,GA_30084,zip code,2.0,12447.0,30084,Georgia,GA,"Atlanta, GA",12060.0,13089.0,"DeKalb County, GA",547.0,county,"TUCKER, GA",TUCKER,1308930084.0,26385.0,"Tucker, GA",,,GA_30084,Complete data,True,True,True
30087,30087,58593863.0,1291281.0,+33.7914024,-084.0982765,GA,Georgia,13,28795.0,GA_30087,zip code,2.0,12450.0,30087,Georgia,GA,"Atlanta, GA",12060.0,13089.0,"DeKalb County, GA",547.0,county,"STONE MOUNTAIN, GA",STONE MOUNTAIN,1308930087.0,18770.0,"Stone Mountain, GA",,,GA_30087,Complete data,True,True,True
30088,30088,20310583.0,178780.0,+33.7560524,-084.1823630,GA,Georgia,13,29160.0,GA_30088,zip code,2.0,12451.0,30088,Georgia,GA,"Atlanta, GA",12060.0,13089.0,"DeKalb County, GA",547.0,county,"STONE MOUNTAIN, GA",STONE MOUNTAIN,1308930088.0,18770.0,"Stone Mountain, GA",,,GA_30088,Complete data,True,True,True
30090,30090,34220.0,0.0,+33.9531411,-084.5481589,GA,Georgia,13,29154.0,GA_30090,,,,,,,,,,,,,,,,,,,,,Census only,True,False,True
30092,30092,28932732.0,523313.0,+33.9723859,-084.2319860,GA,Georgia,13,28774.0,GA_30092,zip code,2.0,12454.0,30092,Georgia,GA,"Atlanta, GA",12060.0,13135.0,"Gwinnett County, GA",570.0,county,"PEACHTREE CORNERS, GA",PEACHTREE CORNERS,1313530092.0,35853.0,"Peachtree Corners, GA",,,GA_30092,Complete data,True,True,True
30093,30093,31087952.0,465830.0,+33.9089106,-084.1792403,GA,Georgia,13,29178.0,GA_30093,zip code,2.0,12455.0,30093,Georgia,GA,"Atlanta, GA",12060.0,13135.0,"Gwinnett County, GA",570.0,county,"NORCROSS, GA",NORCROSS,1313530093.0,14439.0,"Norcross, GA",,,GA_30093,Complete data,True,True,True
30094,30094,101764065.0,1393369.0,+33.6125047,-084.0515228,GA,Georgia,13,29243.0,GA_30094,zip code,2.0,12456.0,30094,Georgia,GA,"Atlanta, GA",12060.0,13247.0,"Rockdale County, GA",625.0,county,"CONYERS, GA",CONYERS,1324730094.0,4983.0,"Conyers, GA",,,GA_30094,Complete data,True,True,True
30096,30096,58895019.0,1036093.0,+33.9743018,-084.1453842,GA,Georgia,13,28940.0,GA_30096,zip code,2.0,12458.0,30096,Georgia,GA,"Atlanta, GA",12060.0,13135.0,"Gwinnett County, GA",570.0,county,"DULUTH, GA",DULUTH,1313530096.0,6333.0,"Duluth, GA",,,GA_30096,Complete data,True,True,True
30097,30097,60948999.0,1178274.0,+34.0263349,-084.1456768,GA,Georgia,13,28827.0,GA_30097,zip code,2.0,12459.0,30097,Georgia,GA,"Atlanta, GA",12060.0,13135.0,"Gwinnett County, GA",570.0,county,"DULUTH, GA",DULUTH,1313530097.0,6333.0,"Duluth, GA",,,GA_30097,Complete data,True,True,True
30101,30101,106077471.0,5877498.0,+34.0345154,-084.7073487,GA,Georgia,13,28835.0,GA_30101,zip code,2.0,12462.0,30101,Georgia,GA,"Atlanta, GA",12060.0,13067.0,"Cobb County, GA",536.0,county,"ACWORTH, GA",ACWORTH,1306730101.0,81.0,"Acworth, GA",,,GA_30101,Complete data,True,True,True
30102,30102,81417897.0,12093292.0,+34.1016254,-084.6451682,GA,Georgia,13,29163.0,GA_30102,zip code,2.0,12463.0,30102,Georgia,GA,"Atlanta, GA",12060.0,13057.0,"Cherokee County, GA",531.0,county,"ACWORTH, GA",ACWORTH,1305730102.0,81.0,"Acworth, GA",,,GA_30102,Complete data,True,True,True
30103,30103,269131303.0,368546.0,+34.3632421,-084.9201922,GA,Georgia,13,28991.0,GA_30103,zip code,2.0,12464.0,30103,Georgia,GA,"Atlanta, GA",12060.0,13015.0,"Bartow County, GA",511.0,county,"ADAIRSVILLE, GA",ADAIRSVILLE,1301530103.0,86.0,"Adairsville, GA",,,GA_30103,Complete data,True,True,True
30104,30104,88031529.0,1036285.0,+34.0888743,-085.0703821,GA,Georgia,13,29086.0,GA_30104,zip code,2.0,12465.0,30104,Georgia,GA,"Cedartown, GA",16340.0,13233.0,"Polk County, GA",618.0,county,"ARAGON, GA",ARAGON,1323330104.0,682.0,"Aragon, GA",,,GA_30104,Complete data,True,True,True
30105,30105,140941928.0,1394420.0,+34.4325481,-085.1724417,GA,Georgia,13,29000.0,GA_30105,zip code,2.0,12466.0,30105,Georgia,GA,"Rome, GA",40660.0,13115.0,"Floyd County, GA",560.0,county,"ARMUCHEE, GA",ARMUCHEE,1311530105.0,,,,,GA_30105,Complete data,True,True,True
30106,30106,32652676.0,68069.0,+33.8328801,-084.6280552,GA,Georgia,13,28852.0,GA_30106,zip code,2.0,12467.0,30106,Georgia,GA,"Atlanta, GA",12060.0,13067.0,"Cobb County, GA",536.0,county,"AUSTELL, GA",AUSTELL,1306730106.0,30761.0,"Austell, GA",,,GA_30106,Complete data,True,True,True
30107,30107,280036800.0,2957103.0,+34.3360983,-084.3454637,GA,Georgia,13,29179.0,GA_30107,zip code,2.0,12468.0,30107,Georgia,GA,"Atlanta, GA",12060.0,13057.0,"Cherokee County, GA",531.0,county,"BALL GROUND, GA",BALL GROUND,1305730107.0,1341.0,"Ball Ground, GA",,,GA_30107,Complete data,True,True,True
30108,30108,231471792.0,381112.0,+33.5317002,-085.2629964,GA,Georgia,13,28931.0,GA_30108,zip code,2.0,12469.0,30108,Georgia,GA,"Atlanta, GA",12060.0,13045.0,"Carroll County, GA",525.0,county,"BOWDON, GA",BOWDON,1304530108.0,2460.0,"Bowdon, GA",,,GA_30108,Complete data,True,True,True
30110,30110,186581257.0,942344.0,+33.7392433,-085.1354341,GA,Georgia,13,29431.0,GA_30110,zip code,2.0,12471.0,30110,Georgia,GA,"Atlanta, GA",12060.0,13143.0,"Haralson County, GA",574.0,county,"BREMEN, GA",BREMEN,1314330110.0,30764.0,"Bremen, GA",,,GA_30110,Complete data,True,True,True
30111,30111,1052893.0,0.0,+33.8317871,-084.6550390,GA,Georgia,13,28854.0,GA_30111,,,,,,,,,,,,,,,,,,,,,Census only,True,False,True
30113,30113,264271957.0,1062629.0,+33.8507464,-085.2053083,GA,Georgia,13,29071.0,GA_30113,zip code,2.0,12474.0,30113,Georgia,GA,"Atlanta, GA",12060.0,13143.0,"Haralson County, GA",574.0,county,"BUCHANAN, GA",BUCHANAN,1314330113.0,3009.0,"Buchanan, GA",,,GA_30113,Complete data,True,True,True
30114,30114,246537801.0,17043421.0,+34.2435443,-084.5358152,GA,Georgia,13,29337.0,GA_30114,zip code,2.0,12475.0,30114,Georgia,GA,"Atlanta, GA",12060.0,13057.0,"Cherokee County, GA",531.0,county,"CANTON, GA",CANTON,1305730114.0,3379.0,"Canton, GA",,,GA_30114,Complete data,True,True,True
30115,30115,189507953.0,2032750.0,+34.2155193,-084.4024260,GA,Georgia,13,29339.0,GA_30115,zip code,2.0,12476.0,30115,Georgia,GA,"Atlanta, GA",12060.0,13057.0,"Cherokee County, GA",531.0,county,"CANTON, GA",CANTON,1305730115.0,3379.0,"Canton, GA",,,GA_30115,Complete data,True,True,True
30116,30116,271801852.0,3464908.0,+33.5391179,-084.9956100,GA,Georgia,13,29268.0,GA_30116,zip code,2.0,12477.0,30116,Georgia,GA,"Atlanta, GA",12060.0,13045.0,"Carroll County, GA",525.0,county,"CARROLLTON, GA",CARROLLTON,1304530116.0,3515.0,"Carrollton, GA",,,GA_30116,Complete data,True,True,True
30117,30117,279974926.0,2385596.0,+33.5818511,-085.1324387,GA,Georgia,13,29308.0,GA_30117,zip code,2.0,12478.0,30117,Georgia,GA,"Atlanta, GA",12060.0,13045.0,"Carroll County, GA",525.0,county,"CARROLLTON, GA",CARROLLTON,1304530117.0,3515.0,"Carrollton, GA",,,GA_30117,Complete data,True,True,True
30118,30118,519108.0,0.0,+33.5729022,-085.0994375,GA,Georgia,13,29002.0,GA_30118,,,,,,,,,,,,,,,,,,,,,Census only,True,False,True
30120,30120,240809822.0,3193898.0,+34.1752285,-084.8600360,GA,Georgia,13,28961.0,GA_30120,zip code,2.0,12481.0,30120,Georgia,GA,"Atlanta, GA",12060.0,13015.0,"Bartow County, GA",511.0,county,"CARTERSVILLE, GA",CARTERSVILLE,1301530120.0,3562.0,"Cartersville, GA",,,GA_30120,Complete data,True,True,True
30121,30121,149440458.0,4785135.0,+34.2118536,-084.7769301,GA,Georgia,13,29276.0,GA_30121,zip code,2.0,12482.0,30121,Georgia,GA,"Atlanta, GA",12060.0,13015.0,"Bartow County, GA",511.0,county,"CARTERSVILLE, GA",CARTERSVILLE,1301530121.0,3562.0,"Cartersville, GA",,,GA_30121,Complete data,True,True,True
30122,30122,64056030.0,340831.0,+33.7669094,-084.6413563,GA,Georgia,13,28856.0,GA_30122,zip code,2.0,12483.0,30122,Georgia,GA,"Atlanta, GA",12060.0,13097.0,"Douglas County, GA",551.0,county,"LITHIA SPRINGS, GA",LITHIA SPRINGS,1309730122.0,24246.0,"Lithia Springs, GA",,,GA_30122,Complete data,True,True,True
30124,30124,155425214.0,1676717.0,+34.1337361,-085.3458266,GA,Georgia,13,29048.0,GA_30124,zip code,2.0,12485.0,30124,Georgia,GA,"Rome, GA",40660.0,13115.0,"Floyd County, GA",560.0,county,"CAVE SPRING, GA",CAVE SPRING,1311530124.0,3666.0,"Cave Spring, GA",,,GA_30124,Complete data,True,True,True
30125,30125,472021778.0,2060904.0,+34.0006415,-085.2768049,GA,Georgia,13,29049.0,GA_30125,zip code,2.0,12486.0,30125,Georgia,GA,"Cedartown, GA",16340.0,13233.0,"Polk County, GA",618.0,county,"CEDARTOWN, GA",CEDARTOWN,1323330125.0,3765.0,"Cedartown, GA",,,GA_30125,Complete data,True,True,True
30126,30126,53064998.0,381345.0,+33.8150233,-084.5537978,GA,Georgia,13,28805.0,GA_30126,zip code,2.0,12487.0,30126,Georgia,GA,"Atlanta, GA",12060.0,13067.0,"Cobb County, GA",536.0,county,"MABLETON, GA",MABLETON,1306730126.0,24344.0,"Mableton, GA",,,GA_30126,Complete data,True,True,True
30127,30127,132857320.0,1049013.0,+33.8750837,-084.6993397,GA,Georgia,13,29285.0,GA_30127,zip code,2.0,12488.0,30127,Georgia,GA,"Atlanta, GA",12060.0,13067.0,"Cobb County, GA",536.0,county,"POWDER SPRINGS, GA",POWDER SPRINGS,1306730127.0,16060.0,"Powder Springs, GA",,,GA_30127,Complete data,True,True,True
30132,30132,265332006.0,1802627.0,+33.9776080,-084.8515408,GA,Georgia,13,29303.0,GA_30132,zip code,2.0,12490.0,30132,Georgia,GA,"Atlanta, GA",12060.0,13223.0,"Paulding County, GA",613.0,county,"DALLAS, GA",DALLAS,1322330132.0,5500.0,"Dallas, GA",,,GA_30132,Complete data,True,True,True
30134,30134,134922130.0,423226.0,+33.7775202,-084.7813898,GA,Georgia,13,29264.0,GA_30134,zip code,2.0,12492.0,30134,Georgia,GA,"Atlanta, GA",12060.0,13097.0,"Douglas County, GA",551.0,county,"DOUGLASVILLE, GA",DOUGLASVILLE,1309730134.0,6147.0,"Douglasville, GA",,,GA_30134,Complete data,True,True,True
30135,30135,216384116.0,1553444.0,+33.6722784,-084.7330105,GA,Georgia,13,29263.0,GA_30135,zip code,2.0,12493.0,30135,Georgia,GA,"Atlanta, GA",12060.0,13097.0,"Douglas County, GA",551.0,county,"DOUGLASVILLE, GA",DOUGLASVILLE,1309730135.0,6147.0,"Douglasville, GA",,,GA_30135,Complete data,True,True,True
30137,30137,8264460.0,0.0,+34.1165564,-084.7657003,GA,Georgia,13,29392.0,GA_30137,zip code,2.0,12494.0,30137,Georgia,GA,"Atlanta, GA",12060.0,13015.0,"Bartow County, GA",511.0,county,"EMERSON, GA",EMERSON,1301530137.0,6985.0,"Emerson, GA",,,GA_30137,Complete data,True,True,True
30139,30139,187781063.0,194830.0,+34.4324105,-084.7056391,GA,Georgia,13,28918.0,GA_30139,zip code,2.0,12496.0,30139,Georgia,GA,"Calhoun, GA",15660.0,13129.0,"Gordon County, GA",567.0,county,"FAIRMOUNT, GA",FAIRMOUNT,1312930139.0,7269.0,"Fairmount, GA",,,GA_30139,Complete data,True,True,True
30141,30141,71542612.0,466340.0,+33.8604436,-084.7698465,GA,Georgia,13,28908.0,GA_30141,zip code,2.0,12498.0,30141,Georgia,GA,"Atlanta, GA",12060.0,13223.0,"Paulding County, GA",613.0,county,"HIRAM, GA",HIRAM,1322330141.0,9915.0,"Hiram, GA",,,GA_30141,Complete data,True,True,True
30143,30143,376311263.0,1500493.0,+34.4627556,-084.4252271,GA,Georgia,13,29170.0,GA_30143,zip code,2.0,12500.0,30143,Georgia,GA,"Atlanta, GA",12060.0,13227.0,"Pickens County, GA",615.0,county,"JASPER, GA",JASPER,1322730143.0,10667.0,"Jasper, GA",,,GA_30143,Complete data,True,True,True
30144,30144,57318788.0,521242.0,+34.0368455,-084.5910333,GA,Georgia,13,28797.0,GA_30144,zip code,2.0,12501.0,30144,Georgia,GA,"Atlanta, GA",12060.0,13067.0,"Cobb County, GA",536.0,county,"KENNESAW, GA",KENNESAW,1306730144.0,10991.0,"Kennesaw, GA",,,GA_30144,Complete data,True,True,True
30145,30145,192746558.0,1767075.0,+34.2456603,-084.9858780,GA,Georgia,13,29397.0,GA_30145,zip code,2.0,12502.0,30145,Georgia,GA,"Atlanta, GA",12060.0,13015.0,"Bartow County, GA",511.0,county,"KINGSTON, GA",KINGSTON,1301530145.0,11118.0,"Kingston, GA",,,GA_30145,Complete data,True,True,True
30147,30147,48863310.0,536056.0,+34.1349402,-085.2220599,GA,Georgia,13,29406.0,GA_30147,zip code,2.0,12504.0,30147,Georgia,GA,"Rome, GA",40660.0,13115.0,"Floyd County, GA",560.0,county,"LINDALE, GA",LINDALE,1311530147.0,24225.0,"Lindale, GA",,,GA_30147,Complete data,True,True,True
30148,30148,25535856.0,94557.0,+34.4604896,-084.2657011,GA,Georgia,13,29286.0,GA_30148,zip code,2.0,12505.0,30148,Georgia,GA,"Atlanta, GA",12060.0,13227.0,"Pickens County, GA",615.0,county,"MARBLE HILL, GA",MARBLE HILL,1322730148.0,,,,,GA_30148,Complete data,True,True,True
30149,30149,17389010.0,44349.0,+34.3167888,-085.2202893,GA,Georgia,13,29193.0,GA_30149,,,,,,,,,,,,,,,,,,,,,Census only,True,False,True
30152,30152,57817754.0,658571.0,+33.9915642,-084.6468702,GA,Georgia,13,28938.0,GA_30152,zip code,2.0,12509.0,30152,Georgia,GA,"Atlanta, GA",12060.0,13067.0,"Cobb County, GA",536.0,county,"KENNESAW, GA",KENNESAW,1306730152.0,10991.0,"Kennesaw, GA",,,GA_30152,Complete data,True,True,True
30153,30153,319224815.0,2431647.0,+33.9738218,-085.0528564,GA,Georgia,13,28757.0,GA_30153,zip code,2.0,12510.0,30153,Georgia,GA,"Cedartown, GA",16340.0,13233.0,"Polk County, GA",618.0,county,"ROCKMART, GA",ROCKMART,1323330153.0,16974.0,"Rockmart, GA",,,GA_30153,Complete data,True,True,True
30157,30157,220404517.0,1365448.0,+33.8847459,-084.8719494,GA,Georgia,13,28802.0,GA_30157,zip code,2.0,12513.0,30157,Georgia,GA,"Atlanta, GA",12060.0,13223.0,"Paulding County, GA",613.0,county,"DALLAS, GA",DALLAS,1322330157.0,5500.0,"Dallas, GA",,,GA_30157,Complete data,True,True,True
30161,30161,371016462.0,6788713.0,+34.2362301,-085.1739933,GA,Georgia,13,29441.0,GA_30161,zip code,2.0,12515.0,30161,Georgia,GA,"Rome, GA",40660.0,13115.0,"Floyd County, GA",560.0,county,"ROME, GA",ROME,1311530161.0,17078.0,"Rome, GA",,,GA_30161,Complete data,True,True,True
30165,30165,432466295.0,10501113.0,+34.3157882,-085.2951225,GA,Georgia,13,28999.0,GA_30165,zip code,2.0,12519.0,30165,Georgia,GA,"Rome, GA",40660.0,13115.0,"Floyd County, GA",560.0,county,"ROME, GA",ROME,1311530165.0,17078.0,"Rome, GA",,,GA_30165,Complete data,True,True,True
30168,30168,32054295.0,254426.0,+33.7835417,-084.5881058,GA,Georgia,13,28804.0,GA_30168,zip code,2.0,12520.0,30168,Georgia,GA,"Atlanta, GA",12060.0,13067.0,"Cobb County, GA",536.0,county,"AUSTELL, GA",AUSTELL,1306730168.0,30761.0,"Austell, GA",,,GA_30168,Complete data,True,True,True
30170,30170,117557057.0,41405.0,+33.4327917,-085.1646737,GA,Georgia,13,28886.0,GA_30170,zip code,2.0,12522.0,30170,Georgia,GA,"Atlanta, GA",12060.0,13045.0,"Carroll County, GA",525.0,county,"ROOPVILLE, GA",ROOPVILLE,1304530170.0,17082.0,"Roopville, GA",,,GA_30170,Complete data,True,True,True
30171,30171,106522109.0,13135.0,+34.3633606,-084.7274388,GA,Georgia,13,28895.0,GA_30171,zip code,2.0,12523.0,30171,Georgia,GA,"Atlanta, GA",12060.0,13015.0,"Bartow County, GA",511.0,county,"RYDAL, GA",RYDAL,1301530171.0,,,,,GA_30171,Complete data,True,True,True
30173,30173,90385482.0,471630.0,+34.1331209,-085.1535047,GA,Georgia,13,28730.0,GA_30173,zip code,2.0,12525.0,30173,Georgia,GA,"Rome, GA",40660.0,13115.0,"Floyd County, GA",560.0,county,"SILVER CREEK, GA",SILVER CREEK,1311530173.0,,,,,GA_30173,Complete data,True,True,True
30175,30175,225818232.0,273971.0,+34.5349153,-084.5267110,GA,Georgia,13,29211.0,GA_30175,zip code,2.0,12526.0,30175,Georgia,GA,"Atlanta, GA",12060.0,13227.0,"Pickens County, GA",615.0,county,"TALKING ROCK, GA",TALKING ROCK,1322730175.0,19081.0,"Talking Rock, GA",,,GA_30175,Complete data,True,True,True
30176,30176,215309968.0,213472.0,+33.7713145,-085.3043898,GA,Georgia,13,28741.0,GA_30176,zip code,2.0,12527.0,30176,Georgia,GA,"Atlanta, GA",12060.0,13143.0,"Haralson County, GA",574.0,county,"TALLAPOOSA, GA",TALLAPOOSA,1314330176.0,19088.0,"Tallapoosa, GA",,,GA_30176,Complete data,True,True,True
30177,30177,9397637.0,0.0,+34.4071358,-084.3739998,GA,Georgia,13,28872.0,GA_30177,zip code,2.0,12528.0,30177,Georgia,GA,"Atlanta, GA",12060.0,13227.0,"Pickens County, GA",615.0,county,"TATE, GA",TATE,1322730177.0,,,,,GA_30177,Complete data,True,True,True
30178,30178,152971362.0,472481.0,+34.0955101,-084.9710456,GA,Georgia,13,28777.0,GA_30178,zip code,2.0,12529.0,30178,Georgia,GA,"Atlanta, GA",12060.0,13015.0,"Bartow County, GA",511.0,county,"TAYLORSVILLE, GA",TAYLORSVILLE,1301530178.0,30752.0,"Taylorsville, GA",,,GA_30178,Complete data,True,True,True
30179,30179,189954248.0,2293372.0,+33.7815530,-085.0147821,GA,Georgia,13,29096.0,GA_30179,zip code,2.0,12530.0,30179,Georgia,GA,"Atlanta, GA",12060.0,13045.0,"Carroll County, GA",525.0,county,"TEMPLE, GA",TEMPLE,1304530179.0,30760.0,"Temple, GA",,,GA_30179,Complete data,True,True,True
30180,30180,200456028.0,2217420.0,+33.7188775,-084.9188012,GA,Georgia,13,29313.0,GA_30180,zip code,2.0,12531.0,30180,Georgia,GA,"Atlanta, GA",12060.0,13045.0,"Carroll County, GA",525.0,county,"VILLA RICA, GA",VILLA RICA,1304530180.0,30753.0,"Villa Rica, GA",,,GA_30180,Complete data,True,True,True
30182,30182,90939447.0,195428.0,+33.6558187,-085.2488315,GA,Georgia,13,29463.0,GA_30182,zip code,2.0,12532.0,30182,Georgia,GA,"Atlanta, GA",12060.0,13143.0,"Haralson County, GA",574.0,county,"WACO, GA",WACO,1314330182.0,20047.0,"Waco, GA",,,GA_30182,Complete data,True,True,True
30183,30183,162965569.0,2125540.0,+34.3388043,-084.6024250,GA,Georgia,13,28916.0,GA_30183,zip code,2.0,12533.0,30183,Georgia,GA,"Atlanta, GA",12060.0,13057.0,"Cherokee County, GA",531.0,county,"WALESKA, GA",WALESKA,1305730183.0,20082.0,"Waleska, GA",,,GA_30183,Complete data,True,True,True
30184,30184,197305433.0,7490277.0,+34.2520617,-084.7410555,GA,Georgia,13,28965.0,GA_30184,zip code,2.0,12534.0,30184,Georgia,GA,"Atlanta, GA",12060.0,13015.0,"Bartow County, GA",511.0,county,"WHITE, GA",WHITE,1301530184.0,20494.0,"White, GA",,,GA_30184,Complete data,True,True,True
30185,30185,161429732.0,1390848.0,+33.5198017,-084.9180980,GA,Georgia,13,28927.0,GA_30185,zip code,2.0,12535.0,30185,Georgia,GA,"Atlanta, GA",12060.0,13045.0,"Carroll County, GA",525.0,county,"WHITESBURG, GA",WHITESBURG,1304530185.0,20527.0,"Whitesburg, GA",,,GA_30185,Complete data,True,True,True
30187,30187,81500666.0,55304.0,+33.6527613,-084.8562491,GA,Georgia,13,29265.0,GA_30187,zip code,2.0,12536.0,30187,Georgia,GA,"Atlanta, GA",12060.0,13097.0,"Douglas County, GA",551.0,county,"WINSTON, GA",WINSTON,1309730187.0,,,,,GA_30187,Complete data,True,True,True
30188,30188,113046943.0,1264309.0,+34.1235327,-084.4576541,GA,Georgia,13,29153.0,GA_30188,zip code,2.0,12537.0,30188,Georgia,GA,"Atlanta, GA",12060.0,13057.0,"Cherokee County, GA",531.0,county,"WOODSTOCK, GA",WOODSTOCK,1305730188.0,20749.0,"Woodstock, GA",,,GA_30188,Complete data,True,True,True
30189,30189,49792402.0,5701957.0,+34.1242244,-084.5706790,GA,Georgia,13,29341.0,GA_30189,zip code,2.0,12538.0,30189,Georgia,GA,"Atlanta, GA",12060.0,13057.0,"Cherokee County, GA",531.0,county,"WOODSTOCK, GA",WOODSTOCK,1305730189.0,20749.0,"Woodstock, GA",,,GA_30189,Complete data,True,True,True
30204,30204,324533716.0,3342369.0,+33.0562083,-084.1217255,GA,Georgia,13,29085.0,GA_30204,zip code,2.0,12539.0,30204,Georgia,GA,"Atlanta, GA",12060.0,13171.0,"Lamar County, GA",588.0,county,"BARNESVILLE, GA",BARNESVILLE,1317130204.0,1429.0,"Barnesville, GA",,,GA_30204,Complete data,True,True,True
30205,30205,95163100.0,2071773.0,+33.2674270,-084.4751164,GA,Georgia,13,29376.0,GA_30205,zip code,2.0,12540.0,30205,Georgia,GA,"Atlanta, GA",12060.0,13113.0,"Fayette County, GA",559.0,county,"BROOKS, GA",BROOKS,1311330205.0,2855.0,"Brooks, GA",,,GA_30205,Complete data,True,True,True
30206,30206,127896651.0,1558259.0,+33.0960644,-084.4582592,GA,Georgia,13,29088.0,GA_30206,zip code,2.0,12541.0,30206,Georgia,GA,"Atlanta, GA",12060.0,13231.0,"Pike County, GA",617.0,county,"CONCORD, GA",CONCORD,1323130206.0,4952.0,"Concord, GA",,,GA_30206,Complete data,True,True,True
30213,30213,160777959.0,2584973.0,+33.5867421,-084.6244260,GA,Georgia,13,29102.0,GA_30213,zip code,2.0,12543.0,30213,Georgia,GA,"Atlanta, GA",12060.0,13121.0,"Fulton County, GA",563.0,county,"FAIRBURN, GA",FAIRBURN,1312130213.0,7240.0,"Fairburn, GA",,,GA_30213,Complete data,True,True,True
30214,30214,136629396.0,2966262.0,+33.4904635,-084.4859966,GA,Georgia,13,29229.0,GA_30214,zip code,2.0,12544.0,30214,Georgia,GA,"Atlanta, GA",12060.0,13113.0,"Fayette County, GA",559.0,county,"FAYETTEVILLE, GA",FAYETTEVILLE,1311330214.0,7375.0,"Fayetteville, GA",,,GA_30214,Complete data,True,True,True
30215,30215,183551869.0,4465396.0,+33.3916128,-084.4564318,GA,Georgia,13,29289.0,GA_30215,zip code,2.0,12545.0,30215,Georgia,GA,"Atlanta, GA",12060.0,13113.0,"Fayette County, GA",559.0,county,"FAYETTEVILLE, GA",FAYETTEVILLE,1311330215.0,7375.0,"Fayetteville, GA",,,GA_30215,Complete data,True,True,True
30216,30216,102294517.0,2114380.0,+33.2288339,-083.8848632,GA,Georgia,13,29267.0,GA_30216,zip code,2.0,12546.0,30216,Georgia,GA,"Atlanta, GA",12060.0,13035.0,"Butts County, GA",521.0,county,"FLOVILLA, GA",FLOVILLA,1303530216.0,7733.0,"Flovilla, GA",,,GA_30216,Complete data,True,True,True
30217,30217,657525965.0,15168141.0,+33.2913469,-085.1378862,GA,Georgia,13,28976.0,GA_30217,zip code,2.0,12547.0,30217,Georgia,GA,"Atlanta, GA",12060.0,13149.0,"Heard County, GA",577.0,county,"FRANKLIN, GA",FRANKLIN,1314930217.0,8003.0,"Franklin, GA",,,GA_30217,Complete data,True,True,True
30218,30218,170344094.0,2461556.0,+33.1202967,-084.5874550,GA,Georgia,13,29393.0,GA_30218,zip code,2.0,12548.0,30218,Georgia,GA,"Atlanta, GA",12060.0,13199.0,"Meriwether County, GA",602.0,county,"GAY, GA",GAY,1319930218.0,8268.0,"Gay, GA",,,GA_30218,Complete data,True,True,True
30220,30220,131926472.0,225308.0,+33.2308386,-084.8248604,GA,Georgia,13,28884.0,GA_30220,zip code,2.0,12550.0,30220,Georgia,GA,"Atlanta, GA",12060.0,13077.0,"Coweta County, GA",541.0,county,"GRANTVILLE, GA",GRANTVILLE,1307730220.0,8789.0,"Grantville, GA",,,GA_30220,Complete data,True,True,True
30222,30222,390243990.0,2179195.0,+33.0443549,-084.7434952,GA,Georgia,13,28989.0,GA_30222,zip code,2.0,12551.0,30222,Georgia,GA,"Atlanta, GA",12060.0,13199.0,"Meriwether County, GA",602.0,county,"GREENVILLE, GA",GREENVILLE,1319930222.0,8909.0,"Greenville, GA",,,GA_30222,Complete data,True,True,True
30223,30223,279654683.0,5663844.0,+33.2887935,-084.2799192,GA,Georgia,13,29331.0,GA_30223,zip code,2.0,12552.0,30223,Georgia,GA,"Atlanta, GA",12060.0,13255.0,"Spalding County, GA",629.0,county,"GRIFFIN, GA",GRIFFIN,1325530223.0,8993.0,"Griffin, GA",,,GA_30223,Complete data,True,True,True
30224,30224,175251316.0,2926342.0,+33.2044322,-084.2397353,GA,Georgia,13,29429.0,GA_30224,zip code,2.0,12553.0,30224,Georgia,GA,"Atlanta, GA",12060.0,13255.0,"Spalding County, GA",629.0,county,"GRIFFIN, GA",GRIFFIN,1325530224.0,8993.0,"Griffin, GA",,,GA_30224,Complete data,True,True,True
30228,30228,189425395.0,8457860.0,+33.4006084,-084.3077280,GA,Georgia,13,29150.0,GA_30228,zip code,2.0,12554.0,30228,Georgia,GA,"Atlanta, GA",12060.0,13151.0,"Henry County, GA",578.0,county,"HAMPTON, GA",HAMPTON,1315130228.0,9233.0,"Hampton, GA",,,GA_30228,Complete data,True,True,True
30229,30229,78017.0,0.0,+33.2279344,-084.5703409,GA,Georgia,13,29220.0,GA_30229,,,,,,,,,,,,,,,,,,,,,Census only,True,False,True
30230,30230,361714315.0,5893759.0,+33.1667370,-084.9204967,GA,Georgia,13,28970.0,GA_30230,zip code,2.0,12556.0,30230,Georgia,GA,"LaGrange, GA",29300.0,13285.0,"Troup County, GA",644.0,county,"HOGANSVILLE, GA",HOGANSVILLE,1328530230.0,9964.0,"Hogansville, GA",,,GA_30230,Complete data,True,True,True
30233,30233,383062732.0,9691063.0,+33.2947090,-083.9755611,GA,Georgia,13,29287.0,GA_30233,zip code,2.0,12557.0,30233,Georgia,GA,"Atlanta, GA",12060.0,13035.0,"Butts County, GA",521.0,county,"JACKSON, GA",JACKSON,1303530233.0,10598.0,"Jackson, GA",,,GA_30233,Complete data,True,True,True
30234,30234,26429547.0,1669239.0,+33.3325671,-084.0252985,GA,Georgia,13,28864.0,GA_30234,zip code,2.0,12558.0,30234,Georgia,GA,"Atlanta, GA",12060.0,13035.0,"Butts County, GA",521.0,county,"JENKINSBURG, GA",JENKINSBURG,1303530234.0,10727.0,"Jenkinsburg, GA",,,GA_30234,Complete data,True,True,True
30236,30236,83894211.0,4165034.0,+33.5199270,-084.3251873,GA,Georgia,13,29169.0,GA_30236,zip code,2.0,12559.0,30236,Georgia,GA,"Atlanta, GA",12060.0,13063.0,"Clayton County, GA",534.0,county,"JONESBORO, GA",JONESBORO,1306330236.0,10844.0,"Jonesboro, GA",,,GA_30236,Complete data,True,True,True
30238,30238,44798086.0,393998.0,+33.5018464,-084.3822356,GA,Georgia,13,28903.0,GA_30238,zip code,2.0,12561.0,30238,Georgia,GA,"Atlanta, GA",12060.0,13063.0,"Clayton County, GA",534.0,county,"JONESBORO, GA",JONESBORO,1306330238.0,10844.0,"Jonesboro, GA",,,GA_30238,Complete data,True,True,True
30240,30240,361522686.0,70157957.0,+33.0367635,-085.1200916,GA,Georgia,13,28978.0,GA_30240,zip code,2.0,12562.0,30240,Georgia,GA,"LaGrange, GA",29300.0,13285.0,"Troup County, GA",644.0,county,"LAGRANGE, GA",LAGRANGE,1328530240.0,11301.0,"LaGrange, GA",,,GA_30240,Complete data,True,True,True
30241,30241,291154495.0,3591421.0,+33.0217122,-084.9562303,GA,Georgia,13,29385.0,GA_30241,zip code,2.0,12563.0,30241,Georgia,GA,"LaGrange, GA",29300.0,13285.0,"Troup County, GA",644.0,county,"LAGRANGE, GA",LAGRANGE,1328530241.0,11301.0,"LaGrange, GA",,,GA_30241,Complete data,True,True,True
30248,30248,183074933.0,6784214.0,+33.3504597,-084.1091193,GA,Georgia,13,29327.0,GA_30248,zip code,2.0,12564.0,30248,Georgia,GA,"Atlanta, GA",12060.0,13151.0,"Henry County, GA",578.0,county,"LOCUST GROVE, GA",LOCUST GROVE,1315130248.0,12040.0,"Locust Grove, GA",,,GA_30248,Complete data,True,True,True
30250,30250,74869.0,0.0,+33.4348460,-084.3060778,GA,Georgia,13,28942.0,GA_30250,,,,,,,,,,,,,,,,,,,,,Census only,True,False,True
30251,30251,94195722.0,431940.0,+33.1981745,-084.6981121,GA,Georgia,13,29271.0,GA_30251,zip code,2.0,12566.0,30251,Georgia,GA,"Atlanta, GA",12060.0,13199.0,"Meriwether County, GA",602.0,county,"LUTHERSVILLE, GA",LUTHERSVILLE,1319930251.0,12263.0,"Luthersville, GA",,,GA_30251,Complete data,True,True,True
30252,30252,243663731.0,3367660.0,+33.4735120,-084.0571651,GA,Georgia,13,29328.0,GA_30252,zip code,2.0,12567.0,30252,Georgia,GA,"Atlanta, GA",12060.0,13151.0,"Henry County, GA",578.0,county,"MCDONOUGH, GA",MCDONOUGH,1315130252.0,12439.0,"McDonough, GA",,,GA_30252,Complete data,True,True,True
30253,30253,121392674.0,1173950.0,+33.4536013,-084.1871670,GA,Georgia,13,29177.0,GA_30253,zip code,2.0,12568.0,30253,Georgia,GA,"Atlanta, GA",12060.0,13151.0,"Henry County, GA",578.0,county,"MCDONOUGH, GA",MCDONOUGH,1315130253.0,12439.0,"McDonough, GA",,,GA_30253,Complete data,True,True,True
30256,30256,92296672.0,1054920.0,+33.0074841,-084.3099003,GA,Georgia,13,29452.0,GA_30256,zip code,2.0,12569.0,30256,Georgia,GA,"Atlanta, GA",12060.0,13231.0,"Pike County, GA",617.0,county,"MEANSVILLE, GA",MEANSVILLE,1323130256.0,13022.0,"Meansville, GA",,,GA_30256,Complete data,True,True,True
30257,30257,109004192.0,1847345.0,+33.1434143,-084.1862196,GA,Georgia,13,28770.0,GA_30257,zip code,2.0,12570.0,30257,Georgia,GA,"Atlanta, GA",12060.0,13171.0,"Lamar County, GA",588.0,county,"MILNER, GA",MILNER,1317130257.0,13301.0,"Milner, GA",,,GA_30257,Complete data,True,True,True
30258,30258,139989311.0,2306014.0,+32.9908536,-084.4700407,GA,Georgia,13,28769.0,GA_30258,zip code,2.0,12571.0,30258,Georgia,GA,"Atlanta, GA",12060.0,13231.0,"Pike County, GA",617.0,county,"MOLENA, GA",MOLENA,1323130258.0,13442.0,"Molena, GA",,,GA_30258,Complete data,True,True,True
30259,30259,88772068.0,687343.0,+33.2656988,-084.7417430,GA,Georgia,13,28928.0,GA_30259,zip code,2.0,12572.0,30259,Georgia,GA,"Atlanta, GA",12060.0,13077.0,"Coweta County, GA",541.0,county,"MORELAND, GA",MORELAND,1307730259.0,13566.0,"Moreland, GA",,,GA_30259,Complete data,True,True,True
30260,30260,28292696.0,344519.0,+33.5871648,-084.3343070,GA,Georgia,13,28850.0,GA_30260,zip code,2.0,12573.0,30260,Georgia,GA,"Atlanta, GA",12060.0,13063.0,"Clayton County, GA",534.0,county,"MORROW, GA",MORROW,1306330260.0,13656.0,"Morrow, GA",,,GA_30260,Complete data,True,True,True
30263,30263,513023305.0,5842803.0,+33.3884148,-084.8589374,GA,Georgia,13,29023.0,GA_30263,zip code,2.0,12575.0,30263,Georgia,GA,"Atlanta, GA",12060.0,13077.0,"Coweta County, GA",541.0,county,"NEWNAN, GA",NEWNAN,1307730263.0,14250.0,"Newnan, GA",,,GA_30263,Complete data,True,True,True
30265,30265,113973353.0,1547186.0,+33.4186860,-084.7131635,GA,Georgia,13,29314.0,GA_30265,zip code,2.0,12577.0,30265,Georgia,GA,"Atlanta, GA",12060.0,13077.0,"Coweta County, GA",541.0,county,"NEWNAN, GA",NEWNAN,1307730265.0,14250.0,"Newnan, GA",,,GA_30265,Complete data,True,True,True
30268,30268,179462793.0,2849677.0,+33.5464300,-084.7226317,GA,Georgia,13,28781.0,GA_30268,zip code,2.0,12579.0,30268,Georgia,GA,"Atlanta, GA",12060.0,13121.0,"Fulton County, GA",563.0,county,"PALMETTO, GA",PALMETTO,1312130268.0,30768.0,"Palmetto, GA",,,GA_30268,Complete data,True,True,True
30269,30269,67774195.0,2435861.0,+33.3938909,-084.5693011,GA,Georgia,13,29378.0,GA_30269,zip code,2.0,12580.0,30269,Georgia,GA,"Atlanta, GA",12060.0,13113.0,"Fayette County, GA",559.0,county,"PEACHTREE CITY, GA",PEACHTREE CITY,1311330269.0,15449.0,"Peachtree City, GA",,,GA_30269,Complete data,True,True,True
30272,30272,142954.0,0.0,+33.6231224,-084.5017559,GA,Georgia,13,29467.0,GA_30272,zip code,2.0,12583.0,30272,Georgia,GA,"Atlanta, GA",12060.0,13121.0,"Fulton County, GA",563.0,county,"RED OAK, GA",RED OAK,1312130272.0,,,,,GA_30272,Complete data,True,True,True
30273,30273,18500845.0,123065.0,+33.5837982,-084.2710272,GA,Georgia,13,28851.0,GA_30273,zip code,2.0,12584.0,30273,Georgia,GA,"Atlanta, GA",12060.0,13063.0,"Clayton County, GA",534.0,county,"REX, GA",REX,1306330273.0,,,,,GA_30273,Complete data,True,True,True
30274,30274,26480031.0,120020.0,+33.5572637,-084.4005082,GA,Georgia,13,28803.0,GA_30274,zip code,2.0,12585.0,30274,Georgia,GA,"Atlanta, GA",12060.0,13063.0,"Clayton County, GA",534.0,county,"RIVERDALE, GA",RIVERDALE,1306330274.0,16777.0,"Riverdale, GA",,,GA_30274,Complete data,True,True,True
30275,30275,81792.0,0.0,+33.4306545,-084.8678645,GA,Georgia,13,29361.0,GA_30275,zip code,2.0,12586.0,30275,Georgia,GA,"Atlanta, GA",12060.0,13077.0,"Coweta County, GA",541.0,county,"SARGENT, GA",SARGENT,1307730275.0,,,,,GA_30275,Complete data,True,True,True
30276,30276,248830971.0,3338215.0,+33.2633141,-084.5834564,GA,Georgia,13,29374.0,GA_30276,zip code,2.0,12587.0,30276,Georgia,GA,"Atlanta, GA",12060.0,13077.0,"Coweta County, GA",541.0,county,"SENOIA, GA",SENOIA,1307730276.0,17804.0,"Senoia, GA",,,GA_30276,Complete data,True,True,True
30277,30277,118042882.0,1860793.0,+33.3753078,-084.6491964,GA,Georgia,13,28885.0,GA_30277,zip code,2.0,12588.0,30277,Georgia,GA,"Atlanta, GA",12060.0,13077.0,"Coweta County, GA",541.0,county,"SHARPSBURG, GA",SHARPSBURG,1307730277.0,17876.0,"Sharpsburg, GA",,,GA_30277,Complete data,True,True,True
30281,30281,179408192.0,2747472.0,+33.5568966,-084.1951588,GA,Georgia,13,28941.0,GA_30281,zip code,2.0,12589.0,30281,Georgia,GA,"Atlanta, GA",12060.0,13151.0,"Henry County, GA",578.0,county,"STOCKBRIDGE, GA",STOCKBRIDGE,1315130281.0,18748.0,"Stockbridge, GA",,,GA_30281,Complete data,True,True,True
30284,30284,60949.0,0.0,+33.3402879,-084.2885706,GA,Georgia,13,28929.0,GA_30284,zip code,2.0,12590.0,30284,Georgia,GA,"Atlanta, GA",12060.0,13255.0,"Spalding County, GA",629.0,county,"SUNNY SIDE, GA",SUNNY SIDE,1325530284.0,18916.0,"Sunny Side, GA",,,GA_30284,Complete data,True,True,True
30285,30285,41500341.0,667815.0,+32.9876729,-084.2581905,GA,Georgia,13,28773.0,GA_30285,zip code,2.0,12591.0,30285,Georgia,GA,"Thomaston, GA",45580.0,13293.0,"Upson County, GA",648.0,county,"THE ROCK, GA",THE ROCK,1329330285.0,35189.0,"The Rock, GA",,,GA_30285,Complete data,True,True,True
30286,30286,516283560.0,6949850.0,+32.8811184,-084.3331681,GA,Georgia,13,28742.0,GA_30286,zip code,2.0,12592.0,30286,Georgia,GA,"Thomaston, GA",45580.0,13293.0,"Upson County, GA",648.0,county,"THOMASTON, GA",THOMASTON,1329330286.0,19283.0,"Thomaston, GA",,,GA_30286,Complete data,True,True,True
30288,30288,17964388.0,139843.0,+33.6528971,-084.3271071,GA,Georgia,13,28843.0,GA_30288,zip code,2.0,12594.0,30288,Georgia,GA,"Atlanta, GA",12060.0,13089.0,"DeKalb County, GA",547.0,county,"CONLEY, GA",CONLEY,1308930288.0,22317.0,"Conley, GA",,,GA_30288,Complete data,True,True,True
30289,30289,315334.0,0.0,+33.3235960,-084.6336982,GA,Georgia,13,28888.0,GA_30289,zip code,2.0,12595.0,30289,Georgia,GA,"Atlanta, GA",12060.0,13077.0,"Coweta County, GA",541.0,county,"TURIN, GA",TURIN,1307730289.0,19620.0,"Turin, GA",,,GA_30289,Complete data,True,True,True
30290,30290,46334582.0,1285791.0,+33.4764070,-084.5897035,GA,Georgia,13,29377.0,GA_30290,zip code,2.0,12596.0,30290,Georgia,GA,"Atlanta, GA",12060.0,13113.0,"Fayette County, GA",559.0,county,"TYRONE, GA",TYRONE,1311330290.0,19683.0,"Tyrone, GA",,,GA_30290,Complete data,True,True,True
30291,30291,27941276.0,292057.0,+33.5758835,-084.5437711,GA,Georgia,13,28780.0,GA_30291,zip code,2.0,12597.0,30291,Georgia,GA,"Atlanta, GA",12060.0,13121.0,"Fulton County, GA",563.0,county,"UNION CITY, GA",UNION CITY,1312130291.0,19747.0,"Union City, GA",,,GA_30291,Complete data,True,True,True
30292,30292,150222064.0,2079284.0,+33.1684891,-084.3932248,GA,Georgia,13,29424.0,GA_30292,zip code,2.0,12598.0,30292,Georgia,GA,"Atlanta, GA",12060.0,13231.0,"Pike County, GA",617.0,county,"WILLIAMSON, GA",WILLIAMSON,1323130292.0,20593.0,"Williamson, GA",,,GA_30292,Complete data,True,True,True
30293,30293,196023310.0,2735159.0,+32.9790778,-084.5963023,GA,Georgia,13,29357.0,GA_30293,zip code,2.0,12599.0,30293,Georgia,GA,"Atlanta, GA",12060.0,13199.0,"Meriwether County, GA",602.0,county,"WOODBURY, GA",WOODBURY,1319930293.0,20719.0,"Woodbury, GA",,,GA_30293,Complete data,True,True,True
30294,30294,84854495.0,625326.0,+33.6366924,-084.2649861,GA,Georgia,13,29143.0,GA_30294,zip code,2.0,12600.0,30294,Georgia,GA,"Atlanta, GA",12060.0,13089.0,"DeKalb County, GA",547.0,county,"ELLENWOOD, GA",ELLENWOOD,1308930294.0,,,,,GA_30294,Complete data,True,True,True
30295,30295,122952838.0,2152148.0,+33.0903415,-084.3175835,GA,Georgia,13,29201.0,GA_30295,zip code,2.0,12601.0,30295,Georgia,GA,"Atlanta, GA",12060.0,13231.0,"Pike County, GA",617.0,county,"ZEBULON, GA",ZEBULON,1323130295.0,20850.0,"Zebulon, GA",,,GA_30295,Complete data,True,True,True
30296,30296,27041498.0,421879.0,+33.5631596,-084.4411568,GA,Georgia,13,29109.0,GA_30296,zip code,2.0,12602.0,30296,Georgia,GA,"Atlanta, GA",12060.0,13063.0,"Clayton County, GA",534.0,county,"RIVERDALE, GA",RIVERDALE,1306330296.0,16777.0,"Riverdale, GA",,,GA_30296,Complete data,True,True,True
30297,30297,28372692.0,136145.0,+33.6149884,-084.3716721,GA,Georgia,13,28935.0,GA_30297,zip code,2.0,12603.0,30297,Georgia,GA,"Atlanta, GA",12060.0,13063.0,"Clayton County, GA",534.0,county,"FOREST PARK, GA",FOREST PARK,1306330297.0,7798.0,"Forest Park, GA",,,GA_30297,Complete data,True,True,True
30303,30303,2685164.0,0.0,+33.7528453,-084.3902259,GA,Georgia,13,29047.0,GA_30303,zip code,2.0,12607.0,30303,Georgia,GA,"Atlanta, GA",12060.0,13121.0,"Fulton County, GA",563.0,county,"ATLANTA, GA",ATLANTA,1312130303.0,30756.0,"Atlanta, GA",,,GA_30303,Complete data,True,True,True
30305,30305,16824291.0,79463.0,+33.8340633,-084.3920629,GA,Georgia,13,29434.0,GA_30305,zip code,2.0,12609.0,30305,Georgia,GA,"Atlanta, GA",12060.0,13121.0,"Fulton County, GA",563.0,county,"ATLANTA, GA",ATLANTA,1312130305.0,30756.0,"Atlanta, GA",,,GA_30305,Complete data,True,True,True
30306,30306,11821532.0,85397.0,+33.7881396,-084.3526249,GA,Georgia,13,29439.0,GA_30306,zip code,2.0,12610.0,30306,Georgia,GA,"Atlanta, GA",12060.0,13121.0,"Fulton County, GA",563.0,county,"ATLANTA, GA",ATLANTA,1312130306.0,30756.0,"Atlanta, GA",,,GA_30306,Complete data,True,True,True
30307,30307,11776390.0,13398.0,+33.7710793,-084.3336004,GA,Georgia,13,29409.0,GA_30307,zip code,2.0,12611.0,30307,Georgia,GA,"Atlanta, GA",12060.0,13089.0,"DeKalb County, GA",547.0,county,"ATLANTA, GA",ATLANTA,1308930307.0,30756.0,"Atlanta, GA",,,GA_30307,Complete data,True,True,True
30308,30308,4137848.0,0.0,+33.7709587,-084.3777357,GA,Georgia,13,29069.0,GA_30308,zip code,2.0,12612.0,30308,Georgia,GA,"Atlanta, GA",12060.0,13121.0,"Fulton County, GA",563.0,county,"ATLANTA, GA",ATLANTA,1312130308.0,30756.0,"Atlanta, GA",,,GA_30308,Complete data,True,True,True
30309,30309,8569772.0,52647.0,+33.7998506,-084.3858370,GA,Georgia,13,28727.0,GA_30309,zip code,2.0,12613.0,30309,Georgia,GA,"Atlanta, GA",12060.0,13121.0,"Fulton County, GA",563.0,county,"ATLANTA, GA",ATLANTA,1312130309.0,30756.0,"Atlanta, GA",,,GA_30309,Complete data,True,True,True
30310,30310,22249546.0,19991.0,+33.7268895,-084.4289258,GA,Georgia,13,29189.0,GA_30310,zip code,2.0,12614.0,30310,Georgia,GA,"Atlanta, GA",12060.0,13121.0,"Fulton County, GA",563.0,county,"ATLANTA, GA",ATLANTA,1312130310.0,30756.0,"Atlanta, GA",,,GA_30310,Complete data,True,True,True
30311,30311,32260484.0,67380.0,+33.7232625,-084.4759938,GA,Georgia,13,29414.0,GA_30311,zip code,2.0,12615.0,30311,Georgia,GA,"Atlanta, GA",12060.0,13121.0,"Fulton County, GA",563.0,county,"ATLANTA, GA",ATLANTA,1312130311.0,30756.0,"Atlanta, GA",,,GA_30311,Complete data,True,True,True
30312,30312,8574844.0,0.0,+33.7446159,-084.3758139,GA,Georgia,13,29399.0,GA_30312,zip code,2.0,12616.0,30312,Georgia,GA,"Atlanta, GA",12060.0,13121.0,"Fulton County, GA",563.0,county,"ATLANTA, GA",ATLANTA,1312130312.0,30756.0,"Atlanta, GA",,,GA_30312,Complete data,True,True,True
30313,30313,3041962.0,0.0,+33.7636125,-084.3976702,GA,Georgia,13,29415.0,GA_30313,zip code,2.0,12617.0,30313,Georgia,GA,"Atlanta, GA",12060.0,13121.0,"Fulton County, GA",563.0,county,"ATLANTA, GA",ATLANTA,1312130313.0,30756.0,"Atlanta, GA",,,GA_30313,Complete data,True,True,True
30314,30314,11814940.0,0.0,+33.7578615,-084.4319634,GA,Georgia,13,29197.0,GA_30314,zip code,2.0,12618.0,30314,Georgia,GA,"Atlanta, GA",12060.0,13121.0,"Fulton County, GA",563.0,county,"ATLANTA, GA",ATLANTA,1312130314.0,30756.0,"Atlanta, GA",,,GA_30314,Complete data,True,True,True
30315,30315,29710572.0,42102.0,+33.7027410,-084.3828526,GA,Georgia,13,29473.0,GA_30315,zip code,2.0,12619.0,30315,Georgia,GA,"Atlanta, GA",12060.0,13121.0,"Fulton County, GA",563.0,county,"ATLANTA, GA",ATLANTA,1312130315.0,30756.0,"Atlanta, GA",,,GA_30315,Complete data,True,True,True
30316,30316,33783504.0,147829.0,+33.7167943,-084.3313425,GA,Georgia,13,29475.0,GA_30316,zip code,2.0,12620.0,30316,Georgia,GA,"Atlanta, GA",12060.0,13089.0,"DeKalb County, GA",547.0,county,"ATLANTA, GA",ATLANTA,1308930316.0,30756.0,"Atlanta, GA",,,GA_30316,Complete data,True,True,True
30317,30317,9163067.0,96243.0,+33.7479885,-084.3155858,GA,Georgia,13,29410.0,GA_30317,zip code,2.0,12621.0,30317,Georgia,GA,"Atlanta, GA",12060.0,13089.0,"DeKalb County, GA",547.0,county,"ATLANTA, GA",ATLANTA,1308930317.0,30756.0,"Atlanta, GA",,,GA_30317,Complete data,True,True,True
30318,30318,52650396.0,531852.0,+33.7926598,-084.4480104,GA,Georgia,13,29192.0,GA_30318,zip code,2.0,12622.0,30318,Georgia,GA,"Atlanta, GA",12060.0,13121.0,"Fulton County, GA",563.0,county,"ATLANTA, GA",ATLANTA,1312130318.0,30756.0,"Atlanta, GA",,,GA_30318,Complete data,True,True,True
30319,30319,26696205.0,310857.0,+33.8759542,-084.3347630,GA,Georgia,13,28754.0,GA_30319,zip code,2.0,12623.0,30319,Georgia,GA,"Atlanta, GA",12060.0,13089.0,"DeKalb County, GA",547.0,county,"ATLANTA, GA",ATLANTA,1308930319.0,30756.0,"Atlanta, GA",,,GA_30319,Complete data,True,True,True
30322,30322,1214423.0,0.0,+33.7946050,-084.3252471,GA,Georgia,13,28840.0,GA_30322,,,,,,,,,,,,,,,,,,,,,Census only,True,False,True
30324,30324,13674267.0,120569.0,+33.8184052,-084.3581748,GA,Georgia,13,29443.0,GA_30324,zip code,2.0,12627.0,30324,Georgia,GA,"Atlanta, GA",12060.0,13121.0,"Fulton County, GA",563.0,county,"ATLANTA, GA",ATLANTA,1312130324.0,30756.0,"Atlanta, GA",,,GA_30324,Complete data,True,True,True
30326,30326,1952273.0,0.0,+33.8496154,-084.3635079,GA,Georgia,13,29083.0,GA_30326,zip code,2.0,12629.0,30326,Georgia,GA,"Atlanta, GA",12060.0,13121.0,"Fulton County, GA",563.0,county,"ATLANTA, GA",ATLANTA,1312130326.0,30756.0,"Atlanta, GA",,,GA_30326,Complete data,True,True,True
30327,30327,45247632.0,928459.0,+33.8696938,-084.4172998,GA,Georgia,13,29458.0,GA_30327,zip code,2.0,12630.0,30327,Georgia,GA,"Atlanta, GA",12060.0,13121.0,"Fulton County, GA",563.0,county,"ATLANTA, GA",ATLANTA,1312130327.0,30756.0,"Atlanta, GA",,,GA_30327,Complete data,True,True,True
30328,30328,33064541.0,564888.0,+33.9332589,-084.3866560,GA,Georgia,13,29131.0,GA_30328,zip code,2.0,12631.0,30328,Georgia,GA,"Atlanta, GA",12060.0,13121.0,"Fulton County, GA",563.0,county,"ATLANTA, GA",ATLANTA,1312130328.0,30756.0,"Atlanta, GA",,,GA_30328,Complete data,True,True,True
30329,30329,14197199.0,149835.0,+33.8272448,-084.3221482,GA,Georgia,13,28817.0,GA_30329,zip code,2.0,12632.0,30329,Georgia,GA,"Atlanta, GA",12060.0,13089.0,"DeKalb County, GA",547.0,county,"ATLANTA, GA",ATLANTA,1308930329.0,30756.0,"Atlanta, GA",,,GA_30329,Complete data,True,True,True
30331,30331,97622463.0,1713430.0,+33.7054677,-084.5441245,GA,Georgia,13,28737.0,GA_30331,zip code,2.0,12634.0,30331,Georgia,GA,"Atlanta, GA",12060.0,13121.0,"Fulton County, GA",563.0,county,"ATLANTA, GA",ATLANTA,1312130331.0,30756.0,"Atlanta, GA",,,GA_30331,Complete data,True,True,True
30332,30332,232646.0,0.0,+33.7776176,-084.4043476,GA,Georgia,13,29419.0,GA_30332,,,,,,,,,,,,,,,,,,,,,Census only,True,False,True
30334,30334,64316.0,0.0,+33.7486522,-084.3878941,GA,Georgia,13,28735.0,GA_30334,zip code,2.0,12637.0,30334,Georgia,GA,"Atlanta, GA",12060.0,13121.0,"Fulton County, GA",563.0,county,"ATLANTA, GA",ATLANTA,1312130334.0,30756.0,"Atlanta, GA",,,GA_30334,Complete data,True,True,True
30336,30336,26315312.0,711894.0,+33.7354438,-084.5689781,GA,Georgia,13,29082.0,GA_30336,zip code,2.0,12638.0,30336,Georgia,GA,"Atlanta, GA",12060.0,13121.0,"Fulton County, GA",563.0,county,"ATLANTA, GA",ATLANTA,1312130336.0,30756.0,"Atlanta, GA",,,GA_30336,Complete data,True,True,True
30337,30337,31688310.0,33578.0,+33.6401408,-084.4500811,GA,Georgia,13,28761.0,GA_30337,zip code,2.0,12639.0,30337,Georgia,GA,"Atlanta, GA",12060.0,13121.0,"Fulton County, GA",563.0,county,"ATLANTA, GA",ATLANTA,1312130337.0,30756.0,"Atlanta, GA",,,GA_30337,Complete data,True,True,True
30338,30338,25476330.0,217843.0,+33.9462178,-084.3181187,GA,Georgia,13,28772.0,GA_30338,zip code,2.0,12640.0,30338,Georgia,GA,"Atlanta, GA",12060.0,13089.0,"DeKalb County, GA",547.0,county,"ATLANTA, GA",ATLANTA,1308930338.0,30756.0,"Atlanta, GA",,,GA_30338,Complete data,True,True,True
30339,30339,25561200.0,907037.0,+33.8675703,-084.4645995,GA,Georgia,13,29432.0,GA_30339,zip code,2.0,12641.0,30339,Georgia,GA,"Atlanta, GA",12060.0,13067.0,"Cobb County, GA",536.0,county,"ATLANTA, GA",ATLANTA,1306730339.0,30756.0,"Atlanta, GA",,,GA_30339,Complete data,True,True,True
30340,30340,21363004.0,35943.0,+33.8978731,-084.2528040,GA,Georgia,13,29239.0,GA_30340,zip code,2.0,12642.0,30340,Georgia,GA,"Atlanta, GA",12060.0,13089.0,"DeKalb County, GA",547.0,county,"ATLANTA, GA",ATLANTA,1308930340.0,30756.0,"Atlanta, GA",,,GA_30340,Complete data,True,True,True
30341,30341,25891663.0,32654.0,+33.8885048,-084.2895322,GA,Georgia,13,29240.0,GA_30341,zip code,2.0,12643.0,30341,Georgia,GA,"Atlanta, GA",12060.0,13089.0,"DeKalb County, GA",547.0,county,"ATLANTA, GA",ATLANTA,1308930341.0,30756.0,"Atlanta, GA",,,GA_30341,Complete data,True,True,True
30342,30342,23241950.0,177511.0,+33.8843497,-084.3749640,GA,Georgia,13,28764.0,GA_30342,zip code,2.0,12644.0,30342,Georgia,GA,"Atlanta, GA",12060.0,13121.0,"Fulton County, GA",563.0,county,"ATLANTA, GA",ATLANTA,1312130342.0,30756.0,"Atlanta, GA",,,GA_30342,Complete data,True,True,True
30344,30344,31460496.0,28603.0,+33.6766358,-084.4616011,GA,Georgia,13,29070.0,GA_30344,zip code,2.0,12646.0,30344,Georgia,GA,"Atlanta, GA",12060.0,13121.0,"Fulton County, GA",563.0,county,"ATLANTA, GA",ATLANTA,1312130344.0,30756.0,"Atlanta, GA",,,GA_30344,Complete data,True,True,True
30345,30345,18320679.0,214551.0,+33.8516517,-084.2836852,GA,Georgia,13,29138.0,GA_30345,zip code,2.0,12647.0,30345,Georgia,GA,"Atlanta, GA",12060.0,13089.0,"DeKalb County, GA",547.0,county,"ATLANTA, GA",ATLANTA,1308930345.0,30756.0,"Atlanta, GA",,,GA_30345,Complete data,True,True,True
30346,30346,2605059.0,0.0,+33.9242725,-084.3387760,GA,Georgia,13,29165.0,GA_30346,zip code,2.0,12648.0,30346,Georgia,GA,"Atlanta, GA",12060.0,13089.0,"DeKalb County, GA",547.0,county,"ATLANTA, GA",ATLANTA,1308930346.0,30756.0,"Atlanta, GA",,,GA_30346,Complete data,True,True,True
30349,30349,118835722.0,685218.0,+33.6224877,-084.5239076,GA,Georgia,13,28759.0,GA_30349,zip code,2.0,12651.0,30349,Georgia,GA,"Atlanta, GA",12060.0,13121.0,"Fulton County, GA",563.0,county,"ATLANTA, GA",ATLANTA,1312130349.0,30756.0,"Atlanta, GA",,,GA_30349,Complete data,True,True,True
30350,30350,32654517.0,1355785.0,+33.9802542,-084.3300162,GA,Georgia,13,29205.0,GA_30350,zip code,2.0,12652.0,30350,Georgia,GA,"Atlanta, GA",12060.0,13121.0,"Fulton County, GA",563.0,county,"ATLANTA, GA",ATLANTA,1312130350.0,30756.0,"Atlanta, GA",,,GA_30350,Complete data,True,True,True
30354,30354,27692848.0,62060.0,+33.6603605,-084.3865023,GA,Georgia,13,29050.0,GA_30354,zip code,2.0,12654.0,30354,Georgia,GA,"Atlanta, GA",12060.0,13121.0,"Fulton County, GA",563.0,county,"ATLANTA, GA",ATLANTA,1312130354.0,30756.0,"Atlanta, GA",,,GA_30354,Complete data,True,True,True
30360,30360,15830468.0,372227.0,+33.9338853,-084.2720336,GA,Georgia,13,28822.0,GA_30360,zip code,2.0,12660.0,30360,Georgia,GA,"Atlanta, GA",12060.0,13089.0,"DeKalb County, GA",547.0,county,"ATLANTA, GA",ATLANTA,1308930360.0,30756.0,"Atlanta, GA",,,GA_30360,Complete data,True,True,True
30363,30363,639626.0,0.0,+33.7914782,-084.3988920,GA,Georgia,13,29053.0,GA_30363,zip code,2.0,12663.0,30363,Georgia,GA,"Atlanta, GA",12060.0,13121.0,"Fulton County, GA",563.0,county,"ATLANTA, GA",ATLANTA,1312130363.0,30756.0,"Atlanta, GA",,,GA_30363,Complete data,True,True,True
30401,30401,673909917.0,7777409.0,+32.6047301,-082.3479983,GA,Georgia,13,28982.0,GA_30401,,,,,,,,,,,,,,,,,,,,,Census only,True,False,True
30410,30410,152923047.0,881198.0,+32.1885888,-082.5134704,GA,Georgia,13,28811.0,GA_30410,zip code,2.0,12690.0,30410,Georgia,GA,"Vidalia, GA",47080.0,13209.0,"Monroe County, GA",605.0,county,"AILEY, GA",AILEY,1320930410.0,196.0,"Ailey, GA",,,GA_30410,Complete data,True,True,True
30411,30411,336339919.0,3732927.0,+32.1241025,-082.7939569,GA,Georgia,13,28887.0,GA_30411,,,,,,,,,,,,,,,,,,,,,Census only,True,False,True
30412,30412,7289492.0,40282.0,+32.0803438,-082.4860870,GA,Georgia,13,29381.0,GA_30412,,,,,,,,,,,,,,,,,,,,,Census only,True,False,True
30413,30413,339801325.0,2159920.0,+32.8846548,-082.5131022,GA,Georgia,13,29355.0,GA_30413,,,,,,,,,,,,,,,,,,,,,Census only,True,False,True
30414,30414,865877.0,12057.0,+32.1570014,-081.9899529,GA,Georgia,13,29468.0,GA_30414,,,,,,,,,,,,,,,,,,,,,Census only,True,False,True
30415,30415,412243312.0,4145054.0,+32.3244845,-081.6034969,GA,Georgia,13,28921.0,GA_30415,zip code,2.0,12695.0,30415,Georgia,GA,"Statesboro, GA",44340.0,13031.0,"Bulloch County, GA",519.0,county,"BROOKLET, GA",BROOKLET,1303130415.0,2830.0,"Brooklet, GA",,,GA_30415,Complete data,True,True,True
30417,30417,442837156.0,10318198.0,+32.1704680,-081.9209916,GA,Georgia,13,28924.0,GA_30417,,,,,,,,,,,,,,,,,,,,,Census only,True,False,True
30420,30420,172497437.0,4005373.0,+32.3066478,-082.1308886,GA,Georgia,13,28857.0,GA_30420,,,,,,,,,,,,,,,,,,,,,Census only,True,False,True
30421,30421,258157851.0,3518271.0,+32.1853767,-082.1109121,GA,Georgia,13,28946.0,GA_30421,,,,,,,,,,,,,,,,,,,,,Census only,True,False,True
30423,30423,2006415.0,47043.0,+32.1463364,-081.8241145,GA,Georgia,13,29356.0,GA_30423,,,,,,,,,,,,,,,,,,,,,Census only,True,False,True
30425,30425,203310762.0,3371749.0,+32.6820223,-082.0945718,GA,Georgia,13,28866.0,GA_30425,,,,,,,,,,,,,,,,,,,,,Census only,True,False,True
30426,30426,300465287.0,5226000.0,+33.0472998,-081.6487595,GA,Georgia,13,29032.0,GA_30426,zip code,2.0,12702.0,30426,Georgia,GA,"Augusta, GA",12260.0,13033.0,"Burke County, GA",520.0,county,"GIRARD, GA",GIRARD,1303330426.0,8415.0,"Girard, GA",,,GA_30426,Complete data,True,True,True
30427,30427,597313515.0,8132006.0,+31.9229045,-081.9624486,GA,Georgia,13,29362.0,GA_30427,,,,,,,,,,,,,,,,,,,,,Census only,True,False,True
30428,30428,406709314.0,6972777.0,+32.2245455,-082.7151295,GA,Georgia,13,29380.0,GA_30428,,,,,,,,,,,,,,,,,,,,,Census only,True,False,True
30429,30429,572373.0,0.0,+32.1567710,-081.9348568,GA,Georgia,13,29372.0,GA_30429,,,,,,,,,,,,,,,,,,,,,Census only,True,False,True
30434,30434,527178202.0,4152833.0,+33.0245701,-082.3663087,GA,Georgia,13,29363.0,GA_30434,,,,,,,,,,,,,,,,,,,,,Census only,True,False,True
30436,30436,732432113.0,13636563.0,+32.1548945,-082.2930356,GA,Georgia,13,28869.0,GA_30436,zip code,2.0,12707.0,30436,Georgia,GA,"Vidalia, GA",47080.0,13279.0,"Toombs County, GA",641.0,county,"LYONS, GA",LYONS,1327930436.0,12324.0,"Lyons, GA",,,GA_30436,Complete data,True,True,True
30439,30439,536823307.0,12637430.0,+32.4167170,-082.0703750,GA,Georgia,13,29155.0,GA_30439,,,,,,,,,,,,,,,,,,,,,Census only,True,False,True
30441,30441,441367525.0,5741160.0,+32.8155561,-082.2371339,GA,Georgia,13,29027.0,GA_30441,,,,,,,,,,,,,,,,,,,,,Census only,True,False,True
30442,30442,915458652.0,13177516.0,+32.8161743,-081.9698474,GA,Georgia,13,29383.0,GA_30442,,,,,,,,,,,,,,,,,,,,,Census only,True,False,True
30445,30445,217240680.0,3895998.0,+32.1655982,-082.5807170,GA,Georgia,13,29172.0,GA_30445,zip code,2.0,12712.0,30445,Georgia,GA,"Vidalia, GA",47080.0,13209.0,"Monroe County, GA",605.0,county,"MOUNT VERNON, GA",MOUNT VERNON,1320930445.0,13822.0,"Mount Vernon, GA",,,GA_30445,Complete data,True,True,True
30446,30446,141900516.0,1121775.0,+32.5634860,-081.4630157,GA,Georgia,13,28846.0,GA_30446,,,,,,,,,,,,,,,,,,,,,Census only,True,False,True
30448,30448,5980667.0,73568.0,+32.4882404,-082.3633845,GA,Georgia,13,29402.0,GA_30448,,,,,,,,,,,,,,,,,,,,,Census only,True,False,True
30449,30449,773919.0,0.0,+32.5253388,-081.5345135,GA,Georgia,13,28988.0,GA_30449,,,,,,,,,,,,,,,,,,,,,Census only,True,False,True
30450,30450,145804534.0,3391117.0,+32.5559913,-081.9273639,GA,Georgia,13,29181.0,GA_30450,zip code,2.0,12717.0,30450,Georgia,GA,"Statesboro, GA",44340.0,13031.0,"Bulloch County, GA",519.0,county,"PORTAL, GA",PORTAL,1303130450.0,15989.0,"Portal, GA",,,GA_30450,Complete data,True,True,True
30451,30451,627934.0,0.0,+32.3932727,-081.9562175,GA,Georgia,13,28890.0,GA_30451,,,,,,,,,,,,,,,,,,,,,Census only,True,False,True
30452,30452,149042423.0,4740031.0,+32.3161099,-081.8918550,GA,Georgia,13,29261.0,GA_30452,zip code,2.0,12719.0,30452,Georgia,GA,"Statesboro, GA",44340.0,13031.0,"Bulloch County, GA",519.0,county,"REGISTER, GA",REGISTER,1303130452.0,16509.0,"Register, GA",,,GA_30452,Complete data,True,True,True
30453,30453,330605176.0,6829618.0,+32.0262361,-082.1112254,GA,Georgia,13,28910.0,GA_30453,,,,,,,,,,,,,,,,,,,,,Census only,True,False,True
30454,30454,97888675.0,2274271.0,+32.4360771,-082.7303580,GA,Georgia,13,29384.0,GA_30454,zip code,2.0,12721.0,30454,Georgia,GA,"Dublin, GA",20140.0,13175.0,"Laurens County, GA",590.0,county,"ROCKLEDGE, GA",ROCKLEDGE,1317530454.0,,,,,GA_30454,Complete data,True,True,True
30455,30455,132798681.0,1866276.0,+32.6983300,-081.8098625,GA,Georgia,13,29317.0,GA_30455,,,,,,,,,,,,,,,,,,,,,Census only,True,False,True
30456,30456,184238798.0,1462132.0,+32.9807171,-081.7961398,GA,Georgia,13,29031.0,GA_30456,zip code,2.0,12723.0,30456,Georgia,GA,"Augusta, GA",12260.0,13033.0,"Burke County, GA",520.0,county,"SARDIS, GA",SARDIS,1303330456.0,17608.0,"Sardis, GA",,,GA_30456,Complete data,True,True,True
30457,30457,451228723.0,6780595.0,+32.3998511,-082.5608900,GA,Georgia,13,29334.0,GA_30457,zip code,2.0,12724.0,30457,Georgia,GA,"Dublin, GA",20140.0,13283.0,"Treutlen County, GA",643.0,county,"SOPERTON, GA",SOPERTON,1328330457.0,18327.0,"Soperton, GA",,,GA_30457,Complete data,True,True,True
30458,30458,368518768.0,9718846.0,+32.3994471,-081.8289403,GA,Georgia,13,29336.0,GA_30458,zip code,2.0,12725.0,30458,Georgia,GA,"Statesboro, GA",44340.0,13031.0,"Bulloch County, GA",519.0,county,"STATESBORO, GA",STATESBORO,1303130458.0,18668.0,"Statesboro, GA",,,GA_30458,Complete data,True,True,True
30460,30460,848655.0,14994.0,+32.4271221,-081.7831885,GA,Georgia,13,28966.0,GA_30460,zip code,2.0,12727.0,30460,Georgia,GA,"Statesboro, GA",44340.0,13031.0,"Bulloch County, GA",519.0,county,"STATESBORO, GA",STATESBORO,1303130460.0,18668.0,"Statesboro, GA",,,GA_30460,Complete data,True,True,True
30461,30461,422179396.0,8675074.0,+32.4969546,-081.7231008,GA,Georgia,13,28877.0,GA_30461,zip code,2.0,12728.0,30461,Georgia,GA,"Statesboro, GA",44340.0,13031.0,"Bulloch County, GA",519.0,county,"STATESBORO, GA",STATESBORO,1303130461.0,18668.0,"Statesboro, GA",,,GA_30461,Complete data,True,True,True
30464,30464,2122121.0,70462.0,+32.4372293,-082.2249610,GA,Georgia,13,29019.0,GA_30464,,,,,,,,,,,,,,,,,,,,,Census only,True,False,True
30467,30467,1364577580.0,21309814.0,+32.7537925,-081.6035342,GA,Georgia,13,29373.0,GA_30467,,,,,,,,,,,,,,,,,,,,,Census only,True,False,True
30470,30470,105772801.0,938375.0,+32.3589291,-082.4975311,GA,Georgia,13,28858.0,GA_30470,zip code,2.0,12731.0,30470,Georgia,GA,"Vidalia, GA",47080.0,13209.0,"Monroe County, GA",605.0,county,"TARRYTOWN, GA",TARRYTOWN,1320930470.0,,,,,GA_30470,Complete data,True,True,True
30471,30471,387526601.0,7628570.0,+32.5432629,-082.1809098,GA,Georgia,13,29024.0,GA_30471,,,,,,,,,,,,,,,,,,,,,Census only,True,False,True
30473,30473,212013193.0,6052782.0,+32.0154758,-082.4730522,GA,Georgia,13,29365.0,GA_30473,zip code,2.0,12733.0,30473,Georgia,GA,"Vidalia, GA",47080.0,13279.0,"Toombs County, GA",641.0,county,"UVALDA, GA",UVALDA,1327930473.0,19836.0,"Uvalda, GA",,,GA_30473,Complete data,True,True,True
30474,30474,331723708.0,4476994.0,+32.2239956,-082.4136846,GA,Georgia,13,28947.0,GA_30474,zip code,2.0,12734.0,30474,Georgia,GA,"Vidalia, GA",47080.0,13279.0,"Toombs County, GA",641.0,county,"VIDALIA, GA",VIDALIA,1327930474.0,19958.0,"Vidalia, GA",,,GA_30474,Complete data,True,True,True
30477,30477,189309648.0,1782174.0,+32.8625541,-082.4008222,GA,Georgia,13,29387.0,GA_30477,,,,,,,,,,,,,,,,,,,,,Census only,True,False,True
30501,30501,56620527.0,6567986.0,+34.3190371,-083.8143992,GA,Georgia,13,28996.0,GA_30501,zip code,2.0,12738.0,30501,Georgia,GA,"Gainesville, GA",23580.0,13139.0,"Hall County, GA",572.0,county,"GAINESVILLE, GA",GAINESVILLE,1313930501.0,8150.0,"Gainesville, GA",,,GA_30501,Complete data,True,True,True
30504,30504,46999945.0,13066651.0,+34.2665017,-083.8886460,GA,Georgia,13,29196.0,GA_30504,zip code,2.0,12741.0,30504,Georgia,GA,"Gainesville, GA",23580.0,13139.0,"Hall County, GA",572.0,county,"GAINESVILLE, GA",GAINESVILLE,1313930504.0,8150.0,"Gainesville, GA",,,GA_30504,Complete data,True,True,True
30506,30506,260277024.0,64214754.0,+34.3469376,-083.8956266,GA,Georgia,13,29044.0,GA_30506,zip code,2.0,12742.0,30506,Georgia,GA,"Gainesville, GA",23580.0,13139.0,"Hall County, GA",572.0,county,"GAINESVILLE, GA",GAINESVILLE,1313930506.0,8150.0,"Gainesville, GA",,,GA_30506,Complete data,True,True,True
30507,30507,183307717.0,776163.0,+34.2646848,-083.7693906,GA,Georgia,13,29186.0,GA_30507,zip code,2.0,12743.0,30507,Georgia,GA,"Gainesville, GA",23580.0,13139.0,"Hall County, GA",572.0,county,"GAINESVILLE, GA",GAINESVILLE,1313930507.0,8150.0,"Gainesville, GA",,,GA_30507,Complete data,True,True,True
30510,30510,114110451.0,258682.0,+34.4448721,-083.5707071,GA,Georgia,13,29471.0,GA_30510,,,,,,,,,,,,,,,,,,,,,Census only,True,False,True
30511,30511,83362217.0,583162.0,+34.4496857,-083.4866887,GA,Georgia,13,29200.0,GA_30511,,,,,,,,,,,,,,,,,,,,,Census only,True,False,True
30512,30512,574620211.0,17543790.0,+34.8567531,-083.9679983,GA,Georgia,13,28993.0,GA_30512,,,,,,,,,,,,,,,,,,,,,Census only,True,False,True
30513,30513,384618800.0,6231540.0,+34.8210425,-084.3223833,GA,Georgia,13,29152.0,GA_30513,,,,,,,,,,,,,,,,,,,,,Census only,True,False,True
30516,30516,53495125.0,268077.0,+34.3809132,-083.0306965,GA,Georgia,13,29260.0,GA_30516,,,,,,,,,,,,,,,,,,,,,Census only,True,False,True
30517,30517,71635462.0,701445.0,+34.1302959,-083.7972890,GA,Georgia,13,28732.0,GA_30517,zip code,2.0,12751.0,30517,Georgia,GA,"Jefferson, GA",27600.0,13157.0,"Jackson County, GA",581.0,county,"BRASELTON, GA",BRASELTON,1315730517.0,30763.0,"Braselton, GA",,,GA_30517,Complete data,True,True,True
30518,30518,103684151.0,18658624.0,+34.1339329,-084.0225438,GA,Georgia,13,28734.0,GA_30518,zip code,2.0,12752.0,30518,Georgia,GA,"Atlanta, GA",12060.0,13135.0,"Gwinnett County, GA",570.0,county,"BUFORD, GA",BUFORD,1313530518.0,30771.0,"Buford, GA",,,GA_30518,Complete data,True,True,True
30519,30519,87520687.0,619311.0,+34.0874103,-083.9450588,GA,Georgia,13,29477.0,GA_30519,zip code,2.0,12753.0,30519,Georgia,GA,"Atlanta, GA",12060.0,13135.0,"Gwinnett County, GA",570.0,county,"BUFORD, GA",BUFORD,1313530519.0,30771.0,"Buford, GA",,,GA_30519,Complete data,True,True,True
30520,30520,145158758.0,953464.0,+34.3399236,-083.0827018,GA,Georgia,13,28962.0,GA_30520,,,,,,,,,,,,,,,,,,,,,Census only,True,False,True
30521,30521,238379245.0,2219747.0,+34.3624482,-083.2923225,GA,Georgia,13,29305.0,GA_30521,,,,,,,,,,,,,,,,,,,,,Census only,True,False,True
30522,30522,120486071.0,169875.0,+34.7836797,-084.3437304,GA,Georgia,13,28906.0,GA_30522,,,,,,,,,,,,,,,,,,,,,Census only,True,False,True
30523,30523,477084589.0,8737547.0,+34.7131542,-083.5513093,GA,Georgia,13,29060.0,GA_30523,zip code,2.0,12757.0,30523,Georgia,GA,"Cornelia, GA",18460.0,13137.0,"Habersham County, GA",571.0,county,"CLARKESVILLE, GA",CLARKESVILLE,1313730523.0,4285.0,"Clarkesville, GA",,,GA_30523,Complete data,True,True,True
30525,30525,512883233.0,2372933.0,+34.9072232,-083.3693465,GA,Georgia,13,29038.0,GA_30525,,,,,,,,,,,,,,,,,,,,,Census only,True,False,True
30527,30527,65814421.0,324103.0,+34.4809073,-083.7818383,GA,Georgia,13,28998.0,GA_30527,zip code,2.0,12759.0,30527,Georgia,GA,"Gainesville, GA",23580.0,13139.0,"Hall County, GA",572.0,county,"CLERMONT, GA",CLERMONT,1313930527.0,4380.0,"Clermont, GA",,,GA_30527,Complete data,True,True,True
30528,30528,430414903.0,2873214.0,+34.6090882,-083.7759971,GA,Georgia,13,29296.0,GA_30528,,,,,,,,,,,,,,,,,,,,,Census only,True,False,True
30529,30529,130824078.0,2259447.0,+34.2171790,-083.4826531,GA,Georgia,13,28767.0,GA_30529,zip code,2.0,12761.0,30529,Georgia,GA,"Jefferson, GA",27600.0,13157.0,"Jackson County, GA",581.0,county,"COMMERCE, GA",COMMERCE,1315730529.0,4937.0,"Commerce, GA",,,GA_30529,Complete data,True,True,True
30530,30530,205065342.0,1848141.0,+34.2229212,-083.3937989,GA,Georgia,13,29094.0,GA_30530,,,,,,,,,,,,,,,,,,,,,Census only,True,False,True
30531,30531,97708738.0,721053.0,+34.5126019,-083.5922060,GA,Georgia,13,29446.0,GA_30531,zip code,2.0,12763.0,30531,Georgia,GA,"Cornelia, GA",18460.0,13137.0,"Habersham County, GA",571.0,county,"CORNELIA, GA",CORNELIA,1313730531.0,5084.0,"Cornelia, GA",,,GA_30531,Complete data,True,True,True
30533,30533,629066917.0,2956674.0,+34.5709579,-084.0137644,GA,Georgia,13,29057.0,GA_30533,,,,,,,,,,,,,,,,,,,,,Census only,True,False,True
30534,30534,551489071.0,9462332.0,+34.4311001,-084.1443287,GA,Georgia,13,28853.0,GA_30534,zip code,2.0,12765.0,30534,Georgia,GA,"Atlanta, GA",12060.0,13085.0,"Dawson County, GA",545.0,county,"DAWSONVILLE, GA",DAWSONVILLE,1308530534.0,5654.0,"Dawsonville, GA",,,GA_30534,Complete data,True,True,True
30535,30535,76704451.0,1474511.0,+34.5736554,-083.5747691,GA,Georgia,13,28997.0,GA_30535,zip code,2.0,12766.0,30535,Georgia,GA,"Cornelia, GA",18460.0,13137.0,"Habersham County, GA",571.0,county,"DEMOREST, GA",DEMOREST,1313730535.0,5748.0,"Demorest, GA",,,GA_30535,Complete data,True,True,True
30536,30536,399322587.0,437063.0,+34.6520019,-084.3594424,GA,Georgia,13,28953.0,GA_30536,,,,,,,,,,,,,,,,,,,,,Census only,True,False,True
30537,30537,48570974.0,235366.0,+34.9790701,-083.3314994,GA,Georgia,13,28902.0,GA_30537,,,,,,,,,,,,,,,,,,,,,Census only,True,False,True
30538,30538,70481342.0,508104.0,+34.5009860,-083.2638436,GA,Georgia,13,28925.0,GA_30538,zip code,2.0,12769.0,30538,Georgia,GA,"Toccoa, GA",45740.0,13257.0,"Stephens County, GA",630.0,county,"EASTANOLLEE, GA",EASTANOLLEE,1325730538.0,,,,,GA_30538,Complete data,True,True,True
30539,30539,843217.0,0.0,+34.6806070,-084.4701272,GA,Georgia,13,29266.0,GA_30539,,,,,,,,,,,,,,,,,,,,,Census only,True,False,True
30540,30540,508940966.0,11764211.0,+34.7281269,-084.5435284,GA,Georgia,13,28954.0,GA_30540,,,,,,,,,,,,,,,,,,,,,Census only,True,False,True
30541,30541,190953404.0,29644.0,+34.9172577,-084.5177438,GA,Georgia,13,28905.0,GA_30541,,,,,,,,,,,,,,,,,,,,,Census only,True,False,True
30542,30542,109926762.0,19653812.0,+34.1798473,-083.9100807,GA,Georgia,13,29408.0,GA_30542,zip code,2.0,12773.0,30542,Georgia,GA,"Gainesville, GA",23580.0,13139.0,"Hall County, GA",572.0,county,"FLOWERY BRANCH, GA",FLOWERY BRANCH,1313930542.0,7738.0,"Flowery Branch, GA",,,GA_30542,Complete data,True,True,True
30543,30543,99191402.0,588950.0,+34.3022138,-083.6579729,GA,Georgia,13,29319.0,GA_30543,zip code,2.0,12774.0,30543,Georgia,GA,"Gainesville, GA",23580.0,13139.0,"Hall County, GA",572.0,county,"GILLSVILLE, GA",GILLSVILLE,1313930543.0,8398.0,"Gillsville, GA",,,GA_30543,Complete data,True,True,True
30545,30545,120670110.0,79778.0,+34.7623182,-083.7621184,GA,Georgia,13,28807.0,GA_30545,,,,,,,,,,,,,,,,,,,,,Census only,True,False,True
30546,30546,337232757.0,12211160.0,+34.9084479,-083.7177672,GA,Georgia,13,29368.0,GA_30546,,,,,,,,,,,,,,,,,,,,,Census only,True,False,True
30547,30547,140684933.0,550937.0,+34.3620214,-083.4556167,GA,Georgia,13,29370.0,GA_30547,,,,,,,,,,,,,,,,,,,,,Census only,True,False,True
30548,30548,104740877.0,1082988.0,+34.0893961,-083.7635993,GA,Georgia,13,28733.0,GA_30548,zip code,2.0,12779.0,30548,Georgia,GA,"Jefferson, GA",27600.0,13157.0,"Jackson County, GA",581.0,county,"HOSCHTON, GA",HOSCHTON,1315730548.0,10216.0,"Hoschton, GA",,,GA_30548,Complete data,True,True,True
30549,30549,273372236.0,2955436.0,+34.1079588,-083.5774784,GA,Georgia,13,29425.0,GA_30549,zip code,2.0,12780.0,30549,Georgia,GA,"Jefferson, GA",27600.0,13157.0,"Jackson County, GA",581.0,county,"JEFFERSON, GA",JEFFERSON,1315730549.0,10682.0,"Jefferson, GA",,,GA_30549,Complete data,True,True,True
30552,30552,144287222.0,5118241.0,+34.7738303,-083.4707185,GA,Georgia,13,28985.0,GA_30552,,,,,,,,,,,,,,,,,,,,,Census only,True,False,True
30553,30553,153340788.0,12759083.0,+34.4437586,-083.0840673,GA,Georgia,13,28923.0,GA_30553,,,,,,,,,,,,,,,,,,,,,Census only,True,False,True
30554,30554,185205098.0,2391106.0,+34.3980875,-083.6619052,GA,Georgia,13,29444.0,GA_30554,zip code,2.0,12783.0,30554,Georgia,GA,"Gainesville, GA",23580.0,13139.0,"Hall County, GA",572.0,county,"LULA, GA",LULA,1313930554.0,12236.0,"Lula, GA",,,GA_30554,Complete data,True,True,True
30555,30555,29606091.0,104400.0,+34.9693984,-084.4195152,GA,Georgia,13,28939.0,GA_30555,,,,,,,,,,,,,,,,,,,,,Census only,True,False,True
30557,30557,150652103.0,6821428.0,+34.4797519,-083.1849048,GA,Georgia,13,28922.0,GA_30557,,,,,,,,,,,,,,,,,,,,,Census only,True,False,True
30558,30558,159047981.0,1191631.0,+34.2640488,-083.5668289,GA,Georgia,13,29426.0,GA_30558,,,,,,,,,,,,,,,,,,,,,Census only,True,False,True
30559,30559,130332794.0,589856.0,+34.9578604,-084.2743349,GA,Georgia,13,28904.0,GA_30559,,,,,,,,,,,,,,,,,,,,,Census only,True,False,True
30560,30560,184925732.0,6525647.0,+34.8767710,-084.2047058,GA,Georgia,13,29064.0,GA_30560,,,,,,,,,,,,,,,,,,,,,Census only,True,False,True
30562,30562,3055795.0,28793.0,+34.9189960,-083.3836801,GA,Georgia,13,29040.0,GA_30562,,,,,,,,,,,,,,,,,,,,,Census only,True,False,True
30563,30563,100738253.0,1114799.0,+34.5589600,-083.4618284,GA,Georgia,13,29318.0,GA_30563,zip code,2.0,12790.0,30563,Georgia,GA,"Cornelia, GA",18460.0,13137.0,"Habersham County, GA",571.0,county,"MOUNT AIRY, GA",MOUNT AIRY,1313730563.0,13741.0,"Mount Airy, GA",,,GA_30563,Complete data,True,True,True
30564,30564,82540116.0,1322470.0,+34.4639650,-083.8893118,GA,Georgia,13,29413.0,GA_30564,zip code,2.0,12791.0,30564,Georgia,GA,"Gainesville, GA",23580.0,13139.0,"Hall County, GA",572.0,county,"MURRAYVILLE, GA",MURRAYVILLE,1313930564.0,,,,,GA_30564,Complete data,True,True,True
30565,30565,87194653.0,852824.0,+34.0862045,-083.4114823,GA,Georgia,13,28779.0,GA_30565,zip code,2.0,12792.0,30565,Georgia,GA,"Jefferson, GA",27600.0,13157.0,"Jackson County, GA",581.0,county,"NICHOLSON, GA",NICHOLSON,1315730565.0,14368.0,"Nicholson, GA",,,GA_30565,Complete data,True,True,True
30566,30566,20837418.0,1356791.0,+34.2386557,-083.8968967,GA,Georgia,13,29068.0,GA_30566,zip code,2.0,12793.0,30566,Georgia,GA,"Gainesville, GA",23580.0,13139.0,"Hall County, GA",572.0,county,"OAKWOOD, GA",OAKWOOD,1313930566.0,14844.0,"Oakwood, GA",,,GA_30566,Complete data,True,True,True
30567,30567,75177445.0,672988.0,+34.1807980,-083.6765538,GA,Georgia,13,28736.0,GA_30567,zip code,2.0,12794.0,30567,Georgia,GA,"Jefferson, GA",27600.0,13157.0,"Jackson County, GA",581.0,county,"PENDERGRASS, GA",PENDERGRASS,1315730567.0,15511.0,"Pendergrass, GA",,,GA_30567,Complete data,True,True,True
30568,30568,79186621.0,187665.0,+34.9548435,-083.4111113,GA,Georgia,13,29017.0,GA_30568,,,,,,,,,,,,,,,,,,,,,Census only,True,False,True
30571,30571,113116682.0,920268.0,+34.7163298,-083.6820279,GA,Georgia,13,28909.0,GA_30571,,,,,,,,,,,,,,,,,,,,,Census only,True,False,True
30572,30572,277716549.0,525302.0,+34.7357928,-084.0725071,GA,Georgia,13,29323.0,GA_30572,,,,,,,,,,,,,,,,,,,,,Census only,True,False,True
30573,30573,5157877.0,243616.0,+34.7412624,-083.3934756,GA,Georgia,13,29020.0,GA_30573,,,,,,,,,,,,,,,,,,,,,Census only,True,False,True
30575,30575,28714016.0,107185.0,+34.2076361,-083.7134741,GA,Georgia,13,29198.0,GA_30575,zip code,2.0,12799.0,30575,Georgia,GA,"Jefferson, GA",27600.0,13157.0,"Jackson County, GA",581.0,county,"TALMO, GA",TALMO,1315730575.0,19112.0,"Talmo, GA",,,GA_30575,Complete data,True,True,True
30576,30576,103349466.0,2906428.0,+34.8345890,-083.4521390,GA,Georgia,13,29391.0,GA_30576,,,,,,,,,,,,,,,,,,,,,Census only,True,False,True
30577,30577,407459672.0,7485108.0,+34.5562434,-083.3289048,GA,Georgia,13,29442.0,GA_30577,zip code,2.0,12801.0,30577,Georgia,GA,"Toccoa, GA",45740.0,13257.0,"Stephens County, GA",630.0,county,"TOCCOA, GA",TOCCOA,1325730577.0,19411.0,"Toccoa, GA",,,GA_30577,Complete data,True,True,True
30581,30581,715239.0,0.0,+34.7963011,-083.4244766,GA,Georgia,13,28986.0,GA_30581,,,,,,,,,,,,,,,,,,,,,Census only,True,False,True
30582,30582,134338330.0,1551603.0,+34.9564509,-083.9097895,GA,Georgia,13,29398.0,GA_30582,,,,,,,,,,,,,,,,,,,,,Census only,True,False,True
30597,30597,355094.0,0.0,+34.5275767,-083.9845886,GA,Georgia,13,29349.0,GA_30597,,,,,,,,,,,,,,,,,,,,,Census only,True,False,True
30598,30598,152726.0,0.0,+34.5965997,-083.3541619,GA,Georgia,13,29058.0,GA_30598,,,,,,,,,,,,,,,,,,,,,Census only,True,False,True
30601,30601,60539217.0,925579.0,+33.9991507,-083.3469925,GA,Georgia,13,29437.0,GA_30601,,,,,,,,,,,,,,,,,,,,,Census only,True,False,True
30602,30602,1555107.0,9428.0,+33.9439191,-083.3738551,GA,Georgia,13,29055.0,GA_30602,,,,,,,,,,,,,,,,,,,,,Census only,True,False,True
30605,30605,98955132.0,1599024.0,+33.9042889,-083.3255922,GA,Georgia,13,29474.0,GA_30605,,,,,,,,,,,,,,,,,,,,,Census only,True,False,True
30606,30606,79517763.0,1117823.0,+33.9402991,-083.4335834,GA,Georgia,13,29056.0,GA_30606,,,,,,,,,,,,,,,,,,,,,Census only,True,False,True
30607,30607,96269175.0,1345269.0,+34.0173048,-083.4475511,GA,Georgia,13,28782.0,GA_30607,zip code,2.0,12815.0,30607,Georgia,GA,"Jefferson, GA",27600.0,13059.0,"Cherokee County, GA",531.0,county,"ATHENS, GA",ATHENS,1305930607.0,,,,,GA_30607,Complete data,True,True,True
30609,30609,974874.0,76008.0,+33.9331018,-083.3723221,GA,Georgia,13,29067.0,GA_30609,,,,,,,,,,,,,,,,,,,,,Census only,True,False,True
30619,30619,67949660.0,691529.0,+33.8557967,-083.2447109,GA,Georgia,13,28907.0,GA_30619,,,,,,,,,,,,,,,,,,,,,Census only,True,False,True
30620,30620,57502386.0,397343.0,+33.9294715,-083.7584566,GA,Georgia,13,28956.0,GA_30620,zip code,2.0,12820.0,30620,Georgia,GA,"Atlanta, GA",12060.0,13013.0,"Barrow County, GA",510.0,county,"BETHLEHEM, GA",BETHLEHEM,1301330620.0,1974.0,"Bethlehem, GA",,,GA_30620,Complete data,True,True,True
30621,30621,117461511.0,1676301.0,+33.7968132,-083.4711746,GA,Georgia,13,29127.0,GA_30621,,,,,,,,,,,,,,,,,,,,,Census only,True,False,True
30622,30622,95819918.0,1103793.0,+33.9212821,-083.5308297,GA,Georgia,13,29116.0,GA_30622,,,,,,,,,,,,,,,,,,,,,Census only,True,False,True
30623,30623,2528281.0,6528.0,+33.7286812,-083.5130049,GA,Georgia,13,29207.0,GA_30623,,,,,,,,,,,,,,,,,,,,,Census only,True,False,True
30624,30624,118292203.0,1239694.0,+34.1810238,-083.0379407,GA,Georgia,13,29469.0,GA_30624,,,,,,,,,,,,,,,,,,,,,Census only,True,False,True
30625,30625,122869567.0,8647885.0,+33.5202839,-083.3335300,GA,Georgia,13,29462.0,GA_30625,zip code,2.0,12825.0,30625,Georgia,GA,"Atlanta, GA",12060.0,13211.0,"Morgan County, GA",607.0,county,"BUCKHEAD, GA",BUCKHEAD,1321130625.0,37129.0,"Buckhead, GA",,,GA_30625,Complete data,True,True,True
30627,30627,305579844.0,2804714.0,+33.9721762,-082.9637481,GA,Georgia,13,28829.0,GA_30627,,,,,,,,,,,,,,,,,,,,,Census only,True,False,True
30628,30628,125830405.0,1722730.0,+34.0320892,-083.2159737,GA,Georgia,13,29119.0,GA_30628,,,,,,,,,,,,,,,,,,,,,Census only,True,False,True
30629,30629,192754878.0,2535567.0,+34.0779827,-083.1103668,GA,Georgia,13,29121.0,GA_30629,,,,,,,,,,,,,,,,,,,,,Census only,True,False,True
30630,30630,113734524.0,886226.0,+33.9003603,-083.1453286,GA,Georgia,13,29348.0,GA_30630,,,,,,,,,,,,,,,,,,,,,Census only,True,False,True
30631,30631,469851573.0,1907812.0,+33.5582616,-082.8664952,GA,Georgia,13,29075.0,GA_30631,,,,,,,,,,,,,,,,,,,,,Census only,True,False,True
30633,30633,257233329.0,2371076.0,+34.1809031,-083.2491721,GA,Georgia,13,29120.0,GA_30633,,,,,,,,,,,,,,,,,,,,,Census only,True,False,True
30634,30634,126197693.0,845836.0,+34.2021769,-082.9422258,GA,Georgia,13,29062.0,GA_30634,,,,,,,,,,,,,,,,,,,,,Census only,True,False,True
30635,30635,726721037.0,58086122.0,+34.1057685,-082.7931484,GA,Georgia,13,29042.0,GA_30635,,,,,,,,,,,,,,,,,,,,,Census only,True,False,True
30639,30639,112904.0,0.0,+34.2827371,-083.1523974,GA,Georgia,13,29436.0,GA_30639,,,,,,,,,,,,,,,,,,,,,Census only,True,False,True
30641,30641,85774525.0,677239.0,+33.7695673,-083.5647498,GA,Georgia,13,29129.0,GA_30641,zip code,2.0,12836.0,30641,Georgia,GA,"Atlanta, GA",12060.0,13297.0,"Walton County, GA",650.0,county,"GOOD HOPE, GA",GOOD HOPE,1329730641.0,8670.0,"Good Hope, GA",,,GA_30641,Complete data,True,True,True
30642,30642,476345322.0,35090213.0,+33.5442895,-083.1839708,GA,Georgia,13,29158.0,GA_30642,,,,,,,,,,,,,,,,,,,,,Census only,True,False,True
30643,30643,296885001.0,56943841.0,+34.3654520,-082.9118722,GA,Georgia,13,28892.0,GA_30643,,,,,,,,,,,,,,,,,,,,,Census only,True,False,True
30646,30646,94272337.0,1432041.0,+34.0856825,-083.3025126,GA,Georgia,13,29111.0,GA_30646,,,,,,,,,,,,,,,,,,,,,Census only,True,False,True
30648,30648,238482328.0,1620533.0,+33.8707690,-083.0381754,GA,Georgia,13,29352.0,GA_30648,,,,,,,,,,,,,,,,,,,,,Census only,True,False,True
30650,30650,595535608.0,7934430.0,+33.5906446,-083.4675542,GA,Georgia,13,29423.0,GA_30650,zip code,2.0,12843.0,30650,Georgia,GA,"Atlanta, GA",12060.0,13211.0,"Morgan County, GA",607.0,county,"MADISON, GA",MADISON,1321130650.0,12598.0,"Madison, GA",,,GA_30650,Complete data,True,True,True
30655,30655,215009005.0,2110441.0,+33.7801964,-083.6925122,GA,Georgia,13,28874.0,GA_30655,zip code,2.0,12844.0,30655,Georgia,GA,"Atlanta, GA",12060.0,13297.0,"Walton County, GA",650.0,county,"MONROE, GA",MONROE,1329730655.0,13462.0,"Monroe, GA",,,GA_30655,Complete data,True,True,True
30656,30656,185285711.0,1734269.0,+33.8621374,-083.7161749,GA,Georgia,13,29301.0,GA_30656,zip code,2.0,12845.0,30656,Georgia,GA,"Atlanta, GA",12060.0,13297.0,"Walton County, GA",650.0,county,"MONROE, GA",MONROE,1329730656.0,13462.0,"Monroe, GA",,,GA_30656,Complete data,True,True,True
30660,30660,258922729.0,567887.0,+33.7826625,-082.9312669,GA,Georgia,13,28751.0,GA_30660,,,,,,,,,,,,,,,,,,,,,Census only,True,False,True
30662,30662,215758449.0,2012021.0,+34.2669660,-083.1375636,GA,Georgia,13,29440.0,GA_30662,,,,,,,,,,,,,,,,,,,,,Census only,True,False,True
30663,30663,130299938.0,2345254.0,+33.6155048,-083.6002947,GA,Georgia,13,29074.0,GA_30663,zip code,2.0,12848.0,30663,Georgia,GA,"Atlanta, GA",12060.0,13211.0,"Morgan County, GA",607.0,county,"RUTLEDGE, GA",RUTLEDGE,1321130663.0,17350.0,"Rutledge, GA",,,GA_30663,Complete data,True,True,True
30664,30664,643814.0,6398.0,+33.5562594,-082.7983192,GA,Georgia,13,29098.0,GA_30664,,,,,,,,,,,,,,,,,,,,,Census only,True,False,True
30665,30665,750780.0,35915.0,+33.5373489,-083.0739912,GA,Georgia,13,29228.0,GA_30665,,,,,,,,,,,,,,,,,,,,,Census only,True,False,True
30666,30666,92249414.0,1115938.0,+33.9620866,-083.5846025,GA,Georgia,13,28813.0,GA_30666,zip code,2.0,12851.0,30666,Georgia,GA,"Atlanta, GA",12060.0,13013.0,"Barrow County, GA",510.0,county,"STATHAM, GA",STATHAM,1301330666.0,18681.0,"Statham, GA",,,GA_30666,Complete data,True,True,True
30667,30667,178657414.0,505037.0,+33.7968886,-083.1755130,GA,Georgia,13,28981.0,GA_30667,,,,,,,,,,,,,,,,,,,,,Census only,True,False,True
30668,30668,375033325.0,23801349.0,+33.8957470,-082.6972080,GA,Georgia,13,29454.0,GA_30668,,,,,,,,,,,,,,,,,,,,,Census only,True,False,True
30669,30669,380151735.0,1667798.0,+33.6764307,-083.1181169,GA,Georgia,13,29076.0,GA_30669,,,,,,,,,,,,,,,,,,,,,Census only,True,False,True
30673,30673,713755141.0,8895895.0,+33.7280903,-082.7162443,GA,Georgia,13,28743.0,GA_30673,,,,,,,,,,,,,,,,,,,,,Census only,True,False,True
30677,30677,316597870.0,3562725.0,+33.7832021,-083.3733418,GA,Georgia,13,28819.0,GA_30677,,,,,,,,,,,,,,,,,,,,,Census only,True,False,True
30678,30678,186206950.0,10156483.0,+33.4530169,-083.0659178,GA,Georgia,13,29080.0,GA_30678,,,,,,,,,,,,,,,,,,,,,Census only,True,False,True
30680,30680,245952786.0,3393669.0,+33.9951726,-083.6974880,GA,Georgia,13,28826.0,GA_30680,zip code,2.0,12859.0,30680,Georgia,GA,"Atlanta, GA",12060.0,13013.0,"Barrow County, GA",510.0,county,"WINDER, GA",WINDER,1301330680.0,20651.0,"Winder, GA",,,GA_30680,Complete data,True,True,True
30683,30683,100387192.0,1046813.0,+33.9468408,-083.2571086,GA,Georgia,13,28818.0,GA_30683,,,,,,,,,,,,,,,,,,,,,Census only,True,False,True
30701,30701,393067924.0,3469409.0,+34.4943952,-084.9541768,GA,Georgia,13,29001.0,GA_30701,zip code,2.0,12861.0,30701,Georgia,GA,"Calhoun, GA",15660.0,13129.0,"Gordon County, GA",567.0,county,"CALHOUN, GA",CALHOUN,1312930701.0,3233.0,"Calhoun, GA",,,GA_30701,Complete data,True,True,True
30705,30705,629748283.0,5568318.0,+34.7475416,-084.7484014,GA,Georgia,13,28748.0,GA_30705,zip code,2.0,12863.0,30705,Georgia,GA,"Dalton, GA",19140.0,13213.0,"Murray County, GA",608.0,county,"CHATSWORTH, GA",CHATSWORTH,1321330705.0,4026.0,"Chatsworth, GA",,,GA_30705,Complete data,True,True,True
30707,30707,313240625.0,206333.0,+34.7789107,-085.3652999,GA,Georgia,13,28844.0,GA_30707,,,,,,,,,,,,,,,,,,,,,Census only,True,False,True
30708,30708,90749490.0,0.0,+34.9398988,-084.6675648,GA,Georgia,13,29101.0,GA_30708,zip code,2.0,12865.0,30708,Georgia,GA,"Dalton, GA",19140.0,13213.0,"Murray County, GA",608.0,county,"CISCO, GA",CISCO,1321330708.0,,,,,GA_30708,Complete data,True,True,True
30710,30710,121071297.0,196342.0,+34.9388231,-084.9173153,GA,Georgia,13,29065.0,GA_30710,zip code,2.0,12866.0,30710,Georgia,GA,"Dalton, GA",19140.0,13313.0,"Whitfield County, GA",658.0,county,"COHUTTA, GA",COHUTTA,1331330710.0,4537.0,"Cohutta, GA",,,GA_30710,Complete data,True,True,True
30711,30711,127263734.0,150874.0,+34.9317663,-084.7686435,GA,Georgia,13,29430.0,GA_30711,zip code,2.0,12867.0,30711,Georgia,GA,"Dalton, GA",19140.0,13213.0,"Murray County, GA",608.0,county,"CRANDALL, GA",CRANDALL,1321330711.0,,,,,GA_30711,Complete data,True,True,True
30720,30720,126050611.0,362083.0,+34.7336449,-085.0008241,GA,Georgia,13,29321.0,GA_30720,zip code,2.0,12869.0,30720,Georgia,GA,"Dalton, GA",19140.0,13313.0,"Whitfield County, GA",658.0,county,"DALTON, GA",DALTON,1331330720.0,5516.0,"Dalton, GA",,,GA_30720,Complete data,True,True,True
30721,30721,328290265.0,525809.0,+34.7929766,-084.9086858,GA,Georgia,13,29445.0,GA_30721,zip code,2.0,12870.0,30721,Georgia,GA,"Dalton, GA",19140.0,13313.0,"Whitfield County, GA",658.0,county,"DALTON, GA",DALTON,1331330721.0,5516.0,"Dalton, GA",,,GA_30721,Complete data,True,True,True
30724,30724,162755.0,0.0,+34.8251780,-084.7578849,GA,Georgia,13,28771.0,GA_30724,zip code,2.0,12872.0,30724,Georgia,GA,"Dalton, GA",19140.0,13213.0,"Murray County, GA",608.0,county,"ETON, GA",ETON,1321330724.0,7133.0,"Eton, GA",,,GA_30724,Complete data,True,True,True
30725,30725,42610530.0,6384.0,+34.9247773,-085.3526753,GA,Georgia,13,28815.0,GA_30725,,,,,,,,,,,,,,,,,,,,,Census only,True,False,True
30726,30726,181247.0,0.0,+34.9748723,-085.1410475,GA,Georgia,13,28855.0,GA_30726,,,,,,,,,,,,,,,,,,,,,Census only,True,False,True
30728,30728,449214596.0,988753.0,+34.6848752,-085.2257896,GA,Georgia,13,29238.0,GA_30728,,,,,,,,,,,,,,,,,,,,,Census only,True,False,True
30730,30730,145223243.0,17545.0,+34.3637703,-085.4160231,GA,Georgia,13,29123.0,GA_30730,zip code,2.0,12876.0,30730,Georgia,GA,"Summerville, GA",44900.0,13055.0,"Chattooga County, GA",530.0,county,"LYERLY, GA",LYERLY,1305530730.0,12286.0,"Lyerly, GA",,,GA_30730,Complete data,True,True,True
30731,30731,215872586.0,239382.0,+34.5641783,-085.4718851,GA,Georgia,13,28768.0,GA_30731,zip code,2.0,12877.0,30731,Georgia,GA,"Summerville, GA",44900.0,13055.0,"Chattooga County, GA",530.0,county,"MENLO, GA",MENLO,1305530731.0,13090.0,"Menlo, GA",,,GA_30731,Complete data,True,True,True
30733,30733,40456055.0,389378.0,+34.4145929,-085.0505540,GA,Georgia,13,29061.0,GA_30733,zip code,2.0,12879.0,30733,Georgia,GA,"Calhoun, GA",15660.0,13129.0,"Gordon County, GA",567.0,county,"PLAINVILLE, GA",PLAINVILLE,1312930733.0,15863.0,"Plainville, GA",,,GA_30733,Complete data,True,True,True
30734,30734,198627742.0,606762.0,+34.5328075,-084.7148922,GA,Georgia,13,29180.0,GA_30734,zip code,2.0,12880.0,30734,Georgia,GA,"Calhoun, GA",15660.0,13129.0,"Gordon County, GA",567.0,county,"RANGER, GA",RANGER,1312930734.0,16285.0,"Ranger, GA",,,GA_30734,Complete data,True,True,True
30735,30735,142317633.0,1242232.0,+34.6028831,-084.8826614,GA,Georgia,13,29051.0,GA_30735,zip code,2.0,12881.0,30735,Georgia,GA,"Calhoun, GA",15660.0,13129.0,"Gordon County, GA",567.0,county,"RESACA, GA",RESACA,1312930735.0,16592.0,"Resaca, GA",,,GA_30735,Complete data,True,True,True
30736,30736,322823386.0,702623.0,+34.9024009,-085.1340560,GA,Georgia,13,28739.0,GA_30736,,,,,,,,,,,,,,,,,,,,,Census only,True,False,True
30738,30738,230084893.0,294092.0,+34.7965516,-085.4809356,GA,Georgia,13,28842.0,GA_30738,,,,,,,,,,,,,,,,,,,,,Census only,True,False,True
30739,30739,66186627.0,158869.0,+34.8059061,-085.2159578,GA,Georgia,13,28833.0,GA_30739,,,,,,,,,,,,,,,,,,,,,Census only,True,False,True
30740,30740,129881444.0,249645.0,+34.7573675,-085.0720123,GA,Georgia,13,29066.0,GA_30740,zip code,2.0,12885.0,30740,Georgia,GA,"Dalton, GA",19140.0,13313.0,"Whitfield County, GA",658.0,county,"ROCKY FACE, GA",ROCKY FACE,1331330740.0,,,,,GA_30740,Complete data,True,True,True
30741,30741,64407667.0,38186.0,+34.9526947,-085.2812948,GA,Georgia,13,28830.0,GA_30741,,,,,,,,,,,,,,,,,,,,,Census only,True,False,True
30742,30742,18783004.0,0.0,+34.9355966,-085.2448417,GA,Georgia,13,28937.0,GA_30742,,,,,,,,,,,,,,,,,,,,,Census only,True,False,True
30746,30746,55020319.0,0.0,+34.5920954,-085.0328721,GA,Georgia,13,29162.0,GA_30746,zip code,2.0,12888.0,30746,Georgia,GA,"Calhoun, GA",15660.0,13129.0,"Gordon County, GA",567.0,county,"SUGAR VALLEY, GA",SUGAR VALLEY,1312930746.0,,,,,GA_30746,Complete data,True,True,True
30747,30747,500136888.0,547711.0,+34.5040866,-085.2927861,GA,Georgia,13,29421.0,GA_30747,zip code,2.0,12889.0,30747,Georgia,GA,"Summerville, GA",44900.0,13055.0,"Chattooga County, GA",530.0,county,"SUMMERVILLE, GA",SUMMERVILLE,1305530747.0,18881.0,"Summerville, GA",,,GA_30747,Complete data,True,True,True
30750,30750,28792726.0,0.0,+34.9368136,-085.3882044,GA,Georgia,13,29136.0,GA_30750,,,,,,,,,,,,,,,,,,,,,Census only,True,False,True
30751,30751,1472232.0,0.0,+34.9845035,-084.7326903,GA,Georgia,13,29130.0,GA_30751,,,,,,,,,,,,,,,,,,,,,Census only,True,False,True
30752,30752,196069178.0,50749.0,+34.9149815,-085.5379614,GA,Georgia,13,28849.0,GA_30752,,,,,,,,,,,,,,,,,,,,,Census only,True,False,True
30753,30753,105829003.0,31691.0,+34.5822799,-085.2858004,GA,Georgia,13,29420.0,GA_30753,zip code,2.0,12893.0,30753,Georgia,GA,"Summerville, GA",44900.0,13055.0,"Chattooga County, GA",530.0,county,"TRION, GA",TRION,1305530753.0,19572.0,"Trion, GA",,,GA_30753,Complete data,True,True,True
30755,30755,95402181.0,284642.0,+34.8693665,-085.0406641,GA,Georgia,13,29447.0,GA_30755,zip code,2.0,12894.0,30755,Georgia,GA,"Dalton, GA",19140.0,13313.0,"Whitfield County, GA",658.0,county,"TUNNEL HILL, GA",TUNNEL HILL,1331330755.0,19613.0,"Tunnel Hill, GA",,,GA_30755,Complete data,True,True,True
30756,30756,128657.0,0.0,+34.9010586,-084.9745884,GA,Georgia,13,29448.0,GA_30756,zip code,2.0,12895.0,30756,Georgia,GA,"Dalton, GA",19140.0,13313.0,"Whitfield County, GA",658.0,county,"VARNELL, GA",VARNELL,1331330756.0,19875.0,"Varnell, GA",,,GA_30756,Complete data,True,True,True
30757,30757,52905390.0,169553.0,+34.9358011,-085.4415157,GA,Georgia,13,29209.0,GA_30757,,,,,,,,,,,,,,,,,,,,,Census only,True,False,True
30802,30802,342426128.0,39760121.0,+33.6013664,-082.2999360,GA,Georgia,13,29290.0,GA_30802,zip code,2.0,12897.0,30802,Georgia,GA,"Augusta, GA",12260.0,13073.0,"Columbia County, GA",539.0,county,"APPLING, GA",APPLING,1307330802.0,36056.0,"Appling, GA",,,GA_30802,Complete data,True,True,True
30803,30803,135345955.0,390893.0,+33.1334618,-082.5491508,GA,Georgia,13,29081.0,GA_30803,,,,,,,,,,,,,,,,,,,,,Census only,True,False,True
30805,30805,104567373.0,228562.0,+33.2795690,-082.1917912,GA,Georgia,13,28823.0,GA_30805,zip code,2.0,12899.0,30805,Georgia,GA,"Augusta, GA",12260.0,13245.0,"Richmond County, GA",624.0,county,"BLYTHE, GA",BLYTHE,1324530805.0,2340.0,"Blythe, GA",,,GA_30805,Complete data,True,True,True
30807,30807,1015541.0,2878.0,+33.4574077,-082.6486205,GA,Georgia,13,28987.0,GA_30807,,,,,,,,,,,,,,,,,,,,,Census only,True,False,True
30808,30808,145726633.0,3170499.0,+33.3841141,-082.3919233,GA,Georgia,13,28913.0,GA_30808,zip code,2.0,12902.0,30808,Georgia,GA,"Augusta, GA",12260.0,13189.0,"McDuffie County, GA",597.0,county,"DEARING, GA",DEARING,1318930808.0,5675.0,"Dearing, GA",,,GA_30808,Complete data,True,True,True
30809,30809,114392013.0,3616331.0,+33.5585266,-082.1711853,GA,Georgia,13,29139.0,GA_30809,zip code,2.0,12903.0,30809,Georgia,GA,"Augusta, GA",12260.0,13073.0,"Columbia County, GA",539.0,county,"EVANS, GA",EVANS,1307330809.0,22937.0,"Evans, GA",,,GA_30809,Complete data,True,True,True
30810,30810,216479029.0,984342.0,+33.2320438,-082.5875076,GA,Georgia,13,29079.0,GA_30810,,,,,,,,,,,,,,,,,,,,,Census only,True,False,True
30812,30812,244081.0,0.0,+33.3674516,-082.0290665,GA,Georgia,13,28787.0,GA_30812,,,,,,,,,,,,,,,,,,,,,Census only,True,False,True
30813,30813,130552848.0,344625.0,+33.4667440,-082.2282088,GA,Georgia,13,28755.0,GA_30813,zip code,2.0,12907.0,30813,Georgia,GA,"Augusta, GA",12260.0,13073.0,"Columbia County, GA",539.0,county,"GROVETOWN, GA",GROVETOWN,1307330813.0,9094.0,"Grovetown, GA",,,GA_30813,Complete data,True,True,True
30814,30814,138581798.0,245743.0,+33.4310913,-082.3188494,GA,Georgia,13,28800.0,GA_30814,zip code,2.0,12908.0,30814,Georgia,GA,"Augusta, GA",12260.0,13073.0,"Columbia County, GA",539.0,county,"HARLEM, GA",HARLEM,1307330814.0,9342.0,"Harlem, GA",,,GA_30814,Complete data,True,True,True
30815,30815,327965604.0,1292067.0,+33.2849273,-082.0722127,GA,Georgia,13,28784.0,GA_30815,zip code,2.0,12909.0,30815,Georgia,GA,"Augusta, GA",12260.0,13245.0,"Richmond County, GA",624.0,county,"HEPHZIBAH, GA",HEPHZIBAH,1324530815.0,9656.0,"Hephzibah, GA",,,GA_30815,Complete data,True,True,True
30816,30816,293672154.0,2089743.0,+33.1633791,-082.1762076,GA,Georgia,13,29248.0,GA_30816,zip code,2.0,12910.0,30816,Georgia,GA,"Augusta, GA",12260.0,13033.0,"Burke County, GA",520.0,county,"KEYSVILLE, GA",KEYSVILLE,1303330816.0,11038.0,"Keysville, GA",,,GA_30816,Complete data,True,True,True
30817,30817,495314215.0,100170818.0,+33.7783876,-082.4301940,GA,Georgia,13,29097.0,GA_30817,zip code,2.0,12911.0,30817,Georgia,GA,"Augusta, GA",12260.0,13181.0,"Lincoln County, GA",593.0,county,"LINCOLNTON, GA",LINCOLNTON,1318130817.0,11887.0,"Lincolnton, GA",,,GA_30817,Complete data,True,True,True
30818,30818,77926621.0,53544.0,+33.2695603,-082.3260809,GA,Georgia,13,28894.0,GA_30818,,,,,,,,,,,,,,,,,,,,,Census only,True,False,True
30820,30820,240356575.0,2125566.0,+33.2223592,-082.7245362,GA,Georgia,13,28756.0,GA_30820,,,,,,,,,,,,,,,,,,,,,Census only,True,False,True
30821,30821,287757196.0,1830480.0,+33.4921074,-082.7379943,GA,Georgia,13,29018.0,GA_30821,,,,,,,,,,,,,,,,,,,,,Census only,True,False,True
30822,30822,3007186.0,92501.0,+32.9192573,-081.9443532,GA,Georgia,13,29034.0,GA_30822,,,,,,,,,,,,,,,,,,,,,Census only,True,False,True
30823,30823,185771047.0,332141.0,+33.2220418,-082.4561425,GA,Georgia,13,28776.0,GA_30823,,,,,,,,,,,,,,,,,,,,,Census only,True,False,True
30824,30824,496398130.0,19950267.0,+33.5129533,-082.5148545,GA,Georgia,13,29291.0,GA_30824,zip code,2.0,12918.0,30824,Georgia,GA,"Augusta, GA",12260.0,13189.0,"McDuffie County, GA",597.0,county,"THOMSON, GA",THOMSON,1318930824.0,19311.0,"Thomson, GA",,,GA_30824,Complete data,True,True,True
30828,30828,348924485.0,3587003.0,+33.3680376,-082.6563124,GA,Georgia,13,29084.0,GA_30828,,,,,,,,,,,,,,,,,,,,,Census only,True,False,True
30830,30830,972546223.0,8456782.0,+33.0851109,-081.9786607,GA,Georgia,13,28806.0,GA_30830,zip code,2.0,12920.0,30830,Georgia,GA,"Augusta, GA",12260.0,13033.0,"Burke County, GA",520.0,county,"WAYNESBORO, GA",WAYNESBORO,1303330830.0,20278.0,"Waynesboro, GA",,,GA_30830,Complete data,True,True,True
30833,30833,184759069.0,208811.0,+33.1912503,-082.3531316,GA,Georgia,13,28973.0,GA_30833,,,,,,,,,,,,,,,,,,,,,Census only,True,False,True
30901,30901,45622979.0,2578777.0,+33.4372126,-081.9561564,GA,Georgia,13,29045.0,GA_30901,zip code,2.0,12922.0,30901,Georgia,GA,"Augusta, GA",12260.0,13245.0,"Richmond County, GA",624.0,county,"AUGUSTA, GA",AUGUSTA,1324530901.0,,,,,GA_30901,Complete data,True,True,True
30904,30904,28418062.0,1872303.0,+33.4782894,-082.0141016,GA,Georgia,13,29438.0,GA_30904,zip code,2.0,12924.0,30904,Georgia,GA,"Augusta, GA",12260.0,13245.0,"Richmond County, GA",624.0,county,"AUGUSTA, GA",AUGUSTA,1324530904.0,,,,,GA_30904,Complete data,True,True,True
30905,30905,47063807.0,237711.0,+33.4114945,-082.1491065,GA,Georgia,13,29135.0,GA_30905,,,,,,,,,,,,,,,,,,,,,Census only,True,False,True
30906,30906,224543368.0,3580472.0,+33.3467323,-081.9677030,GA,Georgia,13,29433.0,GA_30906,zip code,2.0,12926.0,30906,Georgia,GA,"Augusta, GA",12260.0,13245.0,"Richmond County, GA",624.0,county,"AUGUSTA, GA",AUGUSTA,1324530906.0,,,,,GA_30906,Complete data,True,True,True
30907,30907,62480358.0,2278340.0,+33.5237117,-082.0856651,GA,Georgia,13,28745.0,GA_30907,zip code,2.0,12927.0,30907,Georgia,GA,"Augusta, GA",12260.0,13073.0,"Columbia County, GA",539.0,county,"AUGUSTA, GA",AUGUSTA,1307330907.0,,,,,GA_30907,Complete data,True,True,True
30909,30909,66019459.0,235905.0,+33.4704807,-082.0830452,GA,Georgia,13,29063.0,GA_30909,zip code,2.0,12928.0,30909,Georgia,GA,"Augusta, GA",12260.0,13245.0,"Richmond County, GA",624.0,county,"AUGUSTA, GA",AUGUSTA,1324530909.0,,,,,GA_30909,Complete data,True,True,True
30912,30912,188111.0,0.0,+33.4702005,-081.9879173,GA,Georgia,13,29466.0,GA_30912,,,,,,,,,,,,,,,,,,,,,Census only,True,False,True
31001,31001,450794738.0,7159884.0,+31.9762563,-083.3396650,GA,Georgia,13,28972.0,GA_31001,,,,,,,,,,,,,,,,,,,,,Census only,True,False,True
31002,31002,330454831.0,4425294.0,+32.5540489,-082.5953220,GA,Georgia,13,28951.0,GA_31002,,,,,,,,,,,,,,,,,,,,,Census only,True,False,True
31003,31003,4179861.0,0.0,+32.5968813,-083.2229276,GA,Georgia,13,28980.0,GA_31003,,,,,,,,,,,,,,,,,,,,,Census only,True,False,True
31004,31004,203611.0,0.0,+32.9516645,-083.8053162,GA,Georgia,13,29059.0,GA_31004,zip code,2.0,12940.0,31004,Georgia,GA,"Macon, GA",31420.0,13207.0,"Monroe County, GA",605.0,county,"BOLINGBROKE, GA",BOLINGBROKE,1320731004.0,37280.0,"Bolingbroke, GA",,,GA_31004,Complete data,True,True,True
31005,31005,59845473.0,1223419.0,+32.5446219,-083.5936763,GA,Georgia,13,28839.0,GA_31005,zip code,2.0,12941.0,31005,Georgia,GA,"Warner Robins, GA",47580.0,13153.0,"Houston County, GA",579.0,county,"BONAIRE, GA",BONAIRE,1315331005.0,,,,,GA_31005,Complete data,True,True,True
31006,31006,466847506.0,3055203.0,+32.5807195,-084.2507378,GA,Georgia,13,28952.0,GA_31006,,,,,,,,,,,,,,,,,,,,,Census only,True,False,True
31007,31007,174112439.0,1752504.0,+32.1885136,-083.9273207,GA,Georgia,13,28900.0,GA_31007,,,,,,,,,,,,,,,,,,,,,Census only,True,False,True
31008,31008,184153595.0,1067054.0,+32.6653548,-083.7860869,GA,Georgia,13,29146.0,GA_31008,zip code,2.0,12944.0,31008,Georgia,GA,"Warner Robins, GA",47580.0,13225.0,"Peach County, GA",614.0,county,"BYRON, GA",BYRON,1322531008.0,3175.0,"Byron, GA",,,GA_31008,Complete data,True,True,True
31009,31009,198376623.0,1556578.0,+32.2701806,-083.0005158,GA,Georgia,13,29354.0,GA_31009,zip code,2.0,12945.0,31009,Georgia,GA,"Dublin, GA",20140.0,13175.0,"Laurens County, GA",590.0,county,"CADWELL, GA",CADWELL,1317531009.0,3200.0,"Cadwell, GA",,,GA_31009,Complete data,True,True,True
31011,31011,139555136.0,1294969.0,+32.1306264,-083.0522698,GA,Georgia,13,29010.0,GA_31011,,,,,,,,,,,,,,,,,,,,,Census only,True,False,True
31012,31012,142153468.0,2199993.0,+32.3943438,-083.1737150,GA,Georgia,13,29272.0,GA_31012,,,,,,,,,,,,,,,,,,,,,Census only,True,False,True
31014,31014,540605187.0,8745084.0,+32.4158860,-083.3490770,GA,Georgia,13,28917.0,GA_31014,,,,,,,,,,,,,,,,,,,,,Census only,True,False,True
31015,31015,553243372.0,20301180.0,+31.9430113,-083.7786082,GA,Georgia,13,29450.0,GA_31015,zip code,2.0,12951.0,31015,Georgia,GA,"Cordele, GA",18380.0,13081.0,"Crisp County, GA",543.0,county,"CORDELE, GA",CORDELE,1308131015.0,5055.0,"Cordele, GA",,,GA_31015,Complete data,True,True,True
31016,31016,266471631.0,1479739.0,+32.8293195,-084.0915579,GA,Georgia,13,29108.0,GA_31016,zip code,2.0,12952.0,31016,Georgia,GA,"Macon, GA",31420.0,13207.0,"Monroe County, GA",605.0,county,"CULLODEN, GA",CULLODEN,1320731016.0,5377.0,"Culloden, GA",,,GA_31016,Complete data,True,True,True
31017,31017,258268674.0,1209347.0,+32.6210943,-083.2322197,GA,Georgia,13,28871.0,GA_31017,,,,,,,,,,,,,,,,,,,,,Census only,True,False,True
31018,31018,237545285.0,2135302.0,+32.9764905,-082.6167520,GA,Georgia,13,28891.0,GA_31018,,,,,,,,,,,,,,,,,,,,,Census only,True,False,True
31019,31019,138663351.0,1722899.0,+32.4242438,-083.0513422,GA,Georgia,13,29227.0,GA_31019,zip code,2.0,12955.0,31019,Georgia,GA,"Dublin, GA",20140.0,13175.0,"Laurens County, GA",590.0,county,"DEXTER, GA",DEXTER,1317531019.0,5865.0,"Dexter, GA",,,GA_31019,Complete data,True,True,True
31020,31020,331784535.0,5902047.0,+32.6544817,-083.4984529,GA,Georgia,13,28788.0,GA_31020,zip code,2.0,12956.0,31020,Georgia,GA,"Macon, GA",31420.0,13289.0,"Twiggs County, GA",646.0,county,"DRY BRANCH, GA",DRY BRANCH,1328931020.0,,,,,GA_31020,Complete data,True,True,True
31021,31021,604683589.0,7310191.0,+32.4895392,-082.9349846,GA,Georgia,13,29173.0,GA_31021,zip code,2.0,12957.0,31021,Georgia,GA,"Dublin, GA",20140.0,13175.0,"Laurens County, GA",590.0,county,"DUBLIN, GA",DUBLIN,1317531021.0,6271.0,"Dublin, GA",,,GA_31021,Complete data,True,True,True
31022,31022,133835063.0,1117021.0,+32.5115398,-083.1166315,GA,Georgia,13,29176.0,GA_31022,zip code,2.0,12958.0,31022,Georgia,GA,"Dublin, GA",20140.0,13175.0,"Laurens County, GA",590.0,county,"DUDLEY, GA",DUDLEY,1317531022.0,6302.0,"Dudley, GA",,,GA_31022,Complete data,True,True,True
31023,31023,733294491.0,10427937.0,+32.1831736,-083.1994758,GA,Georgia,13,28963.0,GA_31023,,,,,,,,,,,,,,,,,,,,,Census only,True,False,True
31024,31024,841074994.0,39367430.0,+33.3229784,-083.3700149,GA,Georgia,13,29382.0,GA_31024,,,,,,,,,,,,,,,,,,,,,Census only,True,False,True
31025,31025,172266909.0,937198.0,+32.3353966,-083.7408748,GA,Georgia,13,29144.0,GA_31025,zip code,2.0,12961.0,31025,Georgia,GA,"Warner Robins, GA",47580.0,13153.0,"Houston County, GA",579.0,county,"ELKO, GA",ELKO,1315331025.0,,,,,GA_31025,Complete data,True,True,True
31027,31027,406333196.0,9478962.0,+32.5719463,-082.8226144,GA,Georgia,13,29294.0,GA_31027,zip code,2.0,12963.0,31027,Georgia,GA,"Dublin, GA",20140.0,13175.0,"Laurens County, GA",590.0,county,"EAST DUBLIN, GA",EAST DUBLIN,1317531027.0,6512.0,"East Dublin, GA",,,GA_31027,Complete data,True,True,True
31028,31028,7591196.0,42957.0,+32.6328399,-083.6839304,GA,Georgia,13,28936.0,GA_31028,zip code,2.0,12964.0,31028,Georgia,GA,"Warner Robins, GA",47580.0,13153.0,"Houston County, GA",579.0,county,"CENTERVILLE, GA",CENTERVILLE,1315331028.0,3850.0,"Centerville, GA",,,GA_31028,Complete data,True,True,True
31029,31029,631066561.0,1873028.0,+33.0435710,-083.9353499,GA,Georgia,13,29210.0,GA_31029,zip code,2.0,12965.0,31029,Georgia,GA,"Macon, GA",31420.0,13207.0,"Monroe County, GA",605.0,county,"FORSYTH, GA",FORSYTH,1320731029.0,7857.0,"Forsyth, GA",,,GA_31029,Complete data,True,True,True
31030,31030,453097014.0,3218558.0,+32.5689727,-083.8918796,GA,Georgia,13,28992.0,GA_31030,zip code,2.0,12966.0,31030,Georgia,GA,"Warner Robins, GA",47580.0,13225.0,"Peach County, GA",614.0,county,"FORT VALLEY, GA",FORT VALLEY,1322531030.0,7952.0,"Fort Valley, GA",,,GA_31030,Complete data,True,True,True
31031,31031,326126066.0,2598864.0,+32.8662831,-083.3283481,GA,Georgia,13,28841.0,GA_31031,,,,,,,,,,,,,,,,,,,,,Census only,True,False,True
31032,31032,412473866.0,1800142.0,+33.0119958,-083.5732893,GA,Georgia,13,28820.0,GA_31032,zip code,2.0,12968.0,31032,Georgia,GA,"Macon, GA",31420.0,13169.0,"Jones County, GA",587.0,county,"GRAY, GA",GRAY,1316931032.0,8807.0,"Gray, GA",,,GA_31032,Complete data,True,True,True
31033,31033,174848957.0,345882.0,+33.0793070,-083.4340072,GA,Georgia,13,29242.0,GA_31033,zip code,2.0,12969.0,31033,Georgia,GA,"Macon, GA",31420.0,13169.0,"Jones County, GA",587.0,county,"HADDOCK, GA",HADDOCK,1316931033.0,,,,,GA_31033,Complete data,True,True,True
31034,31034,93434.0,0.0,+33.0546229,-083.2255132,GA,Georgia,13,29405.0,GA_31034,,,,,,,,,,,,,,,,,,,,,Census only,True,False,True
31035,31035,125360428.0,1178762.0,+32.8541231,-082.7078221,GA,Georgia,13,29009.0,GA_31035,,,,,,,,,,,,,,,,,,,,,Census only,True,False,True
31036,31036,624829314.0,5422539.0,+32.2700612,-083.4926259,GA,Georgia,13,29161.0,GA_31036,,,,,,,,,,,,,,,,,,,,,Census only,True,False,True
31037,31037,170204000.0,2065046.0,+32.1215610,-082.9362803,GA,Georgia,13,28808.0,GA_31037,,,,,,,,,,,,,,,,,,,,,Census only,True,False,True
31038,31038,286457286.0,686844.0,+33.1424976,-083.6213988,GA,Georgia,13,29461.0,GA_31038,zip code,2.0,12974.0,31038,Georgia,GA,"Macon, GA",31420.0,13159.0,"Jasper County, GA",582.0,county,"HILLSBORO, GA",HILLSBORO,1315931038.0,,,,,GA_31038,Complete data,True,True,True
31039,31039,9055244.0,70611.0,+32.6040983,-084.3791042,GA,Georgia,13,29224.0,GA_31039,,,,,,,,,,,,,,,,,,,,,Census only,True,False,True
31041,31041,102911020.0,835975.0,+32.3823612,-084.1678012,GA,Georgia,13,29324.0,GA_31041,,,,,,,,,,,,,,,,,,,,,Census only,True,False,True
31042,31042,216476517.0,289572.0,+32.7436431,-083.1891137,GA,Georgia,13,29284.0,GA_31042,,,,,,,,,,,,,,,,,,,,,Census only,True,False,True
31044,31044,391881331.0,970277.0,+32.6561726,-083.3908844,GA,Georgia,13,28914.0,GA_31044,zip code,2.0,12979.0,31044,Georgia,GA,"Macon, GA",31420.0,13289.0,"Twiggs County, GA",646.0,county,"JEFFERSONVILLE, GA",JEFFERSONVILLE,1328931044.0,10713.0,"Jeffersonville, GA",,,GA_31044,Complete data,True,True,True
31045,31045,22812085.0,449912.0,+33.2829480,-082.7945083,GA,Georgia,13,29218.0,GA_31045,zip code,2.0,12980.0,31045,Georgia,GA,"Milledgeville, GA",33300.0,13301.0,"Warren County, GA",652.0,county,"JEWELL, GA",JEWELL,1330131045.0,,,,,GA_31045,Complete data,True,True,True
31046,31046,215179774.0,2287508.0,+33.0536121,-083.7962744,GA,Georgia,13,29164.0,GA_31046,zip code,2.0,12981.0,31046,Georgia,GA,"Macon, GA",31420.0,13207.0,"Monroe County, GA",605.0,county,"JULIETTE, GA",JULIETTE,1320731046.0,37175.0,"Juliette, GA",,,GA_31046,Complete data,True,True,True
31047,31047,195319716.0,2635817.0,+32.4668655,-083.5809948,GA,Georgia,13,29167.0,GA_31047,zip code,2.0,12982.0,31047,Georgia,GA,"Warner Robins, GA",47580.0,13153.0,"Houston County, GA",579.0,county,"KATHLEEN, GA",KATHLEEN,1315331047.0,,,,,GA_31047,Complete data,True,True,True
31049,31049,236372815.0,3626092.0,+32.6782887,-082.5233851,GA,Georgia,13,28896.0,GA_31049,zip code,2.0,12983.0,31049,Georgia,GA,"Dublin, GA",20140.0,13167.0,"Johnson County, GA",586.0,county,"KITE, GA",KITE,1316731049.0,11174.0,"Kite, GA",,,GA_31049,Complete data,True,True,True
31050,31050,50860390.0,65196.0,+32.7215374,-083.9372950,GA,Georgia,13,28865.0,GA_31050,zip code,2.0,12984.0,31050,Georgia,GA,"Macon, GA",31420.0,13079.0,"Crawford County, GA",542.0,county,"KNOXVILLE, GA",KNOXVILLE,1307931050.0,33615.0,"Knoxville, GA",,,GA_31050,Complete data,True,True,True
31051,31051,1108538.0,4291.0,+32.1431260,-083.8794002,GA,Georgia,13,29390.0,GA_31051,,,,,,,,,,,,,,,,,,,,,Census only,True,False,True
31052,31052,184338136.0,1110853.0,+32.7890148,-083.8400749,GA,Georgia,13,28791.0,GA_31052,zip code,2.0,12986.0,31052,Georgia,GA,"Macon, GA",31420.0,13021.0,"Bibb County, GA",514.0,county,"LIZELLA, GA",LIZELLA,1302131052.0,,,,,GA_31052,Complete data,True,True,True
31054,31054,131996326.0,827363.0,+32.8898607,-083.2140671,GA,Georgia,13,29316.0,GA_31054,,,,,,,,,,,,,,,,,,,,,Census only,True,False,True
31055,31055,346135129.0,3709886.0,+31.9858954,-082.8831390,GA,Georgia,13,28809.0,GA_31055,,,,,,,,,,,,,,,,,,,,,Census only,True,False,True
31057,31057,214098797.0,2498389.0,+32.4297806,-083.9442761,GA,Georgia,13,29396.0,GA_31057,,,,,,,,,,,,,,,,,,,,,Census only,True,False,True
31058,31058,267259745.0,1056494.0,+32.4886512,-084.4103956,GA,Georgia,13,29379.0,GA_31058,,,,,,,,,,,,,,,,,,,,,Census only,True,False,True
31060,31060,231056167.0,2716562.0,+31.9864454,-083.0563503,GA,Georgia,13,28948.0,GA_31060,,,,,,,,,,,,,,,,,,,,,Census only,True,False,True
31061,31061,706811159.0,28230077.0,+33.0590544,-083.2264132,GA,Georgia,13,28821.0,GA_31061,zip code,2.0,12993.0,31061,Georgia,GA,"Milledgeville, GA",33300.0,13009.0,"Baldwin County, GA",508.0,county,"MILLEDGEVILLE, GA",MILLEDGEVILLE,1300931061.0,13268.0,"Milledgeville, GA",,,GA_31061,Complete data,True,True,True
31062,31062,799333.0,0.0,+33.0433764,-083.2158144,GA,Georgia,13,29041.0,GA_31062,,,,,,,,,,,,,,,,,,,,,Census only,True,False,True
31063,31063,290226876.0,3218123.0,+32.2889661,-083.9632600,GA,Georgia,13,28740.0,GA_31063,,,,,,,,,,,,,,,,,,,,,Census only,True,False,True
31064,31064,636436640.0,9770448.0,+33.2864540,-083.7022995,GA,Georgia,13,29203.0,GA_31064,zip code,2.0,12996.0,31064,Georgia,GA,"Atlanta, GA",12060.0,13159.0,"Jasper County, GA",582.0,county,"MONTICELLO, GA",MONTICELLO,1315931064.0,13504.0,"Monticello, GA",,,GA_31064,Complete data,True,True,True
31065,31065,176541072.0,1691173.0,+32.5641152,-083.1884907,GA,Georgia,13,28949.0,GA_31065,zip code,2.0,12997.0,31065,Georgia,GA,"Dublin, GA",20140.0,13175.0,"Laurens County, GA",590.0,county,"MONTROSE, GA",MONTROSE,1317531065.0,13525.0,"Montrose, GA",,,GA_31065,Complete data,True,True,True
31066,31066,160078009.0,260413.0,+32.8024102,-083.9781496,GA,Georgia,13,29118.0,GA_31066,zip code,2.0,12998.0,31066,Georgia,GA,"Macon, GA",31420.0,13079.0,"Crawford County, GA",542.0,county,"MUSELLA, GA",MUSELLA,1307931066.0,,,,,GA_31066,Complete data,True,True,True
31067,31067,4765725.0,45172.0,+32.8522960,-082.9616537,GA,Georgia,13,28898.0,GA_31067,,,,,,,,,,,,,,,,,,,,,Census only,True,False,True
31068,31068,240895181.0,5274138.0,+32.3327388,-084.1111302,GA,Georgia,13,28995.0,GA_31068,,,,,,,,,,,,,,,,,,,,,Census only,True,False,True
31069,31069,258446086.0,2573076.0,+32.4400684,-083.7486029,GA,Georgia,13,29194.0,GA_31069,zip code,2.0,13001.0,31069,Georgia,GA,"Warner Robins, GA",47580.0,13153.0,"Houston County, GA",579.0,county,"PERRY, GA",PERRY,1315331069.0,15572.0,"Perry, GA",,,GA_31069,Complete data,True,True,True
31070,31070,129412616.0,2032105.0,+32.1865798,-083.7897715,GA,Georgia,13,29350.0,GA_31070,,,,,,,,,,,,,,,,,,,,,Census only,True,False,True
31071,31071,145769383.0,509807.0,+32.1294470,-083.5408464,GA,Georgia,13,29028.0,GA_31071,,,,,,,,,,,,,,,,,,,,,Census only,True,False,True
31072,31072,185854342.0,986985.0,+31.9744652,-083.5668403,GA,Georgia,13,28752.0,GA_31072,,,,,,,,,,,,,,,,,,,,,Census only,True,False,True
31075,31075,131063758.0,1070954.0,+32.3609558,-082.9546460,GA,Georgia,13,28897.0,GA_31075,zip code,2.0,13005.0,31075,Georgia,GA,"Dublin, GA",20140.0,13175.0,"Laurens County, GA",590.0,county,"RENTZ, GA",RENTZ,1317531075.0,16584.0,"Rentz, GA",,,GA_31075,Complete data,True,True,True
31076,31076,317506054.0,4947762.0,+32.5496779,-084.1049739,GA,Georgia,13,29187.0,GA_31076,,,,,,,,,,,,,,,,,,,,,Census only,True,False,True
31077,31077,261403500.0,5535066.0,+31.9423065,-083.1697582,GA,Georgia,13,28860.0,GA_31077,,,,,,,,,,,,,,,,,,,,,Census only,True,False,True
31078,31078,271117523.0,1459131.0,+32.6948139,-084.0756613,GA,Georgia,13,29298.0,GA_31078,zip code,2.0,13008.0,31078,Georgia,GA,"Macon, GA",31420.0,13079.0,"Crawford County, GA",542.0,county,"ROBERTA, GA",ROBERTA,1307931078.0,16872.0,"Roberta, GA",,,GA_31078,Complete data,True,True,True
31079,31079,303124164.0,2867703.0,+31.9425266,-083.4634099,GA,Georgia,13,29367.0,GA_31079,,,,,,,,,,,,,,,,,,,,,Census only,True,False,True
31081,31081,94049926.0,234988.0,+32.4123987,-084.2840468,GA,Georgia,13,29052.0,GA_31081,,,,,,,,,,,,,,,,,,,,,Census only,True,False,True
31082,31082,587670198.0,5947552.0,+32.9964172,-082.9031175,GA,Georgia,13,29254.0,GA_31082,,,,,,,,,,,,,,,,,,,,,Census only,True,False,True
31083,31083,2112712.0,28249.0,+32.0441338,-082.8220008,GA,Georgia,13,29250.0,GA_31083,,,,,,,,,,,,,,,,,,,,,Census only,True,False,True
31084,31084,89373.0,0.0,+31.9615202,-083.6025574,GA,Georgia,13,29016.0,GA_31084,,,,,,,,,,,,,,,,,,,,,Census only,True,False,True
31085,31085,114747405.0,1280103.0,+33.4273490,-083.6276998,GA,Georgia,13,29428.0,GA_31085,zip code,2.0,13014.0,31085,Georgia,GA,"Atlanta, GA",12060.0,13159.0,"Jasper County, GA",582.0,county,"SHADY DALE, GA",SHADY DALE,1315931085.0,17832.0,"Shady Dale, GA",,,GA_31085,Complete data,True,True,True
31087,31087,1134852654.0,16608655.0,+33.2513622,-083.0010315,GA,Georgia,13,29342.0,GA_31087,zip code,2.0,13016.0,31087,Georgia,GA,"Milledgeville, GA",33300.0,13141.0,"Hancock County, GA",573.0,county,"SPARTA, GA",SPARTA,1314131087.0,18525.0,"Sparta, GA",,,GA_31087,Complete data,True,True,True
31088,31088,76238335.0,573183.0,+32.5861710,-083.6550824,GA,Georgia,13,29137.0,GA_31088,zip code,2.0,13017.0,31088,Georgia,GA,"Warner Robins, GA",47580.0,13153.0,"Houston County, GA",579.0,county,"WARNER ROBINS, GA",WARNER ROBINS,1315331088.0,20204.0,"Warner Robins, GA",,,GA_31088,Complete data,True,True,True
31089,31089,406867268.0,2913812.0,+32.8507664,-082.8603143,GA,Georgia,13,29226.0,GA_31089,,,,,,,,,,,,,,,,,,,,,Census only,True,False,True
31090,31090,307035494.0,1929230.0,+32.7935824,-083.0484456,GA,Georgia,13,28979.0,GA_31090,,,,,,,,,,,,,,,,,,,,,Census only,True,False,True
31091,31091,238273468.0,3756570.0,+32.2379274,-083.7045267,GA,Georgia,13,28845.0,GA_31091,,,,,,,,,,,,,,,,,,,,,Census only,True,False,True
31092,31092,487377079.0,4633431.0,+32.0896615,-083.7826652,GA,Georgia,13,29090.0,GA_31092,,,,,,,,,,,,,,,,,,,,,Census only,True,False,True
31093,31093,52882627.0,606902.0,+32.6478728,-083.6572060,GA,Georgia,13,29237.0,GA_31093,zip code,2.0,13022.0,31093,Georgia,GA,"Warner Robins, GA",47580.0,13153.0,"Houston County, GA",579.0,county,"WARNER ROBINS, GA",WARNER ROBINS,1315331093.0,20204.0,"Warner Robins, GA",,,GA_31093,Complete data,True,True,True
31094,31094,288792222.0,2355698.0,+33.1136144,-082.7957591,GA,Georgia,13,29307.0,GA_31094,,,,,,,,,,,,,,,,,,,,,Census only,True,False,True
31096,31096,468201289.0,4713369.0,+32.7232909,-082.7072662,GA,Georgia,13,29029.0,GA_31096,zip code,2.0,13025.0,31096,Georgia,GA,"Dublin, GA",20140.0,13167.0,"Johnson County, GA",586.0,county,"WRIGHTSVILLE, GA",WRIGHTSVILLE,1316731096.0,20789.0,"Wrightsville, GA",,,GA_31096,Complete data,True,True,True
31097,31097,138539625.0,1313252.0,+32.8904112,-084.1668953,GA,Georgia,13,29206.0,GA_31097,zip code,2.0,13026.0,31097,Georgia,GA,"Thomaston, GA",45580.0,13293.0,"Upson County, GA",648.0,county,"YATESVILLE, GA",YATESVILLE,1329331097.0,20805.0,"Yatesville, GA",,,GA_31097,Complete data,True,True,True
31098,31098,45483243.0,562034.0,+32.6148252,-083.5784345,GA,Georgia,13,28832.0,GA_31098,zip code,2.0,13027.0,31098,Georgia,GA,"Warner Robins, GA",47580.0,13153.0,"Houston County, GA",579.0,county,"WARNER ROBINS, GA",WARNER ROBINS,1315331098.0,20204.0,"Warner Robins, GA",,,GA_31098,Complete data,True,True,True
31201,31201,24249400.0,618088.0,+32.8063210,-083.6178599,GA,Georgia,13,28765.0,GA_31201,zip code,2.0,13050.0,31201,Georgia,GA,"Macon, GA",31420.0,13021.0,"Bibb County, GA",514.0,county,"MACON, GA",MACON,1302131201.0,12549.0,"Macon, GA",,,GA_31201,Complete data,True,True,True
31204,31204,37773933.0,426398.0,+32.8485111,-083.6747450,GA,Georgia,13,28747.0,GA_31204,zip code,2.0,13053.0,31204,Georgia,GA,"Macon, GA",31420.0,13021.0,"Bibb County, GA",514.0,county,"MACON, GA",MACON,1302131204.0,12549.0,"Macon, GA",,,GA_31204,Complete data,True,True,True
31206,31206,69021567.0,351898.0,+32.7933656,-083.6845731,GA,Georgia,13,28790.0,GA_31206,zip code,2.0,13055.0,31206,Georgia,GA,"Macon, GA",31420.0,13021.0,"Bibb County, GA",514.0,county,"MACON, GA",MACON,1302131206.0,12549.0,"Macon, GA",,,GA_31206,Complete data,True,True,True
31207,31207,503812.0,0.0,+32.8286022,-083.6492988,GA,Georgia,13,29230.0,GA_31207,,,,,,,,,,,,,,,,,,,,,Census only,True,False,True
31210,31210,107068710.0,990166.0,+32.9076332,-083.7350524,GA,Georgia,13,28789.0,GA_31210,zip code,2.0,13059.0,31210,Georgia,GA,"Macon, GA",31420.0,13021.0,"Bibb County, GA",514.0,county,"MACON, GA",MACON,1302131210.0,12549.0,"Macon, GA",,,GA_31210,Complete data,True,True,True
31211,31211,114812971.0,603775.0,+32.9042669,-083.5985257,GA,Georgia,13,28786.0,GA_31211,zip code,2.0,13060.0,31211,Georgia,GA,"Macon, GA",31420.0,13021.0,"Bibb County, GA",514.0,county,"MACON, GA",MACON,1302131211.0,12549.0,"Macon, GA",,,GA_31211,Complete data,True,True,True
31213,31213,26043.0,0.0,+32.8400811,-083.6393505,GA,Georgia,13,29115.0,GA_31213,,,,,,,,,,,,,,,,,,,,,Census only,True,False,True
31216,31216,148577247.0,1786792.0,+32.7323732,-083.6714490,GA,Georgia,13,29142.0,GA_31216,zip code,2.0,13063.0,31216,Georgia,GA,"Macon, GA",31420.0,13021.0,"Bibb County, GA",514.0,county,"MACON, GA",MACON,1302131216.0,12549.0,"Macon, GA",,,GA_31216,Complete data,True,True,True
31217,31217,279110068.0,2700397.0,+32.8441467,-083.5000440,GA,Georgia,13,29112.0,GA_31217,zip code,2.0,13064.0,31217,Georgia,GA,"Macon, GA",31420.0,13021.0,"Bibb County, GA",514.0,county,"MACON, GA",MACON,1302131217.0,12549.0,"Macon, GA",,,GA_31217,Complete data,True,True,True
31220,31220,125042738.0,7830953.0,+32.8844625,-083.8181478,GA,Georgia,13,28814.0,GA_31220,zip code,2.0,13065.0,31220,Georgia,GA,"Macon, GA",31420.0,13021.0,"Bibb County, GA",514.0,county,"MACON, GA",MACON,1302131220.0,12549.0,"Macon, GA",,,GA_31220,Complete data,True,True,True
31301,31301,45676303.0,245484.0,+31.7582526,-081.6050526,GA,Georgia,13,29132.0,GA_31301,zip code,2.0,13071.0,31301,Georgia,GA,"Hinesville, GA",25980.0,13179.0,"Liberty County, GA",592.0,county,"ALLENHURST, GA",ALLENHURST,1317931301.0,371.0,"Allenhurst, GA",,,GA_31301,Complete data,True,True,True
31302,31302,108580896.0,1709724.0,+32.1258129,-081.3403940,GA,Georgia,13,29134.0,GA_31302,zip code,2.0,13072.0,31302,Georgia,GA,"Savannah, GA",42340.0,13051.0,"Chatham County, GA",528.0,county,"BLOOMINGDALE, GA",BLOOMINGDALE,1305131302.0,2289.0,"Bloomingdale, GA",,,GA_31302,Complete data,True,True,True
31303,31303,210990569.0,4266387.0,+32.5054224,-081.3134268,GA,Georgia,13,28831.0,GA_31303,zip code,2.0,13073.0,31303,Georgia,GA,"Savannah, GA",42340.0,13103.0,"Effingham County, GA",554.0,county,"CLYO, GA",CLYO,1310331303.0,,,,,GA_31303,Complete data,True,True,True
31305,31305,160175106.0,20128517.0,+31.3675791,-081.3781928,GA,Georgia,13,29216.0,GA_31305,zip code,2.0,13075.0,31305,Georgia,GA,"Brunswick, GA",15260.0,13191.0,"McIntosh County, GA",598.0,county,"DARIEN, GA",DARIEN,1319131305.0,5599.0,"Darien, GA",,,GA_31305,Complete data,True,True,True
31307,31307,12197735.0,252977.0,+32.1764100,-081.3976101,GA,Georgia,13,29214.0,GA_31307,,,,,,,,,,,,,,,,,,,,,Census only,True,False,True
31308,31308,218566708.0,2300157.0,+32.1803156,-081.4712895,GA,Georgia,13,28879.0,GA_31308,zip code,2.0,13077.0,31308,Georgia,GA,"Savannah, GA",42340.0,13029.0,"Bryan County, GA",518.0,county,"ELLABELL, GA",ELLABELL,1302931308.0,,,,,GA_31308,Complete data,True,True,True
31309,31309,75489782.0,45002.0,+31.8804505,-081.4411723,GA,Georgia,13,29110.0,GA_31309,zip code,2.0,13078.0,31309,Georgia,GA,"Hinesville, GA",25980.0,13179.0,"Liberty County, GA",592.0,county,"FLEMING, GA",FLEMING,1317931309.0,,,,,GA_31309,Complete data,True,True,True
31312,31312,452794613.0,1614624.0,+32.3186654,-081.4009636,GA,Georgia,13,29241.0,GA_31312,zip code,2.0,13080.0,31312,Georgia,GA,"Savannah, GA",42340.0,13103.0,"Effingham County, GA",554.0,county,"GUYTON, GA",GUYTON,1310331312.0,9131.0,"Guyton, GA",,,GA_31312,Complete data,True,True,True
31313,31313,158310198.0,217728.0,+31.8365977,-081.6167741,GA,Georgia,13,29091.0,GA_31313,zip code,2.0,13081.0,31313,Georgia,GA,"Hinesville, GA",25980.0,13179.0,"Liberty County, GA",592.0,county,"HINESVILLE, GA",HINESVILLE,1317931313.0,9881.0,"Hinesville, GA",,,GA_31313,Complete data,True,True,True
31314,31314,124396958.0,97562.0,+31.9069220,-081.6175105,GA,Georgia,13,28749.0,GA_31314,,,,,,,,,,,,,,,,,,,,,Census only,True,False,True
31315,31315,8754579.0,0.0,+31.8876792,-081.6060094,GA,Georgia,13,29092.0,GA_31315,zip code,2.0,13083.0,31315,Georgia,GA,"Hinesville, GA",25980.0,13179.0,"Liberty County, GA",592.0,county,"FORT STEWART, GA",FORT STEWART,1317931315.0,23140.0,"Fort Stewart, GA",,,GA_31315,Complete data,True,True,True
31316,31316,742254705.0,6537735.0,+31.7192833,-081.7332721,GA,Georgia,13,29100.0,GA_31316,zip code,2.0,13084.0,31316,Georgia,GA,"Hinesville, GA",25980.0,13183.0,"Long County, GA",594.0,county,"LUDOWICI, GA",LUDOWICI,1318331316.0,12207.0,"Ludowici, GA",,,GA_31316,Complete data,True,True,True
31318,31318,6719795.0,89222.0,+32.1348378,-081.3722633,GA,Georgia,13,28943.0,GA_31318,zip code,2.0,13085.0,31318,Georgia,GA,"Savannah, GA",42340.0,13103.0,"Effingham County, GA",554.0,county,"MELDRIM, GA",MELDRIM,1310331318.0,,,,,GA_31318,Complete data,True,True,True
31320,31320,320068809.0,34721674.0,+31.7655037,-081.3684106,GA,Georgia,13,28758.0,GA_31320,zip code,2.0,13087.0,31320,Georgia,GA,"Hinesville, GA",25980.0,13179.0,"Liberty County, GA",592.0,county,"MIDWAY, GA",MIDWAY,1317931320.0,13237.0,"Midway, GA",,,GA_31320,Complete data,True,True,True
31321,31321,370723167.0,1893793.0,+32.1850618,-081.6597943,GA,Georgia,13,29309.0,GA_31321,zip code,2.0,13088.0,31321,Georgia,GA,"Savannah, GA",42340.0,13029.0,"Bryan County, GA",518.0,county,"PEMBROKE, GA",PEMBROKE,1302931321.0,15503.0,"Pembroke, GA",,,GA_31321,Complete data,True,True,True
31322,31322,76365764.0,826907.0,+32.1019885,-081.2553788,GA,Georgia,13,28824.0,GA_31322,zip code,2.0,13089.0,31322,Georgia,GA,"Savannah, GA",42340.0,13051.0,"Chatham County, GA",528.0,county,"POOLER, GA",POOLER,1305131322.0,15964.0,"Pooler, GA",,,GA_31322,Complete data,True,True,True
31323,31323,401511662.0,20495637.0,+31.6683848,-081.4541869,GA,Georgia,13,28778.0,GA_31323,zip code,2.0,13090.0,31323,Georgia,GA,"Hinesville, GA",25980.0,13179.0,"Liberty County, GA",592.0,county,"RICEBORO, GA",RICEBORO,1317931323.0,16648.0,"Riceboro, GA",,,GA_31323,Complete data,True,True,True
31324,31324,336065097.0,37190145.0,+31.8502030,-081.2648237,GA,Georgia,13,28878.0,GA_31324,zip code,2.0,13091.0,31324,Georgia,GA,"Savannah, GA",42340.0,13029.0,"Bryan County, GA",518.0,county,"RICHMOND HILL, GA",RICHMOND HILL,1302931324.0,16679.0,"Richmond Hill, GA",,,GA_31324,Complete data,True,True,True
31326,31326,177559691.0,881245.0,+32.2966128,-081.2226534,GA,Georgia,13,28836.0,GA_31326,zip code,2.0,13092.0,31326,Georgia,GA,"Savannah, GA",42340.0,13103.0,"Effingham County, GA",554.0,county,"RINCON, GA",RINCON,1310331326.0,16743.0,"Rincon, GA",,,GA_31326,Complete data,True,True,True
31327,31327,50804825.0,21207773.0,+31.4231653,-081.2900820,GA,Georgia,13,28919.0,GA_31327,zip code,2.0,13093.0,31327,Georgia,GA,"Brunswick, GA",15260.0,13191.0,"McIntosh County, GA",598.0,county,"SAPELO ISLAND, GA",SAPELO ISLAND,1319131327.0,,,,,GA_31327,Complete data,True,True,True
31328,31328,23782149.0,3059258.0,+32.0043303,-080.8907865,GA,Georgia,13,29114.0,GA_31328,zip code,2.0,13094.0,31328,Georgia,GA,"Savannah, GA",42340.0,13051.0,"Chatham County, GA",528.0,county,"TYBEE ISLAND, GA",TYBEE ISLAND,1305131328.0,19680.0,"Tybee Island, GA",,,GA_31328,Complete data,True,True,True
31329,31329,239159149.0,510796.0,+32.4272614,-081.3500032,GA,Georgia,13,28816.0,GA_31329,zip code,2.0,13095.0,31329,Georgia,GA,"Savannah, GA",42340.0,13103.0,"Effingham County, GA",554.0,county,"SPRINGFIELD, GA",SPRINGFIELD,1310331329.0,18561.0,"Springfield, GA",,,GA_31329,Complete data,True,True,True
31331,31331,736202575.0,77662240.0,+31.4902449,-081.4215105,GA,Georgia,13,28873.0,GA_31331,zip code,2.0,13096.0,31331,Georgia,GA,"Brunswick, GA",15260.0,13191.0,"McIntosh County, GA",598.0,county,"TOWNSEND, GA",TOWNSEND,1319131331.0,,,,,GA_31331,Complete data,True,True,True
31333,31333,174091.0,0.0,+31.7678276,-081.6274577,GA,Georgia,13,29427.0,GA_31333,zip code,2.0,13097.0,31333,Georgia,GA,"Hinesville, GA",25980.0,13179.0,"Liberty County, GA",592.0,county,"WALTHOURVILLE, GA",WALTHOURVILLE,1317931333.0,20147.0,"Walthourville, GA",,,GA_31333,Complete data,True,True,True
31401,31401,8839700.0,240007.0,+32.0682961,-081.0928353,GA,Georgia,13,29401.0,GA_31401,zip code,2.0,13098.0,31401,Georgia,GA,"Savannah, GA",42340.0,13051.0,"Chatham County, GA",528.0,county,"SAVANNAH, GA",SAVANNAH,1305131401.0,17651.0,"Savannah, GA",,,GA_31401,Complete data,True,True,True
31404,31404,35518058.0,2063499.0,+32.0507496,-081.0529610,GA,Georgia,13,29322.0,GA_31404,zip code,2.0,13101.0,31404,Georgia,GA,"Savannah, GA",42340.0,13051.0,"Chatham County, GA",528.0,county,"SAVANNAH, GA",SAVANNAH,1305131404.0,17651.0,"Savannah, GA",,,GA_31404,Complete data,True,True,True
31405,31405,80896746.0,1258365.0,+32.0393853,-081.1791688,GA,Georgia,13,29043.0,GA_31405,zip code,2.0,13102.0,31405,Georgia,GA,"Savannah, GA",42340.0,13051.0,"Chatham County, GA",528.0,county,"SAVANNAH, GA",SAVANNAH,1305131405.0,17651.0,"Savannah, GA",,,GA_31405,Complete data,True,True,True
31406,31406,67848549.0,8423443.0,+31.9804037,-081.0851840,GA,Georgia,13,29476.0,GA_31406,zip code,2.0,13103.0,31406,Georgia,GA,"Savannah, GA",42340.0,13051.0,"Chatham County, GA",528.0,county,"SAVANNAH, GA",SAVANNAH,1305131406.0,17651.0,"Savannah, GA",,,GA_31406,Complete data,True,True,True
31407,31407,87748278.0,1420019.0,+32.1832180,-081.1979352,GA,Georgia,13,28812.0,GA_31407,zip code,2.0,13104.0,31407,Georgia,GA,"Savannah, GA",42340.0,13051.0,"Chatham County, GA",528.0,county,"PORT WENTWORTH, GA",PORT WENTWORTH,1305131407.0,16014.0,"Port Wentworth, GA",,,GA_31407,Complete data,True,True,True
31408,31408,54636160.0,476195.0,+32.1041299,-081.1810517,GA,Georgia,13,28783.0,GA_31408,zip code,2.0,13105.0,31408,Georgia,GA,"Savannah, GA",42340.0,13051.0,"Chatham County, GA",528.0,county,"SAVANNAH, GA",SAVANNAH,1305131408.0,17651.0,"Savannah, GA",,,GA_31408,Complete data,True,True,True
31409,31409,17456769.0,18522.0,+32.0155607,-081.1448300,GA,Georgia,13,29412.0,GA_31409,,,,,,,,,,,,,,,,,,,,,Census only,True,False,True
31410,31410,58466319.0,8338140.0,+32.0148838,-080.9882343,GA,Georgia,13,29231.0,GA_31410,zip code,2.0,13107.0,31410,Georgia,GA,"Savannah, GA",42340.0,13051.0,"Chatham County, GA",528.0,county,"SAVANNAH, GA",SAVANNAH,1305131410.0,17651.0,"Savannah, GA",,,GA_31410,Complete data,True,True,True
31411,31411,58235679.0,9728351.0,+31.9375415,-081.0342519,GA,Georgia,13,29113.0,GA_31411,zip code,2.0,13108.0,31411,Georgia,GA,"Savannah, GA",42340.0,13051.0,"Chatham County, GA",528.0,county,"SAVANNAH, GA",SAVANNAH,1305131411.0,17651.0,"Savannah, GA",,,GA_31411,Complete data,True,True,True
31415,31415,17069348.0,412147.0,+32.0806404,-081.1272172,GA,Georgia,13,28994.0,GA_31415,zip code,2.0,13111.0,31415,Georgia,GA,"Savannah, GA",42340.0,13051.0,"Chatham County, GA",528.0,county,"SAVANNAH, GA",SAVANNAH,1305131415.0,17651.0,"Savannah, GA",,,GA_31415,Complete data,True,True,True
31419,31419,188804439.0,15125632.0,+31.9854210,-081.2356555,GA,Georgia,13,29416.0,GA_31419,zip code,2.0,13114.0,31419,Georgia,GA,"Savannah, GA",42340.0,13051.0,"Chatham County, GA",528.0,county,"SAVANNAH, GA",SAVANNAH,1305131419.0,17651.0,"Savannah, GA",,,GA_31419,Complete data,True,True,True
31421,31421,3965659.0,873483.0,+32.0869657,-081.0781883,GA,Georgia,13,29141.0,GA_31421,zip code,2.0,13116.0,31421,Georgia,GA,"Savannah, GA",42340.0,13051.0,"Chatham County, GA",528.0,county,"SAVANNAH, GA",SAVANNAH,1305131421.0,17651.0,"Savannah, GA",,,GA_31421,Complete data,True,True,True
31501,31501,31075858.0,217224.0,+31.2275961,-082.3479438,GA,Georgia,13,29005.0,GA_31501,zip code,2.0,13117.0,31501,Georgia,GA,"Waycross, GA",48180.0,13299.0,"Ware County, GA",651.0,county,"WAYCROSS, GA",WAYCROSS,1329931501.0,20273.0,"Waycross, GA",,,GA_31501,Complete data,True,True,True
31503,31503,875131477.0,14183028.0,+31.1768790,-082.4012928,GA,Georgia,13,28859.0,GA_31503,zip code,2.0,13119.0,31503,Georgia,GA,"Waycross, GA",48180.0,13299.0,"Ware County, GA",651.0,county,"WAYCROSS, GA",WAYCROSS,1329931503.0,20273.0,"Waycross, GA",,,GA_31503,Complete data,True,True,True
31510,31510,575014681.0,3793248.0,+31.5465463,-082.4335286,GA,Georgia,13,28977.0,GA_31510,,,,,,,,,,,,,,,,,,,,,Census only,True,False,True
31512,31512,211583110.0,5052240.0,+31.5456963,-083.0183564,GA,Georgia,13,29124.0,GA_31512,zip code,2.0,13121.0,31512,Georgia,GA,"Douglas, GA",20060.0,13069.0,"Coffee County, GA",537.0,county,"AMBROSE, GA",AMBROSE,1306931512.0,,,,,GA_31512,Complete data,True,True,True
31513,31513,847598569.0,7179245.0,+31.7774209,-082.3460036,GA,Georgia,13,29295.0,GA_31513,,,,,,,,,,,,,,,,,,,,,Census only,True,False,True
31516,31516,413213325.0,4185721.0,+31.3093710,-082.2532602,GA,Georgia,13,28974.0,GA_31516,zip code,2.0,13124.0,31516,Georgia,GA,"Waycross, GA",48180.0,13229.0,"Pierce County, GA",616.0,county,"BLACKSHEAR, GA",BLACKSHEAR,1322931516.0,2150.0,"Blackshear, GA",,,GA_31516,Complete data,True,True,True
31518,31518,120542385.0,546246.0,+31.5126067,-082.1850931,GA,Georgia,13,29007.0,GA_31518,,,,,,,,,,,,,,,,,,,,,Census only,True,False,True
31519,31519,320871554.0,6048233.0,+31.6681236,-082.8690344,GA,Georgia,13,29089.0,GA_31519,zip code,2.0,13126.0,31519,Georgia,GA,"Douglas, GA",20060.0,13069.0,"Coffee County, GA",537.0,county,"BROXTON, GA",BROXTON,1306931519.0,2984.0,"Broxton, GA",,,GA_31519,Complete data,True,True,True
31520,31520,52200759.0,4954257.0,+31.1780778,-081.4875632,GA,Georgia,13,29400.0,GA_31520,zip code,2.0,13127.0,31520,Georgia,GA,"Brunswick, GA",15260.0,13127.0,"Glynn County, GA",566.0,county,"BRUNSWICK, GA",BRUNSWICK,1312731520.0,2995.0,"Brunswick, GA",,,GA_31520,Complete data,True,True,True
31522,31522,138197156.0,42919435.0,+31.2572522,-081.3420255,GA,Georgia,13,29470.0,GA_31522,zip code,2.0,13129.0,31522,Georgia,GA,"Brunswick, GA",15260.0,13127.0,"Glynn County, GA",566.0,county,"SAINT SIMONS ISLAND, GA",SAINT SIMONS ISLAND,1312731522.0,,,,,GA_31522,Complete data,True,True,True
31523,31523,495903566.0,46346677.0,+31.2126448,-081.6168108,GA,Georgia,13,29054.0,GA_31523,zip code,2.0,13130.0,31523,Georgia,GA,"Brunswick, GA",15260.0,13127.0,"Glynn County, GA",566.0,county,"BRUNSWICK, GA",BRUNSWICK,1312731523.0,2995.0,"Brunswick, GA",,,GA_31523,Complete data,True,True,True
31524,31524,3768663.0,30576.0,+31.2405974,-081.4733870,GA,Georgia,13,29195.0,GA_31524,zip code,2.0,13131.0,31524,Georgia,GA,"Brunswick, GA",15260.0,13127.0,"Glynn County, GA",566.0,county,"BRUNSWICK, GA",BRUNSWICK,1312731524.0,2995.0,"Brunswick, GA",,,GA_31524,Complete data,True,True,True
31525,31525,254630372.0,6425784.0,+31.3209994,-081.5264403,GA,Georgia,13,28728.0,GA_31525,zip code,2.0,13132.0,31525,Georgia,GA,"Brunswick, GA",15260.0,13127.0,"Glynn County, GA",566.0,county,"BRUNSWICK, GA",BRUNSWICK,1312731525.0,2995.0,"Brunswick, GA",,,GA_31525,Complete data,True,True,True
31527,31527,25221730.0,17540221.0,+31.0751182,-081.4160049,GA,Georgia,13,29087.0,GA_31527,zip code,2.0,13133.0,31527,Georgia,GA,"Brunswick, GA",15260.0,13127.0,"Glynn County, GA",566.0,county,"JEKYLL ISLAND, GA",JEKYLL ISLAND,1312731527.0,37364.0,"Jekyll Island, GA",,,GA_31527,Complete data,True,True,True
31532,31532,121939897.0,1103652.0,+31.7264155,-082.7457348,GA,Georgia,13,29014.0,GA_31532,,,,,,,,,,,,,,,,,,,,,Census only,True,False,True
31533,31533,171670684.0,3442771.0,+31.5627378,-082.8290203,GA,Georgia,13,29455.0,GA_31533,zip code,2.0,13135.0,31533,Georgia,GA,"Douglas, GA",20060.0,13069.0,"Coffee County, GA",537.0,county,"DOUGLAS, GA",DOUGLAS,1306931533.0,6144.0,"Douglas, GA",,,GA_31533,Complete data,True,True,True
31535,31535,243391650.0,5766017.0,+31.4595406,-082.8673266,GA,Georgia,13,29103.0,GA_31535,zip code,2.0,13137.0,31535,Georgia,GA,"Douglas, GA",20060.0,13069.0,"Coffee County, GA",537.0,county,"DOUGLAS, GA",DOUGLAS,1306931535.0,6144.0,"Douglas, GA",,,GA_31535,Complete data,True,True,True
31537,31537,1411056863.0,5882334.0,+30.9265453,-082.1764728,GA,Georgia,13,29072.0,GA_31537,,,,,,,,,,,,,,,,,,,,,Census only,True,False,True
31539,31539,714162734.0,10162320.0,+31.8139182,-082.6022329,GA,Georgia,13,28971.0,GA_31539,,,,,,,,,,,,,,,,,,,,,Census only,True,False,True
31542,31542,210723408.0,468565.0,+31.1427011,-082.1194073,GA,Georgia,13,29315.0,GA_31542,zip code,2.0,13140.0,31542,Georgia,GA,"Brunswick, GA",15260.0,13025.0,"Brantley County, GA",516.0,county,"HOBOKEN, GA",HOBOKEN,1302531542.0,9955.0,"Hoboken, GA",,,GA_31542,Complete data,True,True,True
31543,31543,426852688.0,2154818.0,+31.3264694,-081.8696954,GA,Georgia,13,29417.0,GA_31543,zip code,2.0,13141.0,31543,Georgia,GA,"Jesup, GA",27700.0,13025.0,"Brantley County, GA",516.0,county,"HORTENSE, GA",HORTENSE,1302531543.0,37109.0,"Hortense, GA",,,GA_31543,Complete data,True,True,True
31544,31544,266755094.0,4832409.0,+31.8404821,-082.9638834,GA,Georgia,13,29251.0,GA_31544,,,,,,,,,,,,,,,,,,,,,Census only,True,False,True
31545,31545,262878370.0,5622084.0,+31.5725597,-081.9908610,GA,Georgia,13,29282.0,GA_31545,zip code,2.0,13143.0,31545,Georgia,GA,"Jesup, GA",27700.0,13305.0,"Wayne County, GA",654.0,county,"JESUP, GA",JESUP,1330531545.0,10762.0,"Jesup, GA",,,GA_31545,Complete data,True,True,True
31546,31546,391511252.0,6447386.0,+31.5302651,-081.7948710,GA,Georgia,13,29403.0,GA_31546,zip code,2.0,13144.0,31546,Georgia,GA,"Jesup, GA",27700.0,13305.0,"Wayne County, GA",654.0,county,"JESUP, GA",JESUP,1330531546.0,10762.0,"Jesup, GA",,,GA_31546,Complete data,True,True,True
31547,31547,41771565.0,5201712.0,+30.7903465,-081.5352881,GA,Georgia,13,28760.0,GA_31547,,,,,,,,,,,,,,,,,,,,,Census only,True,False,True
31548,31548,162501323.0,4481881.0,+30.7958400,-081.7123629,GA,Georgia,13,29073.0,GA_31548,zip code,2.0,13146.0,31548,Georgia,GA,"St. Marys, GA",41220.0,13039.0,"Camden County, GA",523.0,county,"KINGSLAND, GA",KINGSLAND,1303931548.0,11109.0,"Kingsland, GA",,,GA_31548,Complete data,True,True,True
31549,31549,304648343.0,5845229.0,+31.9214405,-082.7299334,GA,Georgia,13,28912.0,GA_31549,,,,,,,,,,,,,,,,,,,,,Census only,True,False,True
31550,31550,150891152.0,2708814.0,+31.1470802,-082.5956230,GA,Georgia,13,29297.0,GA_31550,zip code,2.0,13148.0,31550,Georgia,GA,"Waycross, GA",48180.0,13299.0,"Ware County, GA",651.0,county,"MANOR, GA",MANOR,1329931550.0,37323.0,"Manor, GA",,,GA_31550,Complete data,True,True,True
31551,31551,176270662.0,926224.0,+31.4882811,-082.2667680,GA,Georgia,13,29386.0,GA_31551,,,,,,,,,,,,,,,,,,,,,Census only,True,False,True
31552,31552,263737557.0,2922264.0,+31.2898976,-082.5991463,GA,Georgia,13,29464.0,GA_31552,zip code,2.0,13150.0,31552,Georgia,GA,"Waycross, GA",48180.0,13299.0,"Ware County, GA",651.0,county,"MILLWOOD, GA",MILLWOOD,1329931552.0,37250.0,"Millwood, GA",,,GA_31552,Complete data,True,True,True
31553,31553,482890597.0,4102504.0,+31.1663973,-081.9824182,GA,Georgia,13,29460.0,GA_31553,zip code,2.0,13151.0,31553,Georgia,GA,"Brunswick, GA",15260.0,13025.0,"Brantley County, GA",516.0,county,"NAHUNTA, GA",NAHUNTA,1302531553.0,14022.0,"Nahunta, GA",,,GA_31553,Complete data,True,True,True
31554,31554,581602654.0,2936401.0,+31.4857970,-082.6205167,GA,Georgia,13,29422.0,GA_31554,zip code,2.0,13152.0,31554,Georgia,GA,"Douglas, GA",20060.0,13069.0,"Coffee County, GA",537.0,county,"NICHOLLS, GA",NICHOLLS,1306931554.0,14357.0,"Nicholls, GA",,,GA_31554,Complete data,True,True,True
31555,31555,373091882.0,2798191.0,+31.7030579,-082.0694411,GA,Georgia,13,28889.0,GA_31555,zip code,2.0,13153.0,31555,Georgia,GA,"Jesup, GA",27700.0,13305.0,"Wayne County, GA",654.0,county,"ODUM, GA",ODUM,1330531555.0,14914.0,"Odum, GA",,,GA_31555,Complete data,True,True,True
31556,31556,285252.0,0.0,+31.4050499,-082.1152437,GA,Georgia,13,29371.0,GA_31556,,,,,,,,,,,,,,,,,,,,,Census only,True,False,True
31557,31557,293265836.0,2424147.0,+31.3752743,-082.0988369,GA,Georgia,13,29006.0,GA_31557,zip code,2.0,13155.0,31557,Georgia,GA,"Waycross, GA",48180.0,13229.0,"Pierce County, GA",616.0,county,"PATTERSON, GA",PATTERSON,1322931557.0,15402.0,"Patterson, GA",,,GA_31557,Complete data,True,True,True
31558,31558,185507958.0,57343533.0,+30.8022891,-081.5076741,GA,Georgia,13,29435.0,GA_31558,zip code,2.0,13156.0,31558,Georgia,GA,"St. Marys, GA",41220.0,13039.0,"Camden County, GA",523.0,county,"SAINT MARYS, GA",SAINT MARYS,1303931558.0,,,,,GA_31558,Complete data,True,True,True
31560,31560,309188567.0,2464353.0,+31.5056085,-082.0296035,GA,Georgia,13,29275.0,GA_31560,zip code,2.0,13157.0,31560,Georgia,GA,"Jesup, GA",27700.0,13305.0,"Wayne County, GA",654.0,county,"SCREVEN, GA",SCREVEN,1330531560.0,17757.0,"Screven, GA",,,GA_31560,Complete data,True,True,True
31561,31561,12222670.0,10800581.0,+31.2090661,-081.3099328,GA,Georgia,13,29449.0,GA_31561,zip code,2.0,13158.0,31561,Georgia,GA,"Brunswick, GA",15260.0,13127.0,"Glynn County, GA",566.0,county,"SEA ISLAND, GA",SEA ISLAND,1312731561.0,,,,,GA_31561,Complete data,True,True,True
31562,31562,397129400.0,333782.0,+30.4753400,-082.1038965,GA,Georgia,13,28766.0,GA_31562,,,,,,,,,,,,,,,,,,,,,Census only,True,False,True
31563,31563,312989049.0,2483885.0,+31.7381865,-082.1778432,GA,Georgia,13,28868.0,GA_31563,,,,,,,,,,,,,,,,,,,,,Census only,True,False,True
31564,31564,108045.0,0.0,+31.2487161,-082.4709482,GA,Georgia,13,29252.0,GA_31564,,,,,,,,,,,,,,,,,,,,,Census only,True,False,True
31565,31565,305599127.0,19538171.0,+31.0707084,-081.6434181,GA,Georgia,13,29125.0,GA_31565,zip code,2.0,13162.0,31565,Georgia,GA,"St. Marys, GA",41220.0,13039.0,"Camden County, GA",523.0,county,"WAVERLY, GA",WAVERLY,1303931565.0,37084.0,"Waverly, GA",,,GA_31565,Complete data,True,True,True
31566,31566,168845124.0,1951089.0,+31.1827554,-081.8055941,GA,Georgia,13,29418.0,GA_31566,zip code,2.0,13163.0,31566,Georgia,GA,"Brunswick, GA",15260.0,13025.0,"Brantley County, GA",516.0,county,"WAYNESVILLE, GA",WAYNESVILLE,1302531566.0,37101.0,"Waynesville, GA",,,GA_31566,Complete data,True,True,True
31567,31567,109092479.0,1523065.0,+31.6308864,-082.7062285,GA,Georgia,13,29456.0,GA_31567,zip code,2.0,13164.0,31567,Georgia,GA,"Douglas, GA",20060.0,13069.0,"Coffee County, GA",537.0,county,"WEST GREEN, GA",WEST GREEN,1306931567.0,,,,,GA_31567,Complete data,True,True,True
31568,31568,300619854.0,7684313.0,+31.0133897,-081.8191022,GA,Georgia,13,29126.0,GA_31568,zip code,2.0,13165.0,31568,Georgia,GA,"St. Marys, GA",41220.0,13039.0,"Camden County, GA",523.0,county,"WHITE OAK, GA",WHITE OAK,1303931568.0,,,,,GA_31568,Complete data,True,True,True
31569,31569,199879495.0,10734824.0,+30.9337796,-081.7370758,GA,Georgia,13,28762.0,GA_31569,zip code,2.0,13166.0,31569,Georgia,GA,"St. Marys, GA",41220.0,13039.0,"Camden County, GA",523.0,county,"WOODBINE, GA",WOODBINE,1303931569.0,20717.0,"Woodbine, GA",,,GA_31569,Complete data,True,True,True
31599,31599,1216247.0,11342.0,+31.5627479,-081.9017339,GA,Georgia,13,29394.0,GA_31599,,,,,,,,,,,,,,,,,,,,,Census only,True,False,True
31601,31601,411750743.0,12103810.0,+30.7755221,-083.3336000,GA,Georgia,13,29104.0,GA_31601,zip code,2.0,13169.0,31601,Georgia,GA,"Valdosta, GA",46660.0,13185.0,"Lowndes County, GA",595.0,county,"VALDOSTA, GA",VALDOSTA,1318531601.0,19841.0,"Valdosta, GA",,,GA_31601,Complete data,True,True,True
31602,31602,103341719.0,1878610.0,+30.8681602,-083.3423498,GA,Georgia,13,29451.0,GA_31602,zip code,2.0,13170.0,31602,Georgia,GA,"Valdosta, GA",46660.0,13185.0,"Lowndes County, GA",595.0,county,"VALDOSTA, GA",VALDOSTA,1318531602.0,19841.0,"Valdosta, GA",,,GA_31602,Complete data,True,True,True
31605,31605,126443497.0,1344042.0,+30.9329513,-083.2219378,GA,Georgia,13,28744.0,GA_31605,zip code,2.0,13173.0,31605,Georgia,GA,"Valdosta, GA",46660.0,13185.0,"Lowndes County, GA",595.0,county,"VALDOSTA, GA",VALDOSTA,1318531605.0,19841.0,"Valdosta, GA",,,GA_31605,Complete data,True,True,True
31606,31606,115424706.0,1253813.0,+30.7986622,-083.1798810,GA,Georgia,13,29234.0,GA_31606,zip code,2.0,13174.0,31606,Georgia,GA,"Valdosta, GA",46660.0,13185.0,"Lowndes County, GA",595.0,county,"VALDOSTA, GA",VALDOSTA,1318531606.0,19841.0,"Valdosta, GA",,,GA_31606,Complete data,True,True,True
31620,31620,323623907.0,6754898.0,+31.1172955,-083.4342362,GA,Georgia,13,29013.0,GA_31620,,,,,,,,,,,,,,,,,,,,,Census only,True,False,True
31622,31622,311724144.0,1575341.0,+31.3723474,-083.1993437,GA,Georgia,13,28899.0,GA_31622,,,,,,,,,,,,,,,,,,,,,Census only,True,False,True
31623,31623,1633059.0,0.0,+31.0713657,-082.6440401,GA,Georgia,13,29039.0,GA_31623,,,,,,,,,,,,,,,,,,,,,Census only,True,False,True
31624,31624,244007009.0,2035747.0,+31.2961891,-082.7303376,GA,Georgia,13,29235.0,GA_31624,zip code,2.0,13178.0,31624,Georgia,GA,"Douglas, GA",20060.0,13003.0,"Appling County, GA",504.0,county,"AXSON, GA",AXSON,1300331624.0,37078.0,"Axson, GA",,,GA_31624,Complete data,True,True,True
31625,31625,150183711.0,1936852.0,+30.9893415,-083.5225102,GA,Georgia,13,29346.0,GA_31625,zip code,2.0,13179.0,31625,Georgia,GA,"Valdosta, GA",46660.0,13027.0,"Brooks County, GA",517.0,county,"BARNEY, GA",BARNEY,1302731625.0,,,,,GA_31625,Complete data,True,True,True
31626,31626,367790251.0,3333071.0,+30.7756101,-083.8030858,GA,Georgia,13,29388.0,GA_31626,zip code,2.0,13180.0,31626,Georgia,GA,"Thomasville, GA",45620.0,13275.0,"Thomas County, GA",639.0,county,"BOSTON, GA",BOSTON,1327531626.0,2441.0,"Boston, GA",,,GA_31626,Complete data,True,True,True
31627,31627,1917646.0,2168.0,+31.0396062,-083.3921129,GA,Georgia,13,29283.0,GA_31627,,,,,,,,,,,,,,,,,,,,,Census only,True,False,True
31629,31629,121572346.0,1756872.0,+30.8168437,-083.6893938,GA,Georgia,13,29012.0,GA_31629,zip code,2.0,13182.0,31629,Georgia,GA,"Valdosta, GA",46660.0,13027.0,"Brooks County, GA",517.0,county,"DIXIE, GA",DIXIE,1302731629.0,36829.0,"Dixie, GA",,,GA_31629,Complete data,True,True,True
31630,31630,363720546.0,2354189.0,+30.9242115,-082.8600388,GA,Georgia,13,29259.0,GA_31630,,,,,,,,,,,,,,,,,,,,,Census only,True,False,True
31631,31631,613988353.0,5635543.0,+30.7082173,-082.6443578,GA,Georgia,13,29208.0,GA_31631,zip code,2.0,13184.0,31631,Georgia,GA,"Valdosta, GA",46660.0,13065.0,"Clinch County, GA",535.0,county,"FARGO, GA",FARGO,1306531631.0,,,,,GA_31631,Complete data,True,True,True
31632,31632,291009335.0,6383374.0,+30.9862879,-083.3545894,GA,Georgia,13,28763.0,GA_31632,zip code,2.0,13185.0,31632,Georgia,GA,"Valdosta, GA",46660.0,13185.0,"Lowndes County, GA",595.0,county,"HAHIRA, GA",HAHIRA,1318531632.0,9185.0,"Hahira, GA",,,GA_31632,Complete data,True,True,True
31634,31634,525743746.0,3731401.0,+31.0305101,-082.7328460,GA,Georgia,13,29344.0,GA_31634,,,,,,,,,,,,,,,,,,,,,Census only,True,False,True
31635,31635,370004226.0,5186142.0,+31.0968943,-083.0484734,GA,Georgia,13,28750.0,GA_31635,zip code,2.0,13187.0,31635,Georgia,GA,"Valdosta, GA",46660.0,13173.0,"Lanier County, GA",589.0,county,"LAKELAND, GA",LAKELAND,1317331635.0,11372.0,"Lakeland, GA",,,GA_31635,Complete data,True,True,True
31636,31636,481280550.0,11301112.0,+30.7309856,-083.1113722,GA,Georgia,13,29232.0,GA_31636,zip code,2.0,13188.0,31636,Georgia,GA,"Valdosta, GA",46660.0,13185.0,"Lowndes County, GA",595.0,county,"LAKE PARK, GA",LAKE PARK,1318531636.0,11395.0,"Lake Park, GA",,,GA_31636,Complete data,True,True,True
31637,31637,213571647.0,3665619.0,+31.2959607,-083.4402192,GA,Georgia,13,29351.0,GA_31637,,,,,,,,,,,,,,,,,,,,,Census only,True,False,True
31638,31638,61195927.0,377709.0,+30.9064171,-083.5121865,GA,Georgia,13,29345.0,GA_31638,zip code,2.0,13190.0,31638,Georgia,GA,"Valdosta, GA",46660.0,13027.0,"Brooks County, GA",517.0,county,"MORVEN, GA",MORVEN,1302731638.0,13663.0,"Morven, GA",,,GA_31638,Complete data,True,True,True
31639,31639,547654560.0,4889381.0,+31.2132590,-083.1908620,GA,Georgia,13,28870.0,GA_31639,,,,,,,,,,,,,,,,,,,,,Census only,True,False,True
31641,31641,229334769.0,3885685.0,+30.9210113,-083.0935758,GA,Georgia,13,29459.0,GA_31641,zip code,2.0,13192.0,31641,Georgia,GA,"Valdosta, GA",46660.0,13185.0,"Lowndes County, GA",595.0,county,"NAYLOR, GA",NAYLOR,1318531641.0,36820.0,"Naylor, GA",,,GA_31641,Complete data,True,True,True
31642,31642,505198747.0,1545408.0,+31.2627830,-082.8832059,GA,Georgia,13,29011.0,GA_31642,zip code,2.0,13193.0,31642,Georgia,GA,"Douglas, GA",20060.0,13003.0,"Appling County, GA",504.0,county,"PEARSON, GA",PEARSON,1300331642.0,15463.0,"Pearson, GA",,,GA_31642,Complete data,True,True,True
31643,31643,679513890.0,5583078.0,+30.7730889,-083.5568980,GA,Georgia,13,29343.0,GA_31643,zip code,2.0,13194.0,31643,Georgia,GA,"Valdosta, GA",46660.0,13027.0,"Brooks County, GA",517.0,county,"QUITMAN, GA",QUITMAN,1302731643.0,16217.0,"Quitman, GA",,,GA_31643,Complete data,True,True,True
31645,31645,126619411.0,1153791.0,+31.0607007,-083.2187148,GA,Georgia,13,29093.0,GA_31645,,,,,,,,,,,,,,,,,,,,,Census only,True,False,True
31647,31647,116522358.0,2299678.0,+31.2112292,-083.4316905,GA,Georgia,13,29366.0,GA_31647,,,,,,,,,,,,,,,,,,,,,Census only,True,False,True
31648,31648,50190848.0,0.0,+30.7083587,-083.0083699,GA,Georgia,13,29333.0,GA_31648,zip code,2.0,13197.0,31648,Georgia,GA,"Valdosta, GA",46660.0,13101.0,"Early County, GA",552.0,county,"STATENVILLE, GA",STATENVILLE,1310131648.0,35038.0,"Statenville, GA",,,GA_31648,Complete data,True,True,True
31649,31649,81056838.0,1379433.0,+30.9405002,-083.0138890,GA,Georgia,13,29293.0,GA_31649,zip code,2.0,13198.0,31649,Georgia,GA,"Valdosta, GA",46660.0,13173.0,"Lanier County, GA",589.0,county,"STOCKTON, GA",STOCKTON,1317331649.0,37246.0,"Stockton, GA",,,GA_31649,Complete data,True,True,True
31650,31650,291013745.0,2462968.0,+31.3700024,-083.0189411,GA,Georgia,13,29236.0,GA_31650,zip code,2.0,13199.0,31650,Georgia,GA,"Douglas, GA",20060.0,13003.0,"Appling County, GA",504.0,county,"WILLACOOCHEE, GA",WILLACOOCHEE,1300331650.0,20577.0,"Willacoochee, GA",,,GA_31650,Complete data,True,True,True
31698,31698,388113.0,2377.0,+30.8489922,-083.2896265,GA,Georgia,13,29133.0,GA_31698,,,,,,,,,,,,,,,,,,,,,Census only,True,False,True
31699,31699,11645020.0,137629.0,+30.9696125,-083.1943051,GA,Georgia,13,29204.0,GA_31699,,,,,,,,,,,,,,,,,,,,,Census only,True,False,True
31701,31701,54842205.0,4388856.0,+31.5730537,-084.1547826,GA,Georgia,13,28729.0,GA_31701,zip code,2.0,13202.0,31701,Georgia,GA,"Albany, GA",10500.0,13095.0,"Dougherty County, GA",550.0,county,"ALBANY, GA",ALBANY,1309531701.0,269.0,"Albany, GA",,,GA_31701,Complete data,True,True,True
31704,31704,1196613.0,30263.0,+31.5496795,-084.0555073,GA,Georgia,13,28792.0,GA_31704,,,,,,,,,,,,,,,,,,,,,Census only,True,False,True
31705,31705,363626709.0,3703830.0,+31.5168895,-084.0429416,GA,Georgia,13,29185.0,GA_31705,zip code,2.0,13206.0,31705,Georgia,GA,"Albany, GA",10500.0,13095.0,"Dougherty County, GA",550.0,county,"ALBANY, GA",ALBANY,1309531705.0,269.0,"Albany, GA",,,GA_31705,Complete data,True,True,True
31707,31707,47574808.0,462964.0,+31.5869193,-084.2064309,GA,Georgia,13,29046.0,GA_31707,zip code,2.0,13208.0,31707,Georgia,GA,"Albany, GA",10500.0,13095.0,"Dougherty County, GA",550.0,county,"ALBANY, GA",ALBANY,1309531707.0,269.0,"Albany, GA",,,GA_31707,Complete data,True,True,True
31709,31709,312206644.0,4363768.0,+32.0464158,-084.1495779,GA,Georgia,13,29247.0,GA_31709,zip code,2.0,13210.0,31709,Georgia,GA,"Americus, GA",11140.0,13261.0,"Sumter County, GA",632.0,county,"AMERICUS, GA",AMERICUS,1326131709.0,547.0,"Americus, GA",,,GA_31709,Complete data,True,True,True
31711,31711,190891282.0,2704593.0,+32.1876946,-084.1222252,GA,Georgia,13,29191.0,GA_31711,zip code,2.0,13212.0,31711,Georgia,GA,"Americus, GA",11140.0,13261.0,"Sumter County, GA",632.0,county,"ANDERSONVILLE, GA",ANDERSONVILLE,1326131711.0,589.0,"Andersonville, GA",,,GA_31711,Complete data,True,True,True
31712,31712,173850910.0,1222592.0,+31.8193577,-083.7192081,GA,Georgia,13,29453.0,GA_31712,zip code,2.0,13213.0,31712,Georgia,GA,"Cordele, GA",18380.0,13081.0,"Crisp County, GA",543.0,county,"ARABI, GA",ARABI,1308131712.0,673.0,"Arabi, GA",,,GA_31712,Complete data,True,True,True
31714,31714,440358299.0,6075732.0,+31.7081067,-083.6784022,GA,Georgia,13,28911.0,GA_31714,,,,,,,,,,,,,,,,,,,,,Census only,True,False,True
31716,31716,206550169.0,685873.0,+31.3661094,-084.1107322,GA,Georgia,13,28880.0,GA_31716,,,,,,,,,,,,,,,,,,,,,Census only,True,False,True
31719,31719,245016516.0,2139297.0,+32.0903077,-084.3107471,GA,Georgia,13,29157.0,GA_31719,zip code,2.0,13216.0,31719,Georgia,GA,"Americus, GA",11140.0,13261.0,"Sumter County, GA",632.0,county,"AMERICUS, GA",AMERICUS,1326131719.0,547.0,"Americus, GA",,,GA_31719,Complete data,True,True,True
31720,31720,12003570.0,368627.0,+30.8781542,-083.7245723,GA,Georgia,13,29035.0,GA_31720,zip code,2.0,13217.0,31720,Georgia,GA,"Thomasville, GA",45620.0,13275.0,"Thomas County, GA",639.0,county,"BARWICK, GA",BARWICK,1327531720.0,1522.0,"Barwick, GA",,,GA_31720,Complete data,True,True,True
31721,31721,571487746.0,8709678.0,+31.5252605,-084.3014650,GA,Georgia,13,29190.0,GA_31721,zip code,2.0,13218.0,31721,Georgia,GA,"Albany, GA",10500.0,13095.0,"Dougherty County, GA",550.0,county,"ALBANY, GA",ALBANY,1309531721.0,269.0,"Albany, GA",,,GA_31721,Complete data,True,True,True
31722,31722,6152861.0,111616.0,+31.0482748,-083.6108548,GA,Georgia,13,29404.0,GA_31722,zip code,2.0,13219.0,31722,Georgia,GA,"Moultrie, GA",34220.0,13071.0,"Colquitt County, GA",538.0,county,"BERLIN, GA",BERLIN,1307131722.0,1909.0,"Berlin, GA",,,GA_31722,Complete data,True,True,True
31727,31727,98212.0,0.0,+31.4177792,-083.3873960,GA,Georgia,13,28990.0,GA_31727,,,,,,,,,,,,,,,,,,,,,Census only,True,False,True
31730,31730,669982120.0,1009060.0,+31.2108705,-084.2806469,GA,Georgia,13,29262.0,GA_31730,,,,,,,,,,,,,,,,,,,,,Census only,True,False,True
31733,31733,139721404.0,4115907.0,+31.5931901,-083.4897631,GA,Georgia,13,29246.0,GA_31733,,,,,,,,,,,,,,,,,,,,,Census only,True,False,True
31735,31735,51230021.0,11473639.0,+31.9695554,-083.9733063,GA,Georgia,13,29033.0,GA_31735,zip code,2.0,13223.0,31735,Georgia,GA,"Americus, GA",11140.0,13261.0,"Sumter County, GA",632.0,county,"COBB, GA",COBB,1326131735.0,,,,,GA_31735,Complete data,True,True,True
31738,31738,161600546.0,2108636.0,+31.0081500,-083.8797272,GA,Georgia,13,29037.0,GA_31738,zip code,2.0,13224.0,31738,Georgia,GA,"Thomasville, GA",45620.0,13275.0,"Thomas County, GA",639.0,county,"COOLIDGE, GA",COOLIDGE,1327531738.0,5002.0,"Coolidge, GA",,,GA_31738,Complete data,True,True,True
31743,31743,167299559.0,6759920.0,+31.8964894,-084.0074805,GA,Georgia,13,28798.0,GA_31743,zip code,2.0,13226.0,31743,Georgia,GA,"Albany, GA",10500.0,13261.0,"Sumter County, GA",632.0,county,"DE SOTO, GA",DE SOTO,1326131743.0,,,,,GA_31743,Complete data,True,True,True
31744,31744,312812594.0,3512730.0,+31.3402891,-083.9031307,GA,Georgia,13,28881.0,GA_31744,zip code,2.0,13227.0,31744,Georgia,GA,"Albany, GA",10500.0,13071.0,"Colquitt County, GA",538.0,county,"DOERUN, GA",DOERUN,1307131744.0,6010.0,"Doerun, GA",,,GA_31744,Complete data,True,True,True
31747,31747,1801040.0,10350.0,+31.1746185,-083.5849225,GA,Georgia,13,29021.0,GA_31747,zip code,2.0,13228.0,31747,Georgia,GA,"Moultrie, GA",34220.0,13071.0,"Colquitt County, GA",538.0,county,"ELLENTON, GA",ELLENTON,1307131747.0,6908.0,"Ellenton, GA",,,GA_31747,Complete data,True,True,True
31749,31749,164418052.0,4880385.0,+31.4205357,-083.3301200,GA,Georgia,13,28959.0,GA_31749,,,,,,,,,,,,,,,,,,,,,Census only,True,False,True
31750,31750,726692905.0,12547312.0,+31.7364651,-083.2150369,GA,Georgia,13,28950.0,GA_31750,zip code,2.0,13230.0,31750,Georgia,GA,"Fitzgerald, GA",22340.0,13017.0,"Ben Hill County, GA",512.0,county,"FITZGERALD, GA",FITZGERALD,1301731750.0,7525.0,"Fitzgerald, GA",,,GA_31750,Complete data,True,True,True
31753,31753,24643.0,0.0,+31.2004464,-083.8728461,GA,Georgia,13,29358.0,GA_31753,zip code,2.0,13231.0,31753,Georgia,GA,"Moultrie, GA",34220.0,13071.0,"Colquitt County, GA",538.0,county,"FUNSTON, GA",FUNSTON,1307131753.0,8100.0,"Funston, GA",,,GA_31753,Complete data,True,True,True
31756,31756,110981399.0,2456144.0,+31.1768913,-083.9622639,GA,Georgia,13,29395.0,GA_31756,zip code,2.0,13232.0,31756,Georgia,GA,"Moultrie, GA",34220.0,13071.0,"Colquitt County, GA",538.0,county,"HARTSFIELD, GA",HARTSFIELD,1307131756.0,,,,,GA_31756,Complete data,True,True,True
31757,31757,218932425.0,3885275.0,+30.8713946,-083.9031255,GA,Georgia,13,29280.0,GA_31757,zip code,2.0,13233.0,31757,Georgia,GA,"Thomasville, GA",45620.0,13275.0,"Thomas County, GA",639.0,county,"THOMASVILLE, GA",THOMASVILLE,1327531757.0,19294.0,"Thomasville, GA",,,GA_31757,Complete data,True,True,True
31763,31763,641927240.0,8539030.0,+31.7361368,-084.1481863,GA,Georgia,13,29105.0,GA_31763,zip code,2.0,13236.0,31763,Georgia,GA,"Albany, GA",10500.0,13177.0,"Lee County, GA",591.0,county,"LEESBURG, GA",LEESBURG,1317731763.0,11672.0,"Leesburg, GA",,,GA_31763,Complete data,True,True,True
31764,31764,196629396.0,2315879.0,+31.9763123,-084.0888387,GA,Georgia,13,29245.0,GA_31764,zip code,2.0,13237.0,31764,Georgia,GA,"Americus, GA",11140.0,13261.0,"Sumter County, GA",632.0,county,"LESLIE, GA",LESLIE,1326131764.0,11742.0,"Leslie, GA",,,GA_31764,Complete data,True,True,True
31765,31765,214577881.0,2087563.0,+31.0875506,-084.0271536,GA,Georgia,13,29184.0,GA_31765,,,,,,,,,,,,,,,,,,,,,Census only,True,False,True
31768,31768,368945738.0,7587997.0,+31.1891034,-083.8411072,GA,Georgia,13,28984.0,GA_31768,zip code,2.0,13239.0,31768,Georgia,GA,"Moultrie, GA",34220.0,13071.0,"Colquitt County, GA",538.0,county,"MOULTRIE, GA",MOULTRIE,1307131768.0,13670.0,"Moultrie, GA",,,GA_31768,Complete data,True,True,True
31771,31771,292714164.0,4743861.0,+31.2481417,-083.6541525,GA,Georgia,13,29223.0,GA_31771,zip code,2.0,13241.0,31771,Georgia,GA,"Moultrie, GA",34220.0,13071.0,"Colquitt County, GA",538.0,county,"NORMAN PARK, GA",NORMAN PARK,1307131771.0,14461.0,"Norman Park, GA",,,GA_31771,Complete data,True,True,True
31772,31772,140333472.0,3572453.0,+31.7241545,-083.9610267,GA,Georgia,13,29325.0,GA_31772,zip code,2.0,13242.0,31772,Georgia,GA,"Albany, GA",10500.0,13321.0,"Worth County, GA",662.0,county,"OAKFIELD, GA",OAKFIELD,1332131772.0,,,,,GA_31772,Complete data,True,True,True
31773,31773,221668155.0,3088263.0,+30.9776982,-084.0458487,GA,Georgia,13,29025.0,GA_31773,zip code,2.0,13243.0,31773,Georgia,GA,"Thomasville, GA",45620.0,13275.0,"Thomas County, GA",639.0,county,"OCHLOCKNEE, GA",OCHLOCKNEE,1327531773.0,14871.0,"Ochlocknee, GA",,,GA_31773,Complete data,True,True,True
31774,31774,422417040.0,9952141.0,+31.5654658,-083.2637470,GA,Georgia,13,28810.0,GA_31774,,,,,,,,,,,,,,,,,,,,,Census only,True,False,True
31775,31775,114971074.0,2829212.0,+31.3342989,-083.5988643,GA,Georgia,13,29274.0,GA_31775,zip code,2.0,13245.0,31775,Georgia,GA,"Moultrie, GA",34220.0,13277.0,"Tift County, GA",640.0,county,"OMEGA, GA",OMEGA,1327731775.0,15078.0,"Omega, GA",,,GA_31775,Complete data,True,True,True
31778,31778,286080456.0,2798560.0,+30.9749924,-083.7000748,GA,Georgia,13,29036.0,GA_31778,zip code,2.0,13247.0,31778,Georgia,GA,"Valdosta, GA",46660.0,13275.0,"Thomas County, GA",639.0,county,"PAVO, GA",PAVO,1327531778.0,15412.0,"Pavo, GA",,,GA_31778,Complete data,True,True,True
31779,31779,351027640.0,2511639.0,+31.0901810,-084.1916843,GA,Georgia,13,29326.0,GA_31779,,,,,,,,,,,,,,,,,,,,,Census only,True,False,True
31780,31780,237072536.0,1517636.0,+32.0276833,-084.3912215,GA,Georgia,13,29222.0,GA_31780,zip code,2.0,13249.0,31780,Georgia,GA,"Americus, GA",11140.0,13261.0,"Sumter County, GA",632.0,county,"PLAINS, GA",PLAINS,1326131780.0,15849.0,"Plains, GA",,,GA_31780,Complete data,True,True,True
31781,31781,70200015.0,458267.0,+31.5605662,-083.7963172,GA,Georgia,13,28867.0,GA_31781,zip code,2.0,13250.0,31781,Georgia,GA,"Albany, GA",10500.0,13321.0,"Worth County, GA",662.0,county,"POULAN, GA",POULAN,1332131781.0,16046.0,"Poulan, GA",,,GA_31781,Complete data,True,True,True
31783,31783,253045675.0,3960032.0,+31.7589763,-083.4701253,GA,Georgia,13,29257.0,GA_31783,,,,,,,,,,,,,,,,,,,,,Census only,True,False,True
31784,31784,84428639.0,1143955.0,+31.2524504,-084.0484569,GA,Georgia,13,29215.0,GA_31784,,,,,,,,,,,,,,,,,,,,,Census only,True,False,True
31787,31787,218659172.0,2322828.0,+31.8954329,-084.2480117,GA,Georgia,13,29244.0,GA_31787,zip code,2.0,13254.0,31787,Georgia,GA,"Albany, GA",10500.0,13177.0,"Lee County, GA",591.0,county,"SMITHVILLE, GA",SMITHVILLE,1317731787.0,18254.0,"Smithville, GA",,,GA_31787,Complete data,True,True,True
31788,31788,333361516.0,4399241.0,+31.1115334,-083.6838921,GA,Georgia,13,29347.0,GA_31788,zip code,2.0,13255.0,31788,Georgia,GA,"Moultrie, GA",34220.0,13071.0,"Colquitt County, GA",538.0,county,"MOULTRIE, GA",MOULTRIE,1307131788.0,13670.0,"Moultrie, GA",,,GA_31788,Complete data,True,True,True
31789,31789,170639921.0,828471.0,+31.4833059,-083.7339393,GA,Georgia,13,29364.0,GA_31789,zip code,2.0,13256.0,31789,Georgia,GA,"Albany, GA",10500.0,13321.0,"Worth County, GA",662.0,county,"SUMNER, GA",SUMNER,1332131789.0,18893.0,"Sumner, GA",,,GA_31789,Complete data,True,True,True
31790,31790,178998100.0,4376333.0,+31.6524758,-083.5779675,GA,Georgia,13,29030.0,GA_31790,,,,,,,,,,,,,,,,,,,,,Census only,True,False,True
31791,31791,542918110.0,1909368.0,+31.5289486,-083.8942530,GA,Georgia,13,28785.0,GA_31791,zip code,2.0,13258.0,31791,Georgia,GA,"Albany, GA",10500.0,13321.0,"Worth County, GA",662.0,county,"SYLVESTER, GA",SYLVESTER,1332131791.0,19060.0,"Sylvester, GA",,,GA_31791,Complete data,True,True,True
31792,31792,547502241.0,7408574.0,+30.7655542,-084.0431536,GA,Georgia,13,29353.0,GA_31792,zip code,2.0,13259.0,31792,Georgia,GA,"Thomasville, GA",45620.0,13275.0,"Thomas County, GA",639.0,county,"THOMASVILLE, GA",THOMASVILLE,1327531792.0,19294.0,"Thomasville, GA",,,GA_31792,Complete data,True,True,True
31793,31793,242215582.0,8304951.0,+31.4618843,-083.5812100,GA,Georgia,13,29278.0,GA_31793,zip code,2.0,13260.0,31793,Georgia,GA,"Tifton, GA",45700.0,13277.0,"Tift County, GA",640.0,county,"TIFTON, GA",TIFTON,1327731793.0,19343.0,"Tifton, GA",,,GA_31793,Complete data,True,True,True
31794,31794,296674226.0,7827571.0,+31.4458724,-083.4526674,GA,Georgia,13,29008.0,GA_31794,zip code,2.0,13261.0,31794,Georgia,GA,"Tifton, GA",45700.0,13277.0,"Tift County, GA",640.0,county,"TIFTON, GA",TIFTON,1327731794.0,19343.0,"Tifton, GA",,,GA_31794,Complete data,True,True,True
31795,31795,122746980.0,1346127.0,+31.4345662,-083.6398218,GA,Georgia,13,28958.0,GA_31795,zip code,2.0,13262.0,31795,Georgia,GA,"Albany, GA",10500.0,13277.0,"Tift County, GA",640.0,county,"TY TY, GA",TY TY,1327731795.0,19693.0,"Ty Ty, GA",,,GA_31795,Complete data,True,True,True
31796,31796,183673018.0,1437850.0,+31.7712311,-083.8750109,GA,Georgia,13,28775.0,GA_31796,zip code,2.0,13263.0,31796,Georgia,GA,"Albany, GA",10500.0,13321.0,"Worth County, GA",662.0,county,"WARWICK, GA",WARWICK,1332131796.0,20230.0,"Warwick, GA",,,GA_31796,Complete data,True,True,True
31798,31798,235576563.0,4797407.0,+31.6444344,-083.0473043,GA,Georgia,13,29128.0,GA_31798,,,,,,,,,,,,,,,,,,,,,Census only,True,False,True
31801,31801,222916422.0,1140002.0,+32.5193384,-084.5947553,GA,Georgia,13,29078.0,GA_31801,,,,,,,,,,,,,,,,,,,,,Census only,True,False,True
31803,31803,738052251.0,2792322.0,+32.3074360,-084.5172083,GA,Georgia,13,29270.0,GA_31803,,,,,,,,,,,,,,,,,,,,,Census only,True,False,True
31804,31804,124476620.0,683864.0,+32.6644018,-084.8784093,GA,Georgia,13,28968.0,GA_31804,,,,,,,,,,,,,,,,,,,,,Census only,True,False,True
31805,31805,175449818.0,618082.0,+32.2630561,-084.7395088,GA,Georgia,13,28834.0,GA_31805,,,,,,,,,,,,,,,,,,,,,Census only,True,False,True
31806,31806,414469425.0,2345391.0,+32.2601678,-084.2995061,GA,Georgia,13,29188.0,GA_31806,zip code,2.0,13270.0,31806,Georgia,GA,"Americus, GA",11140.0,13249.0,"Rockdale County, GA",625.0,county,"ELLAVILLE, GA",ELLAVILLE,1324931806.0,6890.0,"Ellaville, GA",,,GA_31806,Complete data,True,True,True
31807,31807,34828838.0,530136.0,+32.6447008,-084.8045324,GA,Georgia,13,29359.0,GA_31807,,,,,,,,,,,,,,,,,,,,,Census only,True,False,True
31808,31808,143708053.0,3740540.0,+32.6316097,-085.0105499,GA,Georgia,13,28753.0,GA_31808,,,,,,,,,,,,,,,,,,,,,Census only,True,False,True
31810,31810,41071247.0,114377.0,+32.5682613,-084.5248809,GA,Georgia,13,28901.0,GA_31810,,,,,,,,,,,,,,,,,,,,,Census only,True,False,True
31811,31811,338812921.0,12155191.0,+32.7373555,-084.9374362,GA,Georgia,13,29302.0,GA_31811,,,,,,,,,,,,,,,,,,,,,Census only,True,False,True
31812,31812,172375064.0,1754246.0,+32.6348865,-084.4250899,GA,Georgia,13,29269.0,GA_31812,,,,,,,,,,,,,,,,,,,,,Census only,True,False,True
31814,31814,43208309.0,100480.0,+32.1973598,-084.8649739,GA,Georgia,13,29225.0,GA_31814,,,,,,,,,,,,,,,,,,,,,Census only,True,False,True
31815,31815,655000639.0,4393261.0,+32.0418040,-084.8560540,GA,Georgia,13,29335.0,GA_31815,,,,,,,,,,,,,,,,,,,,,Census only,True,False,True
31816,31816,97226105.0,932529.0,+32.8789171,-084.6013105,GA,Georgia,13,28975.0,GA_31816,zip code,2.0,13278.0,31816,Georgia,GA,"Atlanta, GA",12060.0,13199.0,"Meriwether County, GA",602.0,county,"MANCHESTER, GA",MANCHESTER,1319931816.0,12698.0,"Manchester, GA",,,GA_31816,Complete data,True,True,True
31820,31820,106977333.0,901881.0,+32.5757736,-084.8290995,GA,Georgia,13,29095.0,GA_31820,,,,,,,,,,,,,,,,,,,,,Census only,True,False,True
31821,31821,173556986.0,6855738.0,+32.1424680,-084.9746941,GA,Georgia,13,29221.0,GA_31821,,,,,,,,,,,,,,,,,,,,,Census only,True,False,True
31822,31822,298969058.0,1972791.0,+32.8649788,-084.9103475,GA,Georgia,13,28920.0,GA_31822,,,,,,,,,,,,,,,,,,,,,Census only,True,False,True
31823,31823,19194738.0,64230.0,+32.7978457,-084.8114178,GA,Georgia,13,29332.0,GA_31823,,,,,,,,,,,,,,,,,,,,,Census only,True,False,True
31824,31824,302784436.0,1470223.0,+32.0579103,-084.5206247,GA,Georgia,13,29003.0,GA_31824,,,,,,,,,,,,,,,,,,,,,Census only,True,False,True
31825,31825,376538607.0,1336366.0,+32.1161954,-084.6708998,GA,Georgia,13,28945.0,GA_31825,,,,,,,,,,,,,,,,,,,,,Census only,True,False,True
31826,31826,133289192.0,380402.0,+32.8002375,-084.7030654,GA,Georgia,13,29182.0,GA_31826,,,,,,,,,,,,,,,,,,,,,Census only,True,False,True
31827,31827,396596023.0,3370953.0,+32.6955219,-084.5037511,GA,Georgia,13,29279.0,GA_31827,,,,,,,,,,,,,,,,,,,,,Census only,True,False,True
31829,31829,34512510.0,288249.0,+32.5662210,-084.7254417,GA,Georgia,13,29099.0,GA_31829,,,,,,,,,,,,,,,,,,,,,Census only,True,False,True
31830,31830,141528373.0,1357850.0,+32.9007077,-084.7290628,GA,Georgia,13,29312.0,GA_31830,zip code,2.0,13288.0,31830,Georgia,GA,"Atlanta, GA",12060.0,13199.0,"Meriwether County, GA",602.0,county,"WARM SPRINGS, GA",WARM SPRINGS,1319931830.0,20194.0,"Warm Springs, GA",,,GA_31830,Complete data,True,True,True
31831,31831,190141224.0,552455.0,+32.6668586,-084.7047991,GA,Georgia,13,29183.0,GA_31831,,,,,,,,,,,,,,,,,,,,,Census only,True,False,True
31832,31832,73381265.0,347888.0,+31.9581689,-084.6148962,GA,Georgia,13,29273.0,GA_31832,,,,,,,,,,,,,,,,,,,,,Census only,True,False,True
31833,31833,252835188.0,4834665.0,+32.8428999,-085.0918453,GA,Georgia,13,29304.0,GA_31833,,,,,,,,,,,,,,,,,,,,,Census only,True,False,True
31836,31836,232896016.0,3049824.0,+32.7964018,-084.5350901,GA,Georgia,13,28893.0,GA_31836,,,,,,,,,,,,,,,,,,,,,Census only,True,False,True
31901,31901,11386983.0,688904.0,+32.4643499,-084.9801442,GA,Georgia,13,29407.0,GA_31901,,,,,,,,,,,,,,,,,,,,,Census only,True,False,True
31903,31903,25810023.0,1160475.0,+32.4141485,-084.9542438,GA,Georgia,13,28731.0,GA_31903,,,,,,,,,,,,,,,,,,,,,Census only,True,False,True
31904,31904,71260134.0,7801444.0,+32.5543395,-085.0094681,GA,Georgia,13,29472.0,GA_31904,,,,,,,,,,,,,,,,,,,,,Census only,True,False,True
31905,31905,236036597.0,2560583.0,+32.3727889,-084.8433612,GA,Georgia,13,29411.0,GA_31905,,,,,,,,,,,,,,,,,,,,,Census only,True,False,True
31906,31906,17799954.0,6560.0,+32.4678112,-084.9501731,GA,Georgia,13,29320.0,GA_31906,,,,,,,,,,,,,,,,,,,,,Census only,True,False,True
31907,31907,61766826.0,200696.0,+32.4844042,-084.8999449,GA,Georgia,13,28738.0,GA_31907,,,,,,,,,,,,,,,,,,,,,Census only,True,False,True
31909,31909,48433302.0,298832.0,+32.5488070,-084.9241058,GA,Georgia,13,29199.0,GA_31909,,,,,,,,,,,,,,,,,,,,,Census only,True,False,True
39813,39813,344347823.0,3028064.0,+31.4231556,-084.6843055,GA,Georgia,13,29171.0,GA_39813,,,,,,,,,,,,,,,,,,,,,Census only,True,False,True
39815,39815,141556350.0,473258.0,+30.7388346,-084.4906570,GA,Georgia,13,29389.0,GA_39815,zip code,2.0,16947.0,39815,Georgia,GA,"Bainbridge, GA",12460.0,13087.0,"Decatur County, GA",546.0,county,"ATTAPULGUS, GA",ATTAPULGUS,1308739815.0,1098.0,"Attapulgus, GA",,,GA_39815,Complete data,True,True,True
39817,39817,374133971.0,14709896.0,+30.9435465,-084.6019536,GA,Georgia,13,28983.0,GA_39817,zip code,2.0,16948.0,39817,Georgia,GA,"Bainbridge, GA",12460.0,13087.0,"Decatur County, GA",546.0,county,"BAINBRIDGE, GA",BAINBRIDGE,1308739817.0,1295.0,"Bainbridge, GA",,,GA_39817,Complete data,True,True,True
39819,39819,388649135.0,22290292.0,+30.7854009,-084.6451528,GA,Georgia,13,29015.0,GA_39819,zip code,2.0,16950.0,39819,Georgia,GA,"Bainbridge, GA",12460.0,13087.0,"Decatur County, GA",546.0,county,"BAINBRIDGE, GA",BAINBRIDGE,1308739819.0,1295.0,"Bainbridge, GA",,,GA_39819,Complete data,True,True,True
39823,39823,900419322.0,8065367.0,+31.3335682,-084.9470328,GA,Georgia,13,28964.0,GA_39823,,,,,,,,,,,,,,,,,,,,,Census only,True,False,True
39824,39824,106796856.0,630737.0,+31.5283581,-084.8647949,GA,Georgia,13,29022.0,GA_39824,,,,,,,,,,,,,,,,,,,,,Census only,True,False,True
39825,39825,241529061.0,27681382.0,+30.9307673,-084.7407629,GA,Georgia,13,28969.0,GA_39825,zip code,2.0,16953.0,39825,Georgia,GA,"Bainbridge, GA",12460.0,13087.0,"Decatur County, GA",546.0,county,"BRINSON, GA",BRINSON,1308739825.0,2731.0,"Brinson, GA",,,GA_39825,Complete data,True,True,True
39826,39826,87227252.0,586463.0,+31.8184963,-084.3211435,GA,Georgia,13,28957.0,GA_39826,zip code,2.0,16954.0,39826,Georgia,GA,"Albany, GA",10500.0,13273.0,"Terrell County, GA",638.0,county,"BRONWOOD, GA",BRONWOOD,1327339826.0,2799.0,"Bronwood, GA",,,GA_39826,Complete data,True,True,True
39827,39827,180979592.0,2903384.0,+30.9476146,-084.2103776,GA,Georgia,13,29249.0,GA_39827,,,,,,,,,,,,,,,,,,,,,Census only,True,False,True
39828,39828,351763703.0,5557169.0,+30.7985900,-084.2267230,GA,Georgia,13,29174.0,GA_39828,,,,,,,,,,,,,,,,,,,,,Census only,True,False,True
39832,39832,6724853.0,5673.0,+31.1910601,-085.0278923,GA,Georgia,13,28882.0,GA_39832,,,,,,,,,,,,,,,,,,,,,Census only,True,False,True
39834,39834,315598658.0,1993320.0,+30.8942915,-084.4311548,GA,Georgia,13,29281.0,GA_39834,zip code,2.0,16959.0,39834,Georgia,GA,"Bainbridge, GA",12460.0,13087.0,"Decatur County, GA",546.0,county,"CLIMAX, GA",CLIMAX,1308739834.0,4405.0,"Climax, GA",,,GA_39834,Complete data,True,True,True
39836,39836,186931861.0,366547.0,+31.6660074,-084.8686329,GA,Georgia,13,29219.0,GA_39836,,,,,,,,,,,,,,,,,,,,,Census only,True,False,True
39837,39837,745922395.0,4114556.0,+31.1521038,-084.6777057,GA,Georgia,13,29292.0,GA_39837,,,,,,,,,,,,,,,,,,,,,Census only,True,False,True
39840,39840,577170077.0,3039136.0,+31.7812998,-084.7641245,GA,Georgia,13,29360.0,GA_39840,,,,,,,,,,,,,,,,,,,,,Census only,True,False,True
39841,39841,187182871.0,370821.0,+31.2928663,-084.6850438,GA,Georgia,13,29258.0,GA_39841,,,,,,,,,,,,,,,,,,,,,Census only,True,False,True
39842,39842,697130726.0,4116121.0,+31.7543116,-084.4355270,GA,Georgia,13,28876.0,GA_39842,zip code,2.0,16964.0,39842,Georgia,GA,"Albany, GA",10500.0,13273.0,"Terrell County, GA",638.0,county,"DAWSON, GA",DAWSON,1327339842.0,5650.0,"Dawson, GA",,,GA_39842,Complete data,True,True,True
39845,39845,503377941.0,48171243.0,+30.9514499,-084.8927240,GA,Georgia,13,29338.0,GA_39845,,,,,,,,,,,,,,,,,,,,,Census only,True,False,True
39846,39846,207884601.0,1327884.0,+31.5689573,-084.7460006,GA,Georgia,13,28861.0,GA_39846,,,,,,,,,,,,,,,,,,,,,Census only,True,False,True
39851,39851,355079577.0,53992351.0,+31.6198309,-084.9925826,GA,Georgia,13,29026.0,GA_39851,,,,,,,,,,,,,,,,,,,,,Census only,True,False,True
39854,39854,296953565.0,24173179.0,+31.8692184,-085.0525566,GA,Georgia,13,29369.0,GA_39854,zip code,2.0,16969.0,39854,Georgia,GA,"Eufaula, AL",21640.0,13239.0,"Putnam County, GA",620.0,county,"GEORGETOWN, GA",GEORGETOWN,1323939854.0,23222.0,"Georgetown, GA",,,GA_39854,Complete data,True,True,True
39859,39859,154119668.0,1304032.0,+30.9876384,-084.8127591,GA,Georgia,13,29217.0,GA_39859,,,,,,,,,,,,,,,,,,,,,Census only,True,False,True
39861,39861,159754020.0,959455.0,+31.1353502,-084.9872484,GA,Georgia,13,29311.0,GA_39861,,,,,,,,,,,,,,,,,,,,,Census only,True,False,True
39862,39862,378618137.0,5529651.0,+31.4593711,-084.5173806,GA,Georgia,13,29306.0,GA_39862,,,,,,,,,,,,,,,,,,,,,Census only,True,False,True
39866,39866,152748155.0,1512842.0,+31.5609301,-084.6031836,GA,Georgia,13,28944.0,GA_39866,,,,,,,,,,,,,,,,,,,,,Census only,True,False,True
39867,39867,250042924.0,2338973.0,+31.8428433,-084.9307505,GA,Georgia,13,29004.0,GA_39867,zip code,2.0,16974.0,39867,Georgia,GA,"Eufaula, AL",21640.0,13061.0,"Clay County, GA",533.0,county,"MORRIS, GA",MORRIS,1306139867.0,,,,,GA_39867,Complete data,True,True,True
39870,39870,475778616.0,12133779.0,+31.3220283,-084.4141372,GA,Georgia,13,29277.0,GA_39870,,,,,,,,,,,,,,,,,,,,,Census only,True,False,True
39877,39877,111838965.0,376028.0,+31.9151594,-084.5115759,GA,Georgia,13,28960.0,GA_39877,zip code,2.0,16976.0,39877,Georgia,GA,"Albany, GA",10500.0,13273.0,"Terrell County, GA",638.0,county,"PARROTT, GA",PARROTT,1327339877.0,15379.0,"Parrott, GA",,,GA_39877,Complete data,True,True,True
39885,39885,392153.0,0.0,+31.7218958,-084.3430262,GA,Georgia,13,29375.0,GA_39885,,,,,,,,,,,,,,,,,,,,,Census only,True,False,True
39886,39886,272898896.0,3183688.0,+31.7325311,-084.6172285,GA,Georgia,13,29175.0,GA_39886,,,,,,,,,,,,,,,,,,,,,Census only,True,False,True
39897,39897,353937892.0,3185946.0,+30.9112051,-084.3298128,GA,Georgia,13,29156.0,GA_39897,,,,,,,,,,,,,,,,,,,,,Census only,True,False,True
