ZIPCODE,GEOID,ALAND,AWATER,INTPTLAT,INTPTLON,STATE,STATE_NAME,STATE_FIPS,source_file,state_zip_key_x,region_type,region_type_id,redfin_tableid_zip,zip_code,state,state_code,parent_metro_region,parent_metro_region_metro_code,state_county_code,redfin_county_name,redfin_table_id_county,redfin_region_type,census_city_long,census_city,state_zip_combined,redfin_table_id_city,redfin_city,Unnamed: 17,Unnamed: 18,state_zip_key_y,data_source,has_census_data,has_redfin_data,has_geometry
01001,01001,29247431.0,2127552.0,+42.0623678,-072.6257536,MA,Massachusetts,25,24757.0,MA_01001,zip code,2.0,195.0,01001,Massachusetts,MA,"Springfield, MA",44140.0,25013.0,"Hampden County, MA",1340.0,county,"AGAWAM, MA",AGAWAM,2501301001.0,29590.0,"Agawam, MA",,,MA_01001,Complete data,True,True,True
01002,01002,137931891.0,4281963.0,+42.3772116,-072.4647946,MA,Massachusetts,25,24847.0,MA_01002,zip code,2.0,196.0,01002,Massachusetts,MA,"Springfield, MA",44140.0,25015.0,"Hampshire County, MA",1341.0,county,"AMHERST, MA",AMHERST,2501501002.0,,,,,MA_01002,Complete data,True,True,True
01003,01003,2082672.0,14001.0,+42.3918827,-072.5235844,MA,Massachusetts,25,25069.0,MA_01003,zip code,2.0,197.0,01003,Massachusetts,MA,"Springfield, MA",44140.0,25015.0,"Hampshire County, MA",1341.0,county,"AMHERST, MA",AMHERST,2501501003.0,,,,,MA_01003,Complete data,True,True,True
01005,01005,111859191.0,666424.0,+42.4188835,-072.1120769,MA,Massachusetts,25,24741.0,MA_01005,zip code,2.0,199.0,01005,Massachusetts,MA,"Worcester, MA",49340.0,25027.0,"Worcester County, MA",1347.0,county,"BARRE, MA",BARRE,2502701005.0,29804.0,"Barre, MA",,,MA_01005,Complete data,True,True,True
01007,01007,142111168.0,6938074.0,+42.2839351,-072.4004088,MA,Massachusetts,25,24754.0,MA_01007,zip code,2.0,200.0,01007,Massachusetts,MA,"Springfield, MA",44140.0,25015.0,"Hampshire County, MA",1341.0,county,"BELCHERTOWN, MA",BELCHERTOWN,2501501007.0,35620.0,"Belchertown, MA",,,MA_01007,Complete data,True,True,True
01008,01008,158472398.0,5609414.0,+42.1920235,-072.9640756,MA,Massachusetts,25,24990.0,MA_01008,zip code,2.0,201.0,01008,Massachusetts,MA,"Springfield, MA",44140.0,25013.0,"Hampden County, MA",1340.0,county,"BLANDFORD, MA",BLANDFORD,2501301008.0,31653.0,"Blandford, MA",,,MA_01008,Complete data,True,True,True
01009,01009,1806483.0,0.0,+42.2113859,-072.3418086,MA,Massachusetts,25,24934.0,MA_01009,zip code,2.0,202.0,01009,Massachusetts,MA,"Springfield, MA",44140.0,25013.0,"Hampden County, MA",1340.0,county,"BONDSVILLE, MA",BONDSVILLE,2501301009.0,29446.0,"Bondsville, MA",,,MA_01009,Complete data,True,True,True
01010,01010,91236290.0,1421542.0,+42.1281757,-072.2053516,MA,Massachusetts,25,24930.0,MA_01010,zip code,2.0,203.0,01010,Massachusetts,MA,"Springfield, MA",44140.0,25013.0,"Hampden County, MA",1340.0,county,"BRIMFIELD, MA",BRIMFIELD,2501301010.0,29537.0,"Brimfield, MA",,,MA_01010,Complete data,True,True,True
01011,01011,84937538.0,343003.0,+42.2901276,-072.9665164,MA,Massachusetts,25,24933.0,MA_01011,zip code,2.0,204.0,01011,Massachusetts,MA,"Springfield, MA",44140.0,25013.0,"Hampden County, MA",1340.0,county,"CHESTER, MA",CHESTER,2501301011.0,32043.0,"Chester, MA",,,MA_01011,Complete data,True,True,True
01012,01012,31252206.0,372019.0,+42.3754254,-072.8581917,MA,Massachusetts,25,24824.0,MA_01012,zip code,2.0,205.0,01012,Massachusetts,MA,"Springfield, MA",44140.0,25015.0,"Hampshire County, MA",1341.0,county,"CHESTERFIELD, MA",CHESTERFIELD,2501501012.0,29634.0,"Chesterfield, MA",,,MA_01012,Complete data,True,True,True
01013,01013,14659174.0,1512626.0,+42.1420092,-072.5954964,MA,Massachusetts,25,24991.0,MA_01013,zip code,2.0,206.0,01013,Massachusetts,MA,"Springfield, MA",44140.0,25013.0,"Hampden County, MA",1340.0,county,"CHICOPEE, MA",CHICOPEE,2501301013.0,3555.0,"Chicopee, MA",,,MA_01013,Complete data,True,True,True
01020,01020,32273635.0,988428.0,+42.1726105,-072.5619195,MA,Massachusetts,25,24890.0,MA_01020,zip code,2.0,208.0,01020,Massachusetts,MA,"Springfield, MA",44140.0,25013.0,"Hampden County, MA",1340.0,county,"CHICOPEE, MA",CHICOPEE,2501301020.0,3555.0,"Chicopee, MA",,,MA_01020,Complete data,True,True,True
01022,01022,12468872.0,2118.0,+42.1971867,-072.5418718,MA,Massachusetts,25,24619.0,MA_01022,zip code,2.0,210.0,01022,Massachusetts,MA,"Springfield, MA",44140.0,25013.0,"Hampden County, MA",1340.0,county,"CHICOPEE, MA",CHICOPEE,2501301022.0,3555.0,"Chicopee, MA",,,MA_01022,Complete data,True,True,True
01026,01026,72654747.0,529601.0,+42.4700323,-072.9257069,MA,Massachusetts,25,24806.0,MA_01026,zip code,2.0,211.0,01026,Massachusetts,MA,"Springfield, MA",44140.0,25015.0,"Hampshire County, MA",1341.0,county,"CUMMINGTON, MA",CUMMINGTON,2501501026.0,29758.0,"Cummington, MA",,,MA_01026,Complete data,True,True,True
01027,01027,105120091.0,1208056.0,+42.2950079,-072.7518767,MA,Massachusetts,25,24996.0,MA_01027,zip code,2.0,212.0,01027,Massachusetts,MA,"Springfield, MA",44140.0,25015.0,"Hampshire County, MA",1341.0,county,"EASTHAMPTON, MA",EASTHAMPTON,2501501027.0,4982.0,"Easthampton, MA",,,MA_01027,Complete data,True,True,True
01028,01028,33466463.0,181249.0,+42.0623782,-072.4981110,MA,Massachusetts,25,25056.0,MA_01028,zip code,2.0,213.0,01028,Massachusetts,MA,"Springfield, MA",44140.0,25013.0,"Hampden County, MA",1340.0,county,"EAST LONGMEADOW, MA",EAST LONGMEADOW,2501301028.0,29692.0,"East Longmeadow, MA",,,MA_01028,Complete data,True,True,True
01029,01029,25823458.0,5096491.0,+42.1762710,-073.0352919,MA,Massachusetts,25,24994.0,MA_01029,zip code,2.0,214.0,01029,Massachusetts,MA,"Pittsfield, MA",38340.0,25003.0,"Berkshire County, MA",1335.0,county,"EAST OTIS, MA",EAST OTIS,2500301029.0,,,,,MA_01029,Complete data,True,True,True
01030,01030,31155981.0,495072.0,+42.0729247,-072.6869715,MA,Massachusetts,25,24597.0,MA_01030,zip code,2.0,215.0,01030,Massachusetts,MA,"Springfield, MA",44140.0,25013.0,"Hampden County, MA",1340.0,county,"FEEDING HILLS, MA",FEEDING HILLS,2501301030.0,,,,,MA_01030,Complete data,True,True,True
01031,01031,17438359.0,0.0,+42.3278092,-072.1919682,MA,Massachusetts,25,24612.0,MA_01031,zip code,2.0,216.0,01031,Massachusetts,MA,"Worcester, MA",49340.0,25027.0,"Worcester County, MA",1347.0,county,"GILBERTVILLE, MA",GILBERTVILLE,2502701031.0,,,,,MA_01031,Complete data,True,True,True
01032,01032,24991855.0,713812.0,+42.4576127,-072.8147797,MA,Massachusetts,25,24787.0,MA_01032,zip code,2.0,217.0,01032,Massachusetts,MA,"Springfield, MA",44140.0,25015.0,"Hampshire County, MA",1341.0,county,"GOSHEN, MA",GOSHEN,2501501032.0,29832.0,"Goshen, MA",,,MA_01032,Complete data,True,True,True
01033,01033,72025787.0,666977.0,+42.2449487,-072.5001426,MA,Massachusetts,25,24897.0,MA_01033,zip code,2.0,218.0,01033,Massachusetts,MA,"Springfield, MA",44140.0,25015.0,"Hampshire County, MA",1341.0,county,"GRANBY, MA",GRANBY,2501501033.0,29559.0,"Granby, MA",,,MA_01033,Complete data,True,True,True
01034,01034,175464182.0,4774426.0,+42.0939118,-072.9611031,MA,Massachusetts,25,24894.0,MA_01034,zip code,2.0,219.0,01034,Massachusetts,MA,"Springfield, MA",44140.0,25013.0,"Hampden County, MA",1340.0,county,"GRANVILLE, MA",GRANVILLE,2501301034.0,29826.0,"Granville, MA",,,MA_01034,Complete data,True,True,True
01035,01035,59800323.0,3948125.0,+42.3564911,-072.5686319,MA,Massachusetts,25,24940.0,MA_01035,zip code,2.0,220.0,01035,Massachusetts,MA,"Springfield, MA",44140.0,25015.0,"Hampshire County, MA",1341.0,county,"HADLEY, MA",HADLEY,2501501035.0,29656.0,"Hadley, MA",,,MA_01035,Complete data,True,True,True
01036,01036,50791584.0,77618.0,+42.0711876,-072.4177176,MA,Massachusetts,25,24594.0,MA_01036,zip code,2.0,221.0,01036,Massachusetts,MA,"Springfield, MA",44140.0,25013.0,"Hampden County, MA",1340.0,county,"HAMPDEN, MA",HAMPDEN,2501301036.0,29526.0,"Hampden, MA",,,MA_01036,Complete data,True,True,True
01037,01037,48111810.0,434215.0,+42.3760363,-072.1973636,MA,Massachusetts,25,24882.0,MA_01037,zip code,2.0,222.0,01037,Massachusetts,MA,"Worcester, MA",49340.0,25027.0,"Worcester County, MA",1347.0,county,"HARDWICK, MA",HARDWICK,2502701037.0,29562.0,"Hardwick, MA",,,MA_01037,Complete data,True,True,True
01038,01038,23888136.0,2239018.0,+42.3799252,-072.6040447,MA,Massachusetts,25,24997.0,MA_01038,zip code,2.0,223.0,01038,Massachusetts,MA,"Springfield, MA",44140.0,25015.0,"Hampshire County, MA",1341.0,county,"HATFIELD, MA",HATFIELD,2501501038.0,29717.0,"Hatfield, MA",,,MA_01038,Complete data,True,True,True
01039,01039,42712270.0,609260.0,+42.4113042,-072.6909505,MA,Massachusetts,25,24667.0,MA_01039,zip code,2.0,224.0,01039,Massachusetts,MA,"Springfield, MA",44140.0,25015.0,"Hampshire County, MA",1341.0,county,"HAYDENVILLE, MA",HAYDENVILLE,2501501039.0,,,,,MA_01039,Complete data,True,True,True
01040,01040,54826719.0,4226511.0,+42.2116578,-072.6424476,MA,Massachusetts,25,24620.0,MA_01040,zip code,2.0,225.0,01040,Massachusetts,MA,"Springfield, MA",44140.0,25013.0,"Hampden County, MA",1340.0,county,"HOLYOKE, MA",HOLYOKE,2501301040.0,7887.0,"Holyoke, MA",,,MA_01040,Complete data,True,True,True
01050,01050,107146020.0,2581902.0,+42.2912587,-072.8748028,MA,Massachusetts,25,24756.0,MA_01050,zip code,2.0,227.0,01050,Massachusetts,MA,"Springfield, MA",44140.0,25015.0,"Hampshire County, MA",1341.0,county,"HUNTINGTON, MA",HUNTINGTON,2501501050.0,36125.0,"Huntington, MA",,,MA_01050,Complete data,True,True,True
01053,01053,14893903.0,229058.0,+42.3563014,-072.7135844,MA,Massachusetts,25,24810.0,MA_01053,zip code,2.0,228.0,01053,Massachusetts,MA,"Springfield, MA",44140.0,25015.0,"Hampshire County, MA",1341.0,county,"LEEDS, MA",LEEDS,2501501053.0,,,,,MA_01053,Complete data,True,True,True
01054,01054,59391510.0,425598.0,+42.4688984,-072.4845789,MA,Massachusetts,25,24670.0,MA_01054,zip code,2.0,229.0,01054,Massachusetts,MA,"Springfield, MA",44140.0,25011.0,"Franklin County, MA",1339.0,county,"LEVERETT, MA",LEVERETT,2501101054.0,29806.0,"Leverett, MA",,,MA_01054,Complete data,True,True,True
01056,01056,70436242.0,2958134.0,+42.1835768,-072.4578116,MA,Massachusetts,25,25060.0,MA_01056,zip code,2.0,230.0,01056,Massachusetts,MA,"Springfield, MA",44140.0,25013.0,"Hampden County, MA",1340.0,county,"LUDLOW, MA",LUDLOW,2501301056.0,29816.0,"Ludlow, MA",,,MA_01056,Complete data,True,True,True
01057,01057,115364744.0,1421370.0,+42.0935962,-072.3214936,MA,Massachusetts,25,24701.0,MA_01057,zip code,2.0,231.0,01057,Massachusetts,MA,"Springfield, MA",44140.0,25013.0,"Hampden County, MA",1340.0,county,"MONSON, MA",MONSON,2501301057.0,29697.0,"Monson, MA",,,MA_01057,Complete data,True,True,True
01060,01060,28146628.0,3248024.0,+42.3212513,-072.6303953,MA,Massachusetts,25,24708.0,MA_01060,zip code,2.0,233.0,01060,Massachusetts,MA,"Springfield, MA",44140.0,25015.0,"Hampshire County, MA",1341.0,county,"NORTHAMPTON, MA",NORTHAMPTON,2501501060.0,11816.0,"Northampton, MA",,,MA_01060,Complete data,True,True,True
01062,01062,45199186.0,416742.0,+42.3230331,-072.7017892,MA,Massachusetts,25,24998.0,MA_01062,zip code,2.0,235.0,01062,Massachusetts,MA,"Springfield, MA",44140.0,25015.0,"Hampshire County, MA",1341.0,county,"FLORENCE, MA",FLORENCE,2501501062.0,,,,,MA_01062,Complete data,True,True,True
01063,01063,228872.0,0.0,+42.3195836,-072.6395393,MA,Massachusetts,25,24709.0,MA_01063,,,,,,,,,,,,,,,,,,,,,Census only,True,False,True
01066,01066,3267653.0,12961.0,+42.4130387,-072.6236390,MA,Massachusetts,25,24809.0,MA_01066,zip code,2.0,237.0,01066,Massachusetts,MA,"Springfield, MA",44140.0,25015.0,"Hampshire County, MA",1341.0,county,"NORTH HATFIELD, MA",NORTH HATFIELD,2501501066.0,,,,,MA_01066,Complete data,True,True,True
01068,01068,56254821.0,1033076.0,+42.3538870,-072.0606845,MA,Massachusetts,25,24610.0,MA_01068,zip code,2.0,238.0,01068,Massachusetts,MA,"Worcester, MA",49340.0,25027.0,"Worcester County, MA",1347.0,county,"OAKHAM, MA",OAKHAM,2502701068.0,29783.0,"Oakham, MA",,,MA_01068,Complete data,True,True,True
01069,01069,72670133.0,836920.0,+42.1888618,-072.3064803,MA,Massachusetts,25,24893.0,MA_01069,zip code,2.0,239.0,01069,Massachusetts,MA,"Springfield, MA",44140.0,25013.0,"Hampden County, MA",1340.0,county,"PALMER, MA",PALMER,2501301069.0,29753.0,"Palmer, MA",,,MA_01069,Complete data,True,True,True
01070,01070,51384243.0,596478.0,+42.5199086,-072.9253542,MA,Massachusetts,25,24763.0,MA_01070,zip code,2.0,240.0,01070,Massachusetts,MA,"Springfield, MA",44140.0,25015.0,"Hampshire County, MA",1341.0,county,"PLAINFIELD, MA",PLAINFIELD,2501501070.0,29825.0,"Plainfield, MA",,,MA_01070,Complete data,True,True,True
01071,01071,40656344.0,652169.0,+42.1600642,-072.8738401,MA,Massachusetts,25,24595.0,MA_01071,zip code,2.0,241.0,01071,Massachusetts,MA,"Springfield, MA",44140.0,25013.0,"Hampden County, MA",1340.0,county,"RUSSELL, MA",RUSSELL,2501301071.0,36158.0,"Russell, MA",,,MA_01071,Complete data,True,True,True
01072,01072,49449913.0,653645.0,+42.4569676,-072.4172444,MA,Massachusetts,25,24676.0,MA_01072,zip code,2.0,242.0,01072,Massachusetts,MA,"Springfield, MA",44140.0,25011.0,"Franklin County, MA",1339.0,county,"SHUTESBURY, MA",SHUTESBURY,2501101072.0,29703.0,"Shutesbury, MA",,,MA_01072,Complete data,True,True,True
01073,01073,72906285.0,2082889.0,+42.2269485,-072.7415876,MA,Massachusetts,25,25065.0,MA_01073,zip code,2.0,243.0,01073,Massachusetts,MA,"Springfield, MA",44140.0,25015.0,"Hampshire County, MA",1341.0,county,"SOUTHAMPTON, MA",SOUTHAMPTON,2501501073.0,29643.0,"Southampton, MA",,,MA_01073,Complete data,True,True,True
01074,01074,671655.0,52379.0,+42.3808230,-072.1038954,MA,Massachusetts,25,24693.0,MA_01074,zip code,2.0,244.0,01074,Massachusetts,MA,"Worcester, MA",49340.0,25027.0,"Worcester County, MA",1347.0,county,"SOUTH BARRE, MA",SOUTH BARRE,2502701074.0,,,,,MA_01074,Complete data,True,True,True
01075,01075,45899561.0,1865237.0,+42.2565324,-072.5802475,MA,Massachusetts,25,25066.0,MA_01075,zip code,2.0,245.0,01075,Massachusetts,MA,"Springfield, MA",44140.0,25015.0,"Hampshire County, MA",1341.0,county,"SOUTH HADLEY, MA",SOUTH HADLEY,2501501075.0,29729.0,"South Hadley, MA",,,MA_01075,Complete data,True,True,True
01077,01077,79909721.0,2151144.0,+42.0525703,-072.7773529,MA,Massachusetts,25,25059.0,MA_01077,zip code,2.0,246.0,01077,Massachusetts,MA,"Springfield, MA",44140.0,25013.0,"Hampden County, MA",1340.0,county,"SOUTHWICK, MA",SOUTHWICK,2501301077.0,29738.0,"Southwick, MA",,,MA_01077,Complete data,True,True,True
01079,01079,4163329.0,50403.0,+42.1857449,-072.3324604,MA,Massachusetts,25,24802.0,MA_01079,zip code,2.0,247.0,01079,Massachusetts,MA,"Springfield, MA",44140.0,25013.0,"Hampden County, MA",1340.0,county,"THORNDIKE, MA",THORNDIKE,2501301079.0,,,,,MA_01079,Complete data,True,True,True
01080,01080,4313061.0,256694.0,+42.1857266,-072.3615579,MA,Massachusetts,25,24703.0,MA_01080,zip code,2.0,248.0,01080,Massachusetts,MA,"Springfield, MA",44140.0,25013.0,"Hampden County, MA",1340.0,county,"THREE RIVERS, MA",THREE RIVERS,2501301080.0,,,,,MA_01080,Complete data,True,True,True
01081,01081,37484201.0,586926.0,+42.0613129,-072.2344109,MA,Massachusetts,25,24932.0,MA_01081,zip code,2.0,249.0,01081,Massachusetts,MA,"Springfield, MA",44140.0,25013.0,"Hampden County, MA",1340.0,county,"WALES, MA",WALES,2501301081.0,29586.0,"Wales, MA",,,MA_01081,Complete data,True,True,True
01082,01082,121750407.0,19757620.0,+42.2997486,-072.2791638,MA,Massachusetts,25,24611.0,MA_01082,zip code,2.0,250.0,01082,Massachusetts,MA,"Springfield, MA",44140.0,25015.0,"Hampshire County, MA",1341.0,county,"WARE, MA",WARE,2501501082.0,36176.0,"Ware, MA",,,MA_01082,Complete data,True,True,True
01083,01083,33041299.0,156111.0,+42.2068396,-072.1986192,MA,Massachusetts,25,24927.0,MA_01083,zip code,2.0,251.0,01083,Massachusetts,MA,"Worcester, MA",49340.0,25027.0,"Worcester County, MA",1347.0,county,"WARREN, MA",WARREN,2502701083.0,36177.0,"Warren, MA",,,MA_01083,Complete data,True,True,True
01084,01084,21578079.0,391580.0,+42.3617237,-072.8749875,MA,Massachusetts,25,24730.0,MA_01084,zip code,2.0,252.0,01084,Massachusetts,MA,"Springfield, MA",44140.0,25015.0,"Hampshire County, MA",1341.0,county,"WEST CHESTERFIELD, MA",WEST CHESTERFIELD,2501501084.0,,,,,MA_01084,Complete data,True,True,True
01085,01085,154693493.0,2940611.0,+42.1535029,-072.7716020,MA,Massachusetts,25,24755.0,MA_01085,zip code,2.0,253.0,01085,Massachusetts,MA,"Springfield, MA",44140.0,25013.0,"Hampden County, MA",1340.0,county,"WESTFIELD, MA",WESTFIELD,2501301085.0,19642.0,"Westfield, MA",,,MA_01085,Complete data,True,True,True
01088,01088,13607010.0,143465.0,+42.3827000,-072.6403612,MA,Massachusetts,25,24623.0,MA_01088,zip code,2.0,255.0,01088,Massachusetts,MA,"Springfield, MA",44140.0,25015.0,"Hampshire County, MA",1341.0,county,"WEST HATFIELD, MA",WEST HATFIELD,2501501088.0,,,,,MA_01088,Complete data,True,True,True
01089,01089,43331574.0,2089773.0,+42.1254511,-072.6497341,MA,Massachusetts,25,24935.0,MA_01089,zip code,2.0,256.0,01089,Massachusetts,MA,"Springfield, MA",44140.0,25013.0,"Hampden County, MA",1340.0,county,"WEST SPRINGFIELD, MA",WEST SPRINGFIELD,2501301089.0,,,,,MA_01089,Complete data,True,True,True
01092,01092,17407745.0,80681.0,+42.1918678,-072.2351075,MA,Massachusetts,25,24699.0,MA_01092,zip code,2.0,258.0,01092,Massachusetts,MA,"Worcester, MA",49340.0,25027.0,"Worcester County, MA",1347.0,county,"WEST WARREN, MA",WEST WARREN,2502701092.0,36678.0,"West Warren, MA",,,MA_01092,Complete data,True,True,True
01093,01093,11172806.0,15740.0,+42.4452578,-072.6450580,MA,Massachusetts,25,24673.0,MA_01093,zip code,2.0,259.0,01093,Massachusetts,MA,"Springfield, MA",44140.0,25011.0,"Franklin County, MA",1339.0,county,"WHATELY, MA",WHATELY,2501101093.0,29679.0,"Whately, MA",,,MA_01093,Complete data,True,True,True
01094,01094,1863981.0,172820.0,+42.3697621,-072.1392827,MA,Massachusetts,25,24884.0,MA_01094,,,,,,,,,,,,,,,,,,,,,Census only,True,False,True
01095,01095,58246825.0,752097.0,+42.1385268,-072.4207029,MA,Massachusetts,25,24989.0,MA_01095,zip code,2.0,261.0,01095,Massachusetts,MA,"Springfield, MA",44140.0,25013.0,"Hampden County, MA",1340.0,county,"WILBRAHAM, MA",WILBRAHAM,2501301095.0,29691.0,"Wilbraham, MA",,,MA_01095,Complete data,True,True,True
01096,01096,92937599.0,842508.0,+42.4105375,-072.7657697,MA,Massachusetts,25,24846.0,MA_01096,zip code,2.0,262.0,01096,Massachusetts,MA,"Springfield, MA",44140.0,25015.0,"Hampshire County, MA",1341.0,county,"WILLIAMSBURG, MA",WILLIAMSBURG,2501501096.0,29689.0,"Williamsburg, MA",,,MA_01096,Complete data,True,True,True
01097,01097,4507443.0,416044.0,+42.1658679,-072.8309847,MA,Massachusetts,25,24618.0,MA_01097,zip code,2.0,263.0,01097,Massachusetts,MA,"Springfield, MA",44140.0,25013.0,"Hampden County, MA",1340.0,county,"WORONOCO, MA",WORONOCO,2501301097.0,,,,,MA_01097,Complete data,True,True,True
01098,01098,82585229.0,356295.0,+42.3975593,-072.9433922,MA,Massachusetts,25,24908.0,MA_01098,zip code,2.0,264.0,01098,Massachusetts,MA,"Springfield, MA",44140.0,25015.0,"Hampshire County, MA",1341.0,county,"WORTHINGTON, MA",WORTHINGTON,2501501098.0,29744.0,"Worthington, MA",,,MA_01098,Complete data,True,True,True
01103,01103,1126124.0,0.0,+42.1044180,-072.5900803,MA,Massachusetts,25,24983.0,MA_01103,zip code,2.0,267.0,01103,Massachusetts,MA,"Springfield, MA",44140.0,25013.0,"Hampden County, MA",1340.0,county,"SPRINGFIELD, MA",SPRINGFIELD,2501301103.0,17155.0,"Springfield, MA",,,MA_01103,Complete data,True,True,True
01104,01104,13551122.0,385804.0,+42.1327724,-072.5674112,MA,Massachusetts,25,24982.0,MA_01104,zip code,2.0,268.0,01104,Massachusetts,MA,"Springfield, MA",44140.0,25013.0,"Hampden County, MA",1340.0,county,"SPRINGFIELD, MA",SPRINGFIELD,2501301104.0,17155.0,"Springfield, MA",,,MA_01104,Complete data,True,True,True
01105,01105,3123274.0,302887.0,+42.0952455,-072.5776034,MA,Massachusetts,25,24746.0,MA_01105,zip code,2.0,269.0,01105,Massachusetts,MA,"Springfield, MA",44140.0,25013.0,"Hampden County, MA",1340.0,county,"SPRINGFIELD, MA",SPRINGFIELD,2501301105.0,17155.0,"Springfield, MA",,,MA_01105,Complete data,True,True,True
01106,01106,24826538.0,1450922.0,+42.0456953,-072.5633225,MA,Massachusetts,25,24986.0,MA_01106,zip code,2.0,270.0,01106,Massachusetts,MA,"Springfield, MA",44140.0,25013.0,"Hampden County, MA",1340.0,county,"LONGMEADOW, MA",LONGMEADOW,2501301106.0,29698.0,"Longmeadow, MA",,,MA_01106,Complete data,True,True,True
01107,01107,3994637.0,335468.0,+42.1210603,-072.6070681,MA,Massachusetts,25,24929.0,MA_01107,zip code,2.0,271.0,01107,Massachusetts,MA,"Springfield, MA",44140.0,25013.0,"Hampden County, MA",1340.0,county,"SPRINGFIELD, MA",SPRINGFIELD,2501301107.0,17155.0,"Springfield, MA",,,MA_01107,Complete data,True,True,True
01108,01108,8912392.0,264604.0,+42.0829471,-072.5595101,MA,Massachusetts,25,24617.0,MA_01108,zip code,2.0,272.0,01108,Massachusetts,MA,"Springfield, MA",44140.0,25013.0,"Hampden County, MA",1340.0,county,"SPRINGFIELD, MA",SPRINGFIELD,2501301108.0,17155.0,"Springfield, MA",,,MA_01108,Complete data,True,True,True
01109,01109,14092648.0,501561.0,+42.1196737,-072.5497259,MA,Massachusetts,25,24887.0,MA_01109,zip code,2.0,273.0,01109,Massachusetts,MA,"Springfield, MA",44140.0,25013.0,"Hampden County, MA",1340.0,county,"SPRINGFIELD, MA",SPRINGFIELD,2501301109.0,17155.0,"Springfield, MA",,,MA_01109,Complete data,True,True,True
01118,01118,9312986.0,243603.0,+42.0945866,-072.5252188,MA,Massachusetts,25,25052.0,MA_01118,zip code,2.0,277.0,01118,Massachusetts,MA,"Springfield, MA",44140.0,25013.0,"Hampden County, MA",1340.0,county,"SPRINGFIELD, MA",SPRINGFIELD,2501301118.0,17155.0,"Springfield, MA",,,MA_01118,Complete data,True,True,True
01119,01119,9144297.0,251455.0,+42.1249785,-072.5112103,MA,Massachusetts,25,24590.0,MA_01119,zip code,2.0,278.0,01119,Massachusetts,MA,"Springfield, MA",44140.0,25013.0,"Hampden County, MA",1340.0,county,"SPRINGFIELD, MA",SPRINGFIELD,2501301119.0,17155.0,"Springfield, MA",,,MA_01119,Complete data,True,True,True
01128,01128,2872228.0,1287.0,+42.0922958,-072.4891351,MA,Massachusetts,25,24860.0,MA_01128,zip code,2.0,279.0,01128,Massachusetts,MA,"Springfield, MA",44140.0,25013.0,"Hampden County, MA",1340.0,county,"SPRINGFIELD, MA",SPRINGFIELD,2501301128.0,17155.0,"Springfield, MA",,,MA_01128,Complete data,True,True,True
01129,01129,8899440.0,227899.0,+42.1186705,-072.4882031,MA,Massachusetts,25,24698.0,MA_01129,zip code,2.0,280.0,01129,Massachusetts,MA,"Springfield, MA",44140.0,25013.0,"Hampden County, MA",1340.0,county,"SPRINGFIELD, MA",SPRINGFIELD,2501301129.0,17155.0,"Springfield, MA",,,MA_01129,Complete data,True,True,True
01144,01144,55751.0,0.0,+42.1018942,-072.5909069,MA,Massachusetts,25,24747.0,MA_01144,,,,,,,,,,,,,,,,,,,,,Census only,True,False,True
01151,01151,6135002.0,479310.0,+42.1518602,-072.5091312,MA,Massachusetts,25,24985.0,MA_01151,zip code,2.0,285.0,01151,Massachusetts,MA,"Springfield, MA",44140.0,25013.0,"Hampden County, MA",1340.0,county,"INDIAN ORCHARD, MA",INDIAN ORCHARD,2501301151.0,,,,,MA_01151,Complete data,True,True,True
01201,01201,156363181.0,7028343.0,+42.4543015,-073.2820743,MA,Massachusetts,25,25058.0,MA_01201,zip code,2.0,289.0,01201,Massachusetts,MA,"Pittsfield, MA",38340.0,25003.0,"Berkshire County, MA",1335.0,county,"PITTSFIELD, MA",PITTSFIELD,2500301201.0,13959.0,"Pittsfield, MA",,,MA_01201,Complete data,True,True,True
01220,01220,59281213.0,183353.0,+42.6255598,-073.1198280,MA,Massachusetts,25,24644.0,MA_01220,zip code,2.0,292.0,01220,Massachusetts,MA,"Pittsfield, MA",38340.0,25003.0,"Berkshire County, MA",1335.0,county,"ADAMS, MA",ADAMS,2500301220.0,36242.0,"Adams, MA",,,MA_01220,Complete data,True,True,True
01222,01222,11893143.0,425113.0,+42.0627426,-073.3174978,MA,Massachusetts,25,24906.0,MA_01222,zip code,2.0,293.0,01222,Massachusetts,MA,"Pittsfield, MA",38340.0,25003.0,"Berkshire County, MA",1335.0,county,"ASHLEY FALLS, MA",ASHLEY FALLS,2500301222.0,,,,,MA_01222,Complete data,True,True,True
01223,01223,180116346.0,5024542.0,+42.3042855,-073.1114942,MA,Massachusetts,25,24702.0,MA_01223,zip code,2.0,294.0,01223,Massachusetts,MA,"Pittsfield, MA",38340.0,25003.0,"Berkshire County, MA",1335.0,county,"BECKET, MA",BECKET,2500301223.0,29569.0,"Becket, MA",,,MA_01223,Complete data,True,True,True
01224,01224,1205360.0,82246.0,+42.5037278,-073.2016362,MA,Massachusetts,25,24907.0,MA_01224,zip code,2.0,295.0,01224,Massachusetts,MA,"Pittsfield, MA",38340.0,25003.0,"Berkshire County, MA",1335.0,county,"BERKSHIRE, MA",BERKSHIRE,2500301224.0,,,,,MA_01224,Complete data,True,True,True
01225,01225,69442567.0,1833959.0,+42.5651072,-073.1491424,MA,Massachusetts,25,25020.0,MA_01225,zip code,2.0,296.0,01225,Massachusetts,MA,"Pittsfield, MA",38340.0,25003.0,"Berkshire County, MA",1335.0,county,"CHESHIRE, MA",CHESHIRE,2500301225.0,36243.0,"Cheshire, MA",,,MA_01225,Complete data,True,True,True
01226,01226,56356197.0,256362.0,+42.4798193,-073.1537760,MA,Massachusetts,25,24729.0,MA_01226,zip code,2.0,297.0,01226,Massachusetts,MA,"Pittsfield, MA",38340.0,25003.0,"Berkshire County, MA",1335.0,county,"DALTON, MA",DALTON,2500301226.0,29810.0,"Dalton, MA",,,MA_01226,Complete data,True,True,True
01229,01229,6430276.0,173296.0,+42.2900800,-073.3542185,MA,Massachusetts,25,24645.0,MA_01229,zip code,2.0,299.0,01229,Massachusetts,MA,"Pittsfield, MA",38340.0,25003.0,"Berkshire County, MA",1335.0,county,"GLENDALE, MA",GLENDALE,2500301229.0,,,,,MA_01229,Complete data,True,True,True
01230,01230,251169200.0,4976242.0,+42.1731960,-073.3242902,MA,Massachusetts,25,24753.0,MA_01230,zip code,2.0,300.0,01230,Massachusetts,MA,"Pittsfield, MA",38340.0,25003.0,"Berkshire County, MA",1335.0,county,"GREAT BARRINGTON, MA",GREAT BARRINGTON,2500301230.0,29781.0,"Great Barrington, MA",,,MA_01230,Complete data,True,True,True
01235,01235,120852725.0,2775814.0,+42.4256771,-073.0630283,MA,Massachusetts,25,25061.0,MA_01235,zip code,2.0,301.0,01235,Massachusetts,MA,"Pittsfield, MA",38340.0,25003.0,"Berkshire County, MA",1335.0,county,"HINSDALE, MA",HINSDALE,2500301235.0,29539.0,"Hinsdale, MA",,,MA_01235,Complete data,True,True,True
01236,01236,17135580.0,170364.0,+42.2744989,-073.3861549,MA,Massachusetts,25,24801.0,MA_01236,zip code,2.0,302.0,01236,Massachusetts,MA,"Pittsfield, MA",38340.0,25003.0,"Berkshire County, MA",1335.0,county,"HOUSATONIC, MA",HOUSATONIC,2500301236.0,23155.0,"Housatonic, MA",,,MA_01236,Complete data,True,True,True
01237,01237,127711825.0,791427.0,+42.5498042,-073.2611439,MA,Massachusetts,25,24596.0,MA_01237,zip code,2.0,303.0,01237,Massachusetts,MA,"Pittsfield, MA",38340.0,25003.0,"Berkshire County, MA",1335.0,county,"LANESBOROUGH, MA",LANESBOROUGH,2500301237.0,29648.0,"Lanesborough, MA",,,MA_01237,Complete data,True,True,True
01238,01238,71489759.0,2706009.0,+42.3004568,-073.2310057,MA,Massachusetts,25,24599.0,MA_01238,zip code,2.0,304.0,01238,Massachusetts,MA,"Pittsfield, MA",38340.0,25003.0,"Berkshire County, MA",1335.0,county,"LEE, MA",LEE,2500301238.0,36245.0,"Lee, MA",,,MA_01238,Complete data,True,True,True
01240,01240,61935524.0,1543941.0,+42.3826930,-073.2666323,MA,Massachusetts,25,24760.0,MA_01240,zip code,2.0,305.0,01240,Massachusetts,MA,"Pittsfield, MA",38340.0,25003.0,"Berkshire County, MA",1335.0,county,"LENOX, MA",LENOX,2500301240.0,29630.0,"Lenox, MA",,,MA_01240,Complete data,True,True,True
01242,01242,1189984.0,232.0,+42.3337341,-073.2491986,MA,Massachusetts,25,24731.0,MA_01242,zip code,2.0,306.0,01242,Massachusetts,MA,"Pittsfield, MA",38340.0,25003.0,"Berkshire County, MA",1335.0,county,"LENOX DALE, MA",LENOX DALE,2500301242.0,36590.0,"Lenox Dale, MA",,,MA_01242,Complete data,True,True,True
01243,01243,37002724.0,46773.0,+42.3679073,-073.0540944,MA,Massachusetts,25,24788.0,MA_01243,zip code,2.0,307.0,01243,Massachusetts,MA,"Springfield, MA",44140.0,25015.0,"Hampshire County, MA",1341.0,county,"MIDDLEFIELD, MA",MIDDLEFIELD,2501501243.0,29660.0,"Middlefield, MA",,,MA_01243,Complete data,True,True,True
01244,01244,14918139.0,80665.0,+42.1174560,-073.2786350,MA,Massachusetts,25,24705.0,MA_01244,zip code,2.0,308.0,01244,Massachusetts,MA,"Pittsfield, MA",38340.0,25003.0,"Berkshire County, MA",1335.0,county,"MILL RIVER, MA",MILL RIVER,2500301244.0,,,,,MA_01244,Complete data,True,True,True
01245,01245,66993080.0,1753912.0,+42.1933071,-073.2184994,MA,Massachusetts,25,24803.0,MA_01245,zip code,2.0,309.0,01245,Massachusetts,MA,"Pittsfield, MA",38340.0,25003.0,"Berkshire County, MA",1335.0,county,"MONTEREY, MA",MONTEREY,2500301245.0,29653.0,"Monterey, MA",,,MA_01245,Complete data,True,True,True
01247,01247,118920171.0,1063225.0,+42.6956988,-073.0938521,MA,Massachusetts,25,24988.0,MA_01247,zip code,2.0,310.0,01247,Massachusetts,MA,"Pittsfield, MA",38340.0,25003.0,"Berkshire County, MA",1335.0,county,"NORTH ADAMS, MA",NORTH ADAMS,2500301247.0,11792.0,"North Adams, MA",,,MA_01247,Complete data,True,True,True
01253,01253,54941690.0,1108591.0,+42.2066825,-073.1132135,MA,Massachusetts,25,24759.0,MA_01253,zip code,2.0,312.0,01253,Massachusetts,MA,"Pittsfield, MA",38340.0,25003.0,"Berkshire County, MA",1335.0,county,"OTIS, MA",OTIS,2500301253.0,29716.0,"Otis, MA",,,MA_01253,Complete data,True,True,True
01254,01254,37459820.0,148218.0,+42.3820190,-073.3654915,MA,Massachusetts,25,24593.0,MA_01254,zip code,2.0,313.0,01254,Massachusetts,MA,"Pittsfield, MA",38340.0,25003.0,"Berkshire County, MA",1335.0,county,"RICHMOND, MA",RICHMOND,2500301254.0,29584.0,"Richmond, MA",,,MA_01254,Complete data,True,True,True
01255,01255,130851821.0,2933880.0,+42.1028997,-073.1259910,MA,Massachusetts,25,25062.0,MA_01255,zip code,2.0,314.0,01255,Massachusetts,MA,"Pittsfield, MA",38340.0,25003.0,"Berkshire County, MA",1335.0,county,"SANDISFIELD, MA",SANDISFIELD,2500301255.0,29721.0,"Sandisfield, MA",,,MA_01255,Complete data,True,True,True
01256,01256,92857738.0,461595.0,+42.5941657,-073.0223195,MA,Massachusetts,25,24706.0,MA_01256,zip code,2.0,315.0,01256,Massachusetts,MA,"Pittsfield, MA",38340.0,25003.0,"Berkshire County, MA",1335.0,county,"SAVOY, MA",SAVOY,2500301256.0,29701.0,"Savoy, MA",,,MA_01256,Complete data,True,True,True
01257,01257,87793097.0,2106071.0,+42.0852444,-073.3674827,MA,Massachusetts,25,24786.0,MA_01257,zip code,2.0,316.0,01257,Massachusetts,MA,"Pittsfield, MA",38340.0,25003.0,"Berkshire County, MA",1335.0,county,"SHEFFIELD, MA",SHEFFIELD,2500301257.0,29545.0,"Sheffield, MA",,,MA_01257,Complete data,True,True,True
01258,01258,57631850.0,390424.0,+42.0909195,-073.4701971,MA,Massachusetts,25,24598.0,MA_01258,zip code,2.0,317.0,01258,Massachusetts,MA,"Pittsfield, MA",38340.0,25003.0,"Berkshire County, MA",1335.0,county,"SOUTH EGREMONT, MA",SOUTH EGREMONT,2500301258.0,,,,,MA_01258,Complete data,True,True,True
01259,01259,59376360.0,1922160.0,+42.0692605,-073.2289492,MA,Massachusetts,25,24761.0,MA_01259,zip code,2.0,318.0,01259,Massachusetts,MA,"Pittsfield, MA",38340.0,25003.0,"Berkshire County, MA",1335.0,county,"SOUTHFIELD, MA",SOUTHFIELD,2500301259.0,,,,,MA_01259,Complete data,True,True,True
01260,01260,6700593.0,50070.0,+42.2616734,-073.2751601,MA,Massachusetts,25,24646.0,MA_01260,zip code,2.0,319.0,01260,Massachusetts,MA,"Pittsfield, MA",38340.0,25003.0,"Berkshire County, MA",1335.0,county,"SOUTH LEE, MA",SOUTH LEE,2500301260.0,,,,,MA_01260,Complete data,True,True,True
01262,01262,51163319.0,2257637.0,+42.3100552,-073.3244683,MA,Massachusetts,25,25086.0,MA_01262,zip code,2.0,320.0,01262,Massachusetts,MA,"Pittsfield, MA",38340.0,25003.0,"Berkshire County, MA",1335.0,county,"STOCKBRIDGE, MA",STOCKBRIDGE,2500301262.0,29813.0,"Stockbridge, MA",,,MA_01262,Complete data,True,True,True
01264,01264,37657816.0,93619.0,+42.2348215,-073.1970825,MA,Massachusetts,25,24762.0,MA_01264,zip code,2.0,322.0,01264,Massachusetts,MA,"Pittsfield, MA",38340.0,25003.0,"Berkshire County, MA",1335.0,county,"TYRINGHAM, MA",TYRINGHAM,2500301264.0,29636.0,"Tyringham, MA",,,MA_01264,Complete data,True,True,True
01266,01266,52343841.0,556303.0,+42.3123539,-073.3880437,MA,Massachusetts,25,25063.0,MA_01266,zip code,2.0,323.0,01266,Massachusetts,MA,"Pittsfield, MA",38340.0,25003.0,"Berkshire County, MA",1335.0,county,"WEST STOCKBRIDGE, MA",WEST STOCKBRIDGE,2500301266.0,29546.0,"West Stockbridge, MA",,,MA_01266,Complete data,True,True,True
01267,01267,153603813.0,383836.0,+42.6716169,-073.2469815,MA,Massachusetts,25,24704.0,MA_01267,zip code,2.0,324.0,01267,Massachusetts,MA,"Pittsfield, MA",38340.0,25003.0,"Berkshire County, MA",1335.0,county,"WILLIAMSTOWN, MA",WILLIAMSTOWN,2500301267.0,36247.0,"Williamstown, MA",,,MA_01267,Complete data,True,True,True
01270,01270,83527583.0,251134.0,+42.5198375,-073.0496901,MA,Massachusetts,25,24804.0,MA_01270,zip code,2.0,325.0,01270,Massachusetts,MA,"Pittsfield, MA",38340.0,25003.0,"Berkshire County, MA",1335.0,county,"WINDSOR, MA",WINDSOR,2500301270.0,29756.0,"Windsor, MA",,,MA_01270,Complete data,True,True,True
01301,01301,65652497.0,1397102.0,+42.6267614,-072.6015304,MA,Massachusetts,25,24675.0,MA_01301,zip code,2.0,326.0,01301,Massachusetts,MA,"Springfield, MA",44140.0,25011.0,"Franklin County, MA",1339.0,county,"GREENFIELD, MA",GREENFIELD,2501101301.0,36704.0,"Greenfield, MA",,,MA_01301,Complete data,True,True,True
01330,01330,89285520.0,622786.0,+42.5139469,-072.8215166,MA,Massachusetts,25,25036.0,MA_01330,zip code,2.0,328.0,01330,Massachusetts,MA,"Springfield, MA",44140.0,25011.0,"Franklin County, MA",1339.0,county,"ASHFIELD, MA",ASHFIELD,2501101330.0,29801.0,"Ashfield, MA",,,MA_01330,Complete data,True,True,True
01331,01331,140275886.0,3772595.0,+42.5702368,-072.1829029,MA,Massachusetts,25,24677.0,MA_01331,zip code,2.0,329.0,01331,Massachusetts,MA,"Worcester, MA",49340.0,25027.0,"Worcester County, MA",1347.0,county,"ATHOL, MA",ATHOL,2502701331.0,36089.0,"Athol, MA",,,MA_01331,Complete data,True,True,True
01337,01337,96844938.0,158781.0,+42.6893067,-072.5822886,MA,Massachusetts,25,24603.0,MA_01337,zip code,2.0,330.0,01337,Massachusetts,MA,"Springfield, MA",44140.0,25011.0,"Franklin County, MA",1339.0,county,"BERNARDSTON, MA",BERNARDSTON,2501101337.0,29805.0,"Bernardston, MA",,,MA_01337,Complete data,True,True,True
01338,01338,3392289.0,3166.0,+42.5758886,-072.8066505,MA,Massachusetts,25,25035.0,MA_01338,zip code,2.0,331.0,01338,Massachusetts,MA,"Springfield, MA",44140.0,25011.0,"Franklin County, MA",1339.0,county,"BUCKLAND, MA",BUCKLAND,2501101338.0,29706.0,"Buckland, MA",,,MA_01338,Complete data,True,True,True
01339,01339,151144051.0,637367.0,+42.6104497,-072.8877351,MA,Massachusetts,25,24844.0,MA_01339,zip code,2.0,332.0,01339,Massachusetts,MA,"Springfield, MA",44140.0,25011.0,"Franklin County, MA",1339.0,county,"CHARLEMONT, MA",CHARLEMONT,2501101339.0,29571.0,"Charlemont, MA",,,MA_01339,Complete data,True,True,True
01340,01340,134766224.0,681264.0,+42.6855298,-072.7311354,MA,Massachusetts,25,24573.0,MA_01340,zip code,2.0,333.0,01340,Massachusetts,MA,"Springfield, MA",44140.0,25011.0,"Franklin County, MA",1339.0,county,"COLRAIN, MA",COLRAIN,2501101340.0,29611.0,"Colrain, MA",,,MA_01340,Complete data,True,True,True
01341,01341,86923692.0,284891.0,+42.5071769,-072.7015246,MA,Massachusetts,25,24974.0,MA_01341,zip code,2.0,334.0,01341,Massachusetts,MA,"Springfield, MA",44140.0,25011.0,"Franklin County, MA",1339.0,county,"CONWAY, MA",CONWAY,2501101341.0,29544.0,"Conway, MA",,,MA_01341,Complete data,True,True,True
01342,01342,47687876.0,2258501.0,+42.5438893,-072.6094578,MA,Massachusetts,25,24578.0,MA_01342,zip code,2.0,335.0,01342,Massachusetts,MA,"Springfield, MA",44140.0,25011.0,"Franklin County, MA",1339.0,county,"DEERFIELD, MA",DEERFIELD,2501101342.0,29819.0,"Deerfield, MA",,,MA_01342,Complete data,True,True,True
01343,01343,29736712.0,512035.0,+42.6477305,-072.9697674,MA,Massachusetts,25,24805.0,MA_01343,zip code,2.0,336.0,01343,Massachusetts,MA,"Pittsfield, MA",38340.0,25003.0,"Berkshire County, MA",1335.0,county,"DRURY, MA",DRURY,2500301343.0,,,,,MA_01343,Complete data,True,True,True
01344,01344,35723125.0,1594377.0,+42.6134178,-072.4264276,MA,Massachusetts,25,24679.0,MA_01344,zip code,2.0,337.0,01344,Massachusetts,MA,"Springfield, MA",44140.0,25011.0,"Franklin County, MA",1339.0,county,"ERVING, MA",ERVING,2501101344.0,29609.0,"Erving, MA",,,MA_01344,Complete data,True,True,True
01346,01346,34646508.0,73616.0,+42.6584963,-072.8060573,MA,Massachusetts,25,24607.0,MA_01346,zip code,2.0,338.0,01346,Massachusetts,MA,"Springfield, MA",44140.0,25011.0,"Franklin County, MA",1339.0,county,"HEATH, MA",HEATH,2501101346.0,29556.0,"Heath, MA",,,MA_01346,Complete data,True,True,True
01347,01347,925273.0,216951.0,+42.5632226,-072.5097752,MA,Massachusetts,25,24666.0,MA_01347,zip code,2.0,339.0,01347,Massachusetts,MA,"Springfield, MA",44140.0,25011.0,"Franklin County, MA",1339.0,county,"LAKE PLEASANT, MA",LAKE PLEASANT,2501101347.0,,,,,MA_01347,Complete data,True,True,True
01349,01349,25562209.0,325579.0,+42.5674604,-072.4675416,MA,Massachusetts,25,24575.0,MA_01349,zip code,2.0,340.0,01349,Massachusetts,MA,"Springfield, MA",44140.0,25011.0,"Franklin County, MA",1339.0,county,"MILLERS FALLS, MA",MILLERS FALLS,2501101349.0,23856.0,"Millers Falls, MA",,,MA_01349,Complete data,True,True,True
01350,01350,27679919.0,112370.0,+42.7277722,-072.9853464,MA,Massachusetts,25,24976.0,MA_01350,zip code,2.0,341.0,01350,Massachusetts,MA,"Springfield, MA",44140.0,25011.0,"Franklin County, MA",1339.0,county,"MONROE BRIDGE, MA",MONROE BRIDGE,2501101350.0,,,,,MA_01350,Complete data,True,True,True
01351,01351,50744988.0,1127581.0,+42.5398798,-072.5216890,MA,Massachusetts,25,24574.0,MA_01351,zip code,2.0,342.0,01351,Massachusetts,MA,"Springfield, MA",44140.0,25011.0,"Franklin County, MA",1339.0,county,"MONTAGUE, MA",MONTAGUE,2501101351.0,29543.0,"Montague, MA",,,MA_01351,Complete data,True,True,True
01354,01354,35610471.0,3352662.0,+42.6241010,-072.5086068,MA,Massachusetts,25,24971.0,MA_01354,zip code,2.0,343.0,01354,Massachusetts,MA,"Springfield, MA",44140.0,25011.0,"Franklin County, MA",1339.0,county,"GILL, MA",GILL,2501101354.0,29827.0,"Gill, MA",,,MA_01354,Complete data,True,True,True
01355,01355,123023383.0,36283181.0,+42.4585511,-072.3271910,MA,Massachusetts,25,24605.0,MA_01355,zip code,2.0,344.0,01355,Massachusetts,MA,"Springfield, MA",44140.0,25011.0,"Franklin County, MA",1339.0,county,"NEW SALEM, MA",NEW SALEM,2501101355.0,29719.0,"New Salem, MA",,,MA_01355,Complete data,True,True,True
01360,01360,88863583.0,2813226.0,+42.6770910,-072.4538758,MA,Massachusetts,25,24843.0,MA_01360,zip code,2.0,345.0,01360,Massachusetts,MA,"Springfield, MA",44140.0,25011.0,"Franklin County, MA",1339.0,county,"NORTHFIELD, MA",NORTHFIELD,2501101360.0,29525.0,"Northfield, MA",,,MA_01360,Complete data,True,True,True
01364,01364,93233135.0,2938571.0,+42.6054372,-072.2920738,MA,Massachusetts,25,24867.0,MA_01364,zip code,2.0,346.0,01364,Massachusetts,MA,"Springfield, MA",44140.0,25011.0,"Franklin County, MA",1339.0,county,"ORANGE, MA",ORANGE,2501101364.0,29645.0,"Orange, MA",,,MA_01364,Complete data,True,True,True
01366,01366,95665864.0,1430310.0,+42.4915830,-072.1808760,MA,Massachusetts,25,24889.0,MA_01366,zip code,2.0,347.0,01366,Massachusetts,MA,"Worcester, MA",49340.0,25027.0,"Worcester County, MA",1347.0,county,"PETERSHAM, MA",PETERSHAM,2502701366.0,36151.0,"Petersham, MA",,,MA_01366,Complete data,True,True,True
01367,01367,63639242.0,1956661.0,+42.6928819,-072.9192436,MA,Massachusetts,25,25039.0,MA_01367,zip code,2.0,348.0,01367,Massachusetts,MA,"Springfield, MA",44140.0,25011.0,"Franklin County, MA",1339.0,county,"ROWE, MA",ROWE,2501101367.0,29599.0,"Rowe, MA",,,MA_01367,Complete data,True,True,True
01368,01368,114793112.0,1835155.0,+42.6766867,-072.1840519,MA,Massachusetts,25,24984.0,MA_01368,zip code,2.0,349.0,01368,Massachusetts,MA,"Worcester, MA",49340.0,25027.0,"Worcester County, MA",1347.0,county,"ROYALSTON, MA",ROYALSTON,2502701368.0,29547.0,"Royalston, MA",,,MA_01368,Complete data,True,True,True
01370,01370,124803349.0,1471465.0,+42.5933756,-072.7269280,MA,Massachusetts,25,24604.0,MA_01370,zip code,2.0,350.0,01370,Massachusetts,MA,"Springfield, MA",44140.0,25011.0,"Franklin County, MA",1339.0,county,"SHELBURNE FALLS, MA",SHELBURNE FALLS,2501101370.0,25270.0,"Shelburne Falls, MA",,,MA_01370,Complete data,True,True,True
01373,01373,59737137.0,1390228.0,+42.4754811,-072.6154028,MA,Massachusetts,25,24972.0,MA_01373,zip code,2.0,351.0,01373,Massachusetts,MA,"Springfield, MA",44140.0,25011.0,"Franklin County, MA",1339.0,county,"SOUTH DEERFIELD, MA",SOUTH DEERFIELD,2501101373.0,25450.0,"South Deerfield, MA",,,MA_01373,Complete data,True,True,True
01375,01375,36466974.0,1338347.0,+42.4666914,-072.5467508,MA,Massachusetts,25,24606.0,MA_01375,zip code,2.0,352.0,01375,Massachusetts,MA,"Springfield, MA",44140.0,25011.0,"Franklin County, MA",1339.0,county,"SUNDERLAND, MA",SUNDERLAND,2501101375.0,29615.0,"Sunderland, MA",,,MA_01375,Complete data,True,True,True
01376,01376,10563996.0,1131367.0,+42.5914405,-072.5446738,MA,Massachusetts,25,24672.0,MA_01376,zip code,2.0,353.0,01376,Massachusetts,MA,"Springfield, MA",44140.0,25011.0,"Franklin County, MA",1339.0,county,"TURNERS FALLS, MA",TURNERS FALLS,2501101376.0,25919.0,"Turners Falls, MA",,,MA_01376,Complete data,True,True,True
01378,01378,96733119.0,807713.0,+42.6799712,-072.3398816,MA,Massachusetts,25,24572.0,MA_01378,zip code,2.0,354.0,01378,Massachusetts,MA,"Springfield, MA",44140.0,25011.0,"Franklin County, MA",1339.0,county,"WARWICK, MA",WARWICK,2501101378.0,29776.0,"Warwick, MA",,,MA_01378,Complete data,True,True,True
01379,01379,55888081.0,519780.0,+42.5278532,-072.3984031,MA,Massachusetts,25,24848.0,MA_01379,zip code,2.0,355.0,01379,Massachusetts,MA,"Springfield, MA",44140.0,25011.0,"Franklin County, MA",1339.0,county,"WENDELL, MA",WENDELL,2501101379.0,29592.0,"Wendell, MA",,,MA_01379,Complete data,True,True,True
01380,01380,16828338.0,267429.0,+42.5884957,-072.4062977,MA,Massachusetts,25,24868.0,MA_01380,zip code,2.0,356.0,01380,Massachusetts,MA,"Springfield, MA",44140.0,25011.0,"Franklin County, MA",1339.0,county,"WENDELL DEPOT, MA",WENDELL DEPOT,2501101380.0,,,,,MA_01380,Complete data,True,True,True
01420,01420,77849203.0,1793220.0,+42.5849248,-071.8168623,MA,Massachusetts,25,24744.0,MA_01420,zip code,2.0,357.0,01420,Massachusetts,MA,"Worcester, MA",49340.0,25027.0,"Worcester County, MA",1347.0,county,"FITCHBURG, MA",FITCHBURG,2502701420.0,6146.0,"Fitchburg, MA",,,MA_01420,Complete data,True,True,True
01430,01430,95158593.0,6040697.0,+42.6730523,-071.9203351,MA,Massachusetts,25,24692.0,MA_01430,zip code,2.0,358.0,01430,Massachusetts,MA,"Worcester, MA",49340.0,25027.0,"Worcester County, MA",1347.0,county,"ASHBURNHAM, MA",ASHBURNHAM,2502701430.0,29724.0,"Ashburnham, MA",,,MA_01430,Complete data,True,True,True
01431,01431,61290670.0,1000254.0,+42.6762927,-071.8325227,MA,Massachusetts,25,24625.0,MA_01431,zip code,2.0,359.0,01431,Massachusetts,MA,"Boston, MA",14454.0,25017.0,"Middlesex County, MA",1342.0,county,"ASHBY, MA",ASHBY,2501701431.0,29693.0,"Ashby, MA",,,MA_01431,Complete data,True,True,True
01432,01432,22065418.0,1268669.0,+42.5665877,-071.5751260,MA,Massachusetts,25,24951.0,MA_01432,zip code,2.0,360.0,01432,Massachusetts,MA,"Boston, MA",14454.0,25017.0,"Middlesex County, MA",1342.0,county,"AYER, MA",AYER,2501701432.0,36090.0,"Ayer, MA",,,MA_01432,Complete data,True,True,True
01434,01434,16865436.0,358223.0,+42.5320600,-071.6137402,MA,Massachusetts,25,25055.0,MA_01434,zip code,2.0,361.0,01434,Massachusetts,MA,"Worcester, MA",49340.0,25027.0,"Worcester County, MA",1347.0,county,"DEVENS, MA",DEVENS,2502701434.0,35863.0,"Devens, MA",,,MA_01434,Complete data,True,True,True
01436,01436,23290961.0,475628.0,+42.6020587,-072.0870149,MA,Massachusetts,25,24928.0,MA_01436,zip code,2.0,362.0,01436,Massachusetts,MA,"Worcester, MA",49340.0,25027.0,"Worcester County, MA",1347.0,county,"BALDWINVILLE, MA",BALDWINVILLE,2502701436.0,21304.0,"Baldwinville, MA",,,MA_01436,Complete data,True,True,True
01438,01438,841004.0,48433.0,+42.5610882,-072.0360744,MA,Massachusetts,25,24700.0,MA_01438,zip code,2.0,363.0,01438,Massachusetts,MA,"Worcester, MA",49340.0,25027.0,"Worcester County, MA",1347.0,county,"EAST TEMPLETON, MA",EAST TEMPLETON,2502701438.0,,,,,MA_01438,Complete data,True,True,True
01440,01440,63470419.0,3252912.0,+42.5883372,-071.9860694,MA,Massachusetts,25,24883.0,MA_01440,zip code,2.0,364.0,01440,Massachusetts,MA,"Worcester, MA",49340.0,25027.0,"Worcester County, MA",1347.0,county,"GARDNER, MA",GARDNER,2502701440.0,6572.0,"Gardner, MA",,,MA_01440,Complete data,True,True,True
01450,01450,84870948.0,2608236.0,+42.6116355,-071.5647433,MA,Massachusetts,25,24784.0,MA_01450,zip code,2.0,366.0,01450,Massachusetts,MA,"Boston, MA",14454.0,25017.0,"Middlesex County, MA",1342.0,county,"GROTON, MA",GROTON,2501701450.0,36116.0,"Groton, MA",,,MA_01450,Complete data,True,True,True
01451,01451,54510950.0,1626301.0,+42.5019084,-071.5682014,MA,Massachusetts,25,24697.0,MA_01451,zip code,2.0,367.0,01451,Massachusetts,MA,"Worcester, MA",49340.0,25027.0,"Worcester County, MA",1347.0,county,"HARVARD, MA",HARVARD,2502701451.0,29550.0,"Harvard, MA",,,MA_01451,Complete data,True,True,True
01452,01452,106347599.0,2404684.0,+42.4951109,-072.0023392,MA,Massachusetts,25,24696.0,MA_01452,zip code,2.0,368.0,01452,Massachusetts,MA,"Worcester, MA",49340.0,25027.0,"Worcester County, MA",1347.0,county,"HUBBARDSTON, MA",HUBBARDSTON,2502701452.0,29790.0,"Hubbardston, MA",,,MA_01452,Complete data,True,True,True
01453,01453,68268345.0,1190779.0,+42.5199674,-071.7633189,MA,Massachusetts,25,25051.0,MA_01453,zip code,2.0,369.0,01453,Massachusetts,MA,"Worcester, MA",49340.0,25027.0,"Worcester County, MA",1347.0,county,"LEOMINSTER, MA",LEOMINSTER,2502701453.0,8925.0,"Leominster, MA",,,MA_01453,Complete data,True,True,True
01460,01460,42797806.0,2555610.0,+42.5359311,-071.4905688,MA,Massachusetts,25,24641.0,MA_01460,zip code,2.0,370.0,01460,Massachusetts,MA,"Boston, MA",14454.0,25017.0,"Middlesex County, MA",1342.0,county,"LITTLETON, MA",LITTLETON,2501701460.0,29647.0,"Littleton, MA",,,MA_01460,Complete data,True,True,True
01462,01462,68937980.0,3516270.0,+42.5826069,-071.7204641,MA,Massachusetts,25,24616.0,MA_01462,zip code,2.0,371.0,01462,Massachusetts,MA,"Worcester, MA",49340.0,25027.0,"Worcester County, MA",1347.0,county,"LUNENBURG, MA",LUNENBURG,2502701462.0,36130.0,"Lunenburg, MA",,,MA_01462,Complete data,True,True,True
01463,01463,58476629.0,1527529.0,+42.6706425,-071.6028575,MA,Massachusetts,25,25018.0,MA_01463,zip code,2.0,372.0,01463,Massachusetts,MA,"Boston, MA",14454.0,25017.0,"Middlesex County, MA",1342.0,county,"PEPPERELL, MA",PEPPERELL,2501701463.0,36150.0,"Pepperell, MA",,,MA_01463,Complete data,True,True,True
01464,01464,39181840.0,204892.0,+42.5736544,-071.6409862,MA,Massachusetts,25,24634.0,MA_01464,zip code,2.0,373.0,01464,Massachusetts,MA,"Boston, MA",14454.0,25017.0,"Middlesex County, MA",1342.0,county,"SHIRLEY, MA",SHIRLEY,2501701464.0,29714.0,"Shirley, MA",,,MA_01464,Complete data,True,True,True
01468,01468,56862898.0,748573.0,+42.5427668,-072.0683447,MA,Massachusetts,25,24695.0,MA_01468,zip code,2.0,375.0,01468,Massachusetts,MA,"Worcester, MA",49340.0,25027.0,"Worcester County, MA",1347.0,county,"TEMPLETON, MA",TEMPLETON,2502701468.0,,,,,MA_01468,Complete data,True,True,True
01469,01469,55987814.0,588020.0,+42.6647942,-071.6950551,MA,Massachusetts,25,25005.0,MA_01469,zip code,2.0,376.0,01469,Massachusetts,MA,"Boston, MA",14454.0,25017.0,"Middlesex County, MA",1342.0,county,"TOWNSEND, MA",TOWNSEND,2501701469.0,36172.0,"Townsend, MA",,,MA_01469,Complete data,True,True,True
01473,01473,91792470.0,4700491.0,+42.5546000,-071.9054402,MA,Massachusetts,25,24858.0,MA_01473,zip code,2.0,380.0,01473,Massachusetts,MA,"Worcester, MA",49340.0,25027.0,"Worcester County, MA",1347.0,county,"WESTMINSTER, MA",WESTMINSTER,2502701473.0,29725.0,"Westminster, MA",,,MA_01473,Complete data,True,True,True
01474,01474,28722287.0,78185.0,+42.6731426,-071.7483778,MA,Massachusetts,25,24782.0,MA_01474,zip code,2.0,381.0,01474,Massachusetts,MA,"Boston, MA",14454.0,25017.0,"Middlesex County, MA",1342.0,county,"WEST TOWNSEND, MA",WEST TOWNSEND,2501701474.0,28738.0,"West Townsend, MA",,,MA_01474,Complete data,True,True,True
01475,01475,110775490.0,2722619.0,+42.6681596,-072.0556441,MA,Massachusetts,25,24591.0,MA_01475,zip code,2.0,382.0,01475,Massachusetts,MA,"Worcester, MA",49340.0,25027.0,"Worcester County, MA",1347.0,county,"WINCHENDON, MA",WINCHENDON,2502701475.0,29548.0,"Winchendon, MA",,,MA_01475,Complete data,True,True,True
01501,01501,39516123.0,2408374.0,+42.1988672,-071.8457222,MA,Massachusetts,25,24766.0,MA_01501,zip code,2.0,384.0,01501,Massachusetts,MA,"Worcester, MA",49340.0,25027.0,"Worcester County, MA",1347.0,county,"AUBURN, MA",AUBURN,2502701501.0,29573.0,"Auburn, MA",,,MA_01501,Complete data,True,True,True
01503,01503,33596174.0,521374.0,+42.3849290,-071.6338895,MA,Massachusetts,25,24690.0,MA_01503,zip code,2.0,385.0,01503,Massachusetts,MA,"Worcester, MA",49340.0,25027.0,"Worcester County, MA",1347.0,county,"BERLIN, MA",BERLIN,2502701503.0,29610.0,"Berlin, MA",,,MA_01503,Complete data,True,True,True
01504,01504,28778366.0,825566.0,+42.0399909,-071.5324059,MA,Massachusetts,25,24995.0,MA_01504,zip code,2.0,386.0,01504,Massachusetts,MA,"Worcester, MA",49340.0,25027.0,"Worcester County, MA",1347.0,county,"BLACKSTONE, MA",BLACKSTONE,2502701504.0,29688.0,"Blackstone, MA",,,MA_01504,Complete data,True,True,True
01505,01505,41588110.0,9568470.0,+42.3550489,-071.7161570,MA,Massachusetts,25,24742.0,MA_01505,zip code,2.0,387.0,01505,Massachusetts,MA,"Worcester, MA",49340.0,25027.0,"Worcester County, MA",1347.0,county,"BOYLSTON, MA",BOYLSTON,2502701505.0,29531.0,"Boylston, MA",,,MA_01505,Complete data,True,True,True
01506,01506,40214973.0,2736279.0,+42.1808069,-072.1078882,MA,Massachusetts,25,24694.0,MA_01506,zip code,2.0,388.0,01506,Massachusetts,MA,"Worcester, MA",49340.0,25027.0,"Worcester County, MA",1347.0,county,"BROOKFIELD, MA",BROOKFIELD,2502701506.0,29746.0,"Brookfield, MA",,,MA_01506,Complete data,True,True,True
01507,01507,109245583.0,4175565.0,+42.1339347,-071.9680247,MA,Massachusetts,25,24751.0,MA_01507,zip code,2.0,389.0,01507,Massachusetts,MA,"Worcester, MA",49340.0,25027.0,"Worcester County, MA",1347.0,county,"CHARLTON, MA",CHARLTON,2502701507.0,29633.0,"Charlton, MA",,,MA_01507,Complete data,True,True,True
01510,01510,14640558.0,4164487.0,+42.4118873,-071.6900054,MA,Massachusetts,25,24886.0,MA_01510,zip code,2.0,392.0,01510,Massachusetts,MA,"Worcester, MA",49340.0,25027.0,"Worcester County, MA",1347.0,county,"CLINTON, MA",CLINTON,2502701510.0,29798.0,"Clinton, MA",,,MA_01510,Complete data,True,True,True
01515,01515,25547239.0,1447145.0,+42.2096822,-072.0401777,MA,Massachusetts,25,24888.0,MA_01515,zip code,2.0,393.0,01515,Massachusetts,MA,"Worcester, MA",49340.0,25027.0,"Worcester County, MA",1347.0,county,"EAST BROOKFIELD, MA",EAST BROOKFIELD,2502701515.0,36108.0,"East Brookfield, MA",,,MA_01515,Complete data,True,True,True
01516,01516,94928634.0,4069108.0,+42.0530722,-071.7522414,MA,Massachusetts,25,24891.0,MA_01516,zip code,2.0,394.0,01516,Massachusetts,MA,"Worcester, MA",49340.0,25027.0,"Worcester County, MA",1347.0,county,"DOUGLAS, MA",DOUGLAS,2502701516.0,29820.0,"Douglas, MA",,,MA_01516,Complete data,True,True,True
01518,01518,31698827.0,1929648.0,+42.1083252,-072.1136924,MA,Massachusetts,25,24749.0,MA_01518,zip code,2.0,396.0,01518,Massachusetts,MA,"Worcester, MA",49340.0,25027.0,"Worcester County, MA",1347.0,county,"FISKDALE, MA",FISKDALE,2502701518.0,22630.0,"Fiskdale, MA",,,MA_01518,Complete data,True,True,True
01519,01519,27660071.0,269606.0,+42.2034045,-071.6797386,MA,Massachusetts,25,24767.0,MA_01519,zip code,2.0,397.0,01519,Massachusetts,MA,"Worcester, MA",49340.0,25027.0,"Worcester County, MA",1347.0,county,"GRAFTON, MA",GRAFTON,2502701519.0,29762.0,"Grafton, MA",,,MA_01519,Complete data,True,True,True
01520,01520,48758151.0,1804951.0,+42.3341765,-071.8542770,MA,Massachusetts,25,24688.0,MA_01520,zip code,2.0,398.0,01520,Massachusetts,MA,"Worcester, MA",49340.0,25027.0,"Worcester County, MA",1347.0,county,"HOLDEN, MA",HOLDEN,2502701520.0,29578.0,"Holden, MA",,,MA_01520,Complete data,True,True,True
01521,01521,31811487.0,1990947.0,+42.0467834,-072.1802118,MA,Massachusetts,25,24895.0,MA_01521,zip code,2.0,399.0,01521,Massachusetts,MA,"Springfield, MA",44140.0,25013.0,"Hampden County, MA",1340.0,county,"HOLLAND, MA",HOLLAND,2501301521.0,29699.0,"Holland, MA",,,MA_01521,Complete data,True,True,True
01522,01522,40623184.0,1398432.0,+42.3756339,-071.8673822,MA,Massachusetts,25,24877.0,MA_01522,zip code,2.0,400.0,01522,Massachusetts,MA,"Worcester, MA",49340.0,25027.0,"Worcester County, MA",1347.0,county,"JEFFERSON, MA",JEFFERSON,2502701522.0,,,,,MA_01522,Complete data,True,True,True
01523,01523,71046579.0,1369689.0,+42.4835693,-071.6755848,MA,Massachusetts,25,24885.0,MA_01523,zip code,2.0,401.0,01523,Massachusetts,MA,"Worcester, MA",49340.0,25027.0,"Worcester County, MA",1347.0,county,"LANCASTER, MA",LANCASTER,2502701523.0,29557.0,"Lancaster, MA",,,MA_01523,Complete data,True,True,True
01524,01524,41177673.0,2494809.0,+42.2460288,-071.9175657,MA,Massachusetts,25,24857.0,MA_01524,zip code,2.0,402.0,01524,Massachusetts,MA,"Worcester, MA",49340.0,25027.0,"Worcester County, MA",1347.0,county,"LEICESTER, MA",LEICESTER,2502701524.0,29780.0,"Leicester, MA",,,MA_01524,Complete data,True,True,True
01525,01525,32991.0,0.0,+42.0989953,-071.6429643,MA,Massachusetts,25,24941.0,MA_01525,,,,,,,,,,,,,,,,,,,,,Census only,True,False,True
01527,01527,40346574.0,1851306.0,+42.1922464,-071.7776490,MA,Massachusetts,25,24898.0,MA_01527,zip code,2.0,405.0,01527,Massachusetts,MA,"Worcester, MA",49340.0,25027.0,"Worcester County, MA",1347.0,county,"MILLBURY, MA",MILLBURY,2502701527.0,29560.0,"Millbury, MA",,,MA_01527,Complete data,True,True,True
01529,01529,12592203.0,143333.0,+42.0366420,-071.5787791,MA,Massachusetts,25,25070.0,MA_01529,zip code,2.0,406.0,01529,Massachusetts,MA,"Worcester, MA",49340.0,25027.0,"Worcester County, MA",1347.0,county,"MILLVILLE, MA",MILLVILLE,2502701529.0,29799.0,"Millville, MA",,,MA_01529,Complete data,True,True,True
01531,01531,53773155.0,403233.0,+42.3261830,-072.1334314,MA,Massachusetts,25,24614.0,MA_01531,zip code,2.0,407.0,01531,Massachusetts,MA,"Worcester, MA",49340.0,25027.0,"Worcester County, MA",1347.0,county,"NEW BRAINTREE, MA",NEW BRAINTREE,2502701531.0,29831.0,"New Braintree, MA",,,MA_01531,Complete data,True,True,True
01532,01532,47842598.0,705494.0,+42.3233423,-071.6462358,MA,Massachusetts,25,24622.0,MA_01532,zip code,2.0,408.0,01532,Massachusetts,MA,"Worcester, MA",49340.0,25027.0,"Worcester County, MA",1347.0,county,"NORTHBOROUGH, MA",NORTHBOROUGH,2502701532.0,36142.0,"Northborough, MA",,,MA_01532,Complete data,True,True,True
01534,01534,24642816.0,410284.0,+42.1388960,-071.6450035,MA,Massachusetts,25,25064.0,MA_01534,zip code,2.0,409.0,01534,Massachusetts,MA,"Worcester, MA",49340.0,25027.0,"Worcester County, MA",1347.0,county,"NORTHBRIDGE, MA",NORTHBRIDGE,2502701534.0,29815.0,"Northbridge, MA",,,MA_01534,Complete data,True,True,True
01535,01535,55085966.0,1756793.0,+42.2675643,-072.0668759,MA,Massachusetts,25,24588.0,MA_01535,zip code,2.0,410.0,01535,Massachusetts,MA,"Worcester, MA",49340.0,25027.0,"Worcester County, MA",1347.0,county,"NORTH BROOKFIELD, MA",NORTH BROOKFIELD,2502701535.0,29723.0,"North Brookfield, MA",,,MA_01535,Complete data,True,True,True
01536,01536,22174300.0,767238.0,+42.2313092,-071.6926418,MA,Massachusetts,25,25054.0,MA_01536,zip code,2.0,411.0,01536,Massachusetts,MA,"Worcester, MA",49340.0,25027.0,"Worcester County, MA",1347.0,county,"NORTH GRAFTON, MA",NORTH GRAFTON,2502701536.0,,,,,MA_01536,Complete data,True,True,True
01537,01537,17638391.0,295298.0,+42.1589660,-071.8970514,MA,Massachusetts,25,24931.0,MA_01537,zip code,2.0,412.0,01537,Massachusetts,MA,"Worcester, MA",49340.0,25027.0,"Worcester County, MA",1347.0,county,"NORTH OXFORD, MA",NORTH OXFORD,2502701537.0,,,,,MA_01537,Complete data,True,True,True
01540,01540,49476950.0,2032053.0,+42.1137272,-071.8608497,MA,Massachusetts,25,24892.0,MA_01540,zip code,2.0,414.0,01540,Massachusetts,MA,"Worcester, MA",49340.0,25027.0,"Worcester County, MA",1347.0,county,"OXFORD, MA",OXFORD,2502701540.0,29727.0,"Oxford, MA",,,MA_01540,Complete data,True,True,True
01541,01541,91767894.0,1032232.0,+42.4541251,-071.8775397,MA,Massachusetts,25,24613.0,MA_01541,zip code,2.0,415.0,01541,Massachusetts,MA,"Worcester, MA",49340.0,25027.0,"Worcester County, MA",1347.0,county,"PRINCETON, MA",PRINCETON,2502701541.0,29558.0,"Princeton, MA",,,MA_01541,Complete data,True,True,True
01542,01542,10911676.0,423530.0,+42.2042515,-071.9089069,MA,Massachusetts,25,25048.0,MA_01542,zip code,2.0,416.0,01542,Massachusetts,MA,"Worcester, MA",49340.0,25027.0,"Worcester County, MA",1347.0,county,"ROCHDALE, MA",ROCHDALE,2502701542.0,,,,,MA_01542,Complete data,True,True,True
01543,01543,90974489.0,2946993.0,+42.3882849,-071.9698654,MA,Massachusetts,25,24689.0,MA_01543,zip code,2.0,417.0,01543,Massachusetts,MA,"Worcester, MA",49340.0,25027.0,"Worcester County, MA",1347.0,county,"RUTLAND, MA",RUTLAND,2502701543.0,29603.0,"Rutland, MA",,,MA_01543,Complete data,True,True,True
01545,01545,53769508.0,2753868.0,+42.2847672,-071.7142277,MA,Massachusetts,25,24743.0,MA_01545,zip code,2.0,418.0,01545,Massachusetts,MA,"Worcester, MA",49340.0,25027.0,"Worcester County, MA",1347.0,county,"SHREWSBURY, MA",SHREWSBURY,2502701545.0,29793.0,"Shrewsbury, MA",,,MA_01545,Complete data,True,True,True
01550,01550,52416906.0,1612919.0,+42.0597374,-072.0339083,MA,Massachusetts,25,24987.0,MA_01550,zip code,2.0,420.0,01550,Massachusetts,MA,"Worcester, MA",49340.0,25027.0,"Worcester County, MA",1347.0,county,"SOUTHBRIDGE, MA",SOUTHBRIDGE,2502701550.0,29740.0,"Southbridge, MA",,,MA_01550,Complete data,True,True,True
01560,01560,9225422.0,261394.0,+42.1753945,-071.6742228,MA,Massachusetts,25,24624.0,MA_01560,zip code,2.0,421.0,01560,Massachusetts,MA,"Worcester, MA",49340.0,25027.0,"Worcester County, MA",1347.0,county,"SOUTH GRAFTON, MA",SOUTH GRAFTON,2502701560.0,,,,,MA_01560,Complete data,True,True,True
01561,01561,97580.0,0.0,+42.4458253,-071.6884837,MA,Massachusetts,25,24859.0,MA_01561,zip code,2.0,422.0,01561,Massachusetts,MA,"Worcester, MA",49340.0,25027.0,"Worcester County, MA",1347.0,county,"SOUTH LANCASTER, MA",SOUTH LANCASTER,2502701561.0,25513.0,"South Lancaster, MA",,,MA_01561,Complete data,True,True,True
01562,01562,85083515.0,3000280.0,+42.2472111,-071.9918667,MA,Massachusetts,25,24739.0,MA_01562,zip code,2.0,423.0,01562,Massachusetts,MA,"Worcester, MA",49340.0,25027.0,"Worcester County, MA",1347.0,county,"SPENCER, MA",SPENCER,2502701562.0,29549.0,"Spencer, MA",,,MA_01562,Complete data,True,True,True
01564,01564,79295016.0,2752995.0,+42.4479239,-071.7760449,MA,Massachusetts,25,25047.0,MA_01564,zip code,2.0,424.0,01564,Massachusetts,MA,"Worcester, MA",49340.0,25027.0,"Worcester County, MA",1347.0,county,"STERLING, MA",STERLING,2502701564.0,29595.0,"Sterling, MA",,,MA_01564,Complete data,True,True,True
01566,01566,64729953.0,2567913.0,+42.1032138,-072.0795453,MA,Massachusetts,25,24748.0,MA_01566,zip code,2.0,425.0,01566,Massachusetts,MA,"Worcester, MA",49340.0,25027.0,"Worcester County, MA",1347.0,county,"STURBRIDGE, MA",STURBRIDGE,2502701566.0,29687.0,"Sturbridge, MA",,,MA_01566,Complete data,True,True,True
01568,01568,54950659.0,610404.0,+42.1775289,-071.6063217,MA,Massachusetts,25,24896.0,MA_01568,zip code,2.0,426.0,01568,Massachusetts,MA,"Worcester, MA",49340.0,25027.0,"Worcester County, MA",1347.0,county,"UPTON, MA",UPTON,2502701568.0,36173.0,"Upton, MA",,,MA_01568,Complete data,True,True,True
01569,01569,76100984.0,1453221.0,+42.0559208,-071.6311281,MA,Massachusetts,25,24939.0,MA_01569,zip code,2.0,427.0,01569,Massachusetts,MA,"Worcester, MA",49340.0,25027.0,"Worcester County, MA",1347.0,county,"UXBRIDGE, MA",UXBRIDGE,2502701569.0,29555.0,"Uxbridge, MA",,,MA_01569,Complete data,True,True,True
01570,01570,32005106.0,5800437.0,+42.0492529,-071.8462187,MA,Massachusetts,25,25057.0,MA_01570,zip code,2.0,428.0,01570,Massachusetts,MA,"Worcester, MA",49340.0,25027.0,"Worcester County, MA",1347.0,county,"WEBSTER, MA",WEBSTER,2502701570.0,36179.0,"Webster, MA",,,MA_01570,Complete data,True,True,True
01571,01571,53955588.0,2742338.0,+42.0537777,-071.9350751,MA,Massachusetts,25,24750.0,MA_01571,zip code,2.0,429.0,01571,Massachusetts,MA,"Worcester, MA",49340.0,25027.0,"Worcester County, MA",1347.0,county,"DUDLEY, MA",DUDLEY,2502701571.0,29608.0,"Dudley, MA",,,MA_01571,Complete data,True,True,True
01581,01581,53369114.0,2228712.0,+42.2684262,-071.6133087,MA,Massachusetts,25,25053.0,MA_01581,zip code,2.0,431.0,01581,Massachusetts,MA,"Worcester, MA",49340.0,25027.0,"Worcester County, MA",1347.0,county,"WESTBOROUGH, MA",WESTBOROUGH,2502701581.0,36181.0,"Westborough, MA",,,MA_01581,Complete data,True,True,True
01583,01583,32572779.0,2356117.0,+42.3753571,-071.7893634,MA,Massachusetts,25,24878.0,MA_01583,zip code,2.0,433.0,01583,Massachusetts,MA,"Worcester, MA",49340.0,25027.0,"Worcester County, MA",1347.0,county,"WEST BOYLSTON, MA",WEST BOYLSTON,2502701583.0,29587.0,"West Boylston, MA",,,MA_01583,Complete data,True,True,True
01585,01585,72712691.0,1671206.0,+42.2369082,-072.1622211,MA,Massachusetts,25,24880.0,MA_01585,zip code,2.0,434.0,01585,Massachusetts,MA,"Worcester, MA",49340.0,25027.0,"Worcester County, MA",1347.0,county,"WEST BROOKFIELD, MA",WEST BROOKFIELD,2502701585.0,29527.0,"West Brookfield, MA",,,MA_01585,Complete data,True,True,True
01588,01588,20962839.0,1821316.0,+42.1161081,-071.6646140,MA,Massachusetts,25,24621.0,MA_01588,zip code,2.0,436.0,01588,Massachusetts,MA,"Worcester, MA",49340.0,25027.0,"Worcester County, MA",1347.0,county,"WHITINSVILLE, MA",WHITINSVILLE,2502701588.0,26515.0,"Whitinsville, MA",,,MA_01588,Complete data,True,True,True
01590,01590,84104402.0,4002855.0,+42.1320512,-071.7503180,MA,Massachusetts,25,24808.0,MA_01590,zip code,2.0,437.0,01590,Massachusetts,MA,"Worcester, MA",49340.0,25027.0,"Worcester County, MA",1347.0,county,"SUTTON, MA",SUTTON,2502701590.0,29718.0,"Sutton, MA",,,MA_01590,Complete data,True,True,True
01602,01602,15096694.0,631588.0,+42.2691885,-071.8507275,MA,Massachusetts,25,24587.0,MA_01602,zip code,2.0,439.0,01602,Massachusetts,MA,"Worcester, MA",49340.0,25027.0,"Worcester County, MA",1347.0,county,"WORCESTER, MA",WORCESTER,2502701602.0,20420.0,"Worcester, MA",,,MA_01602,Complete data,True,True,True
01603,01603,11731249.0,332402.0,+42.2438264,-071.8435694,MA,Massachusetts,25,24738.0,MA_01603,zip code,2.0,440.0,01603,Massachusetts,MA,"Worcester, MA",49340.0,25027.0,"Worcester County, MA",1347.0,county,"WORCESTER, MA",WORCESTER,2502701603.0,20420.0,"Worcester, MA",,,MA_01603,Complete data,True,True,True
01604,01604,17180827.0,427645.0,+42.2534854,-071.7679315,MA,Massachusetts,25,25046.0,MA_01604,zip code,2.0,441.0,01604,Massachusetts,MA,"Worcester, MA",49340.0,25027.0,"Worcester County, MA",1347.0,county,"WORCESTER, MA",WORCESTER,2502701604.0,20420.0,"Worcester, MA",,,MA_01604,Complete data,True,True,True
01605,01605,14643875.0,341303.0,+42.2896832,-071.7877932,MA,Massachusetts,25,24854.0,MA_01605,zip code,2.0,442.0,01605,Massachusetts,MA,"Worcester, MA",49340.0,25027.0,"Worcester County, MA",1347.0,county,"WORCESTER, MA",WORCESTER,2502701605.0,20420.0,"Worcester, MA",,,MA_01605,Complete data,True,True,True
01606,01606,15507690.0,777294.0,+42.3138874,-071.7941853,MA,Massachusetts,25,24978.0,MA_01606,zip code,2.0,443.0,01606,Massachusetts,MA,"Worcester, MA",49340.0,25027.0,"Worcester County, MA",1347.0,county,"WORCESTER, MA",WORCESTER,2502701606.0,20420.0,"Worcester, MA",,,MA_01606,Complete data,True,True,True
01607,01607,7838278.0,137282.0,+42.2259743,-071.7888936,MA,Massachusetts,25,24855.0,MA_01607,zip code,2.0,444.0,01607,Massachusetts,MA,"Worcester, MA",49340.0,25027.0,"Worcester County, MA",1347.0,county,"WORCESTER, MA",WORCESTER,2502701607.0,20420.0,"Worcester, MA",,,MA_01607,Complete data,True,True,True
01608,01608,1247109.0,0.0,+42.2620903,-071.8014282,MA,Massachusetts,25,24881.0,MA_01608,zip code,2.0,445.0,01608,Massachusetts,MA,"Worcester, MA",49340.0,25027.0,"Worcester County, MA",1347.0,county,"WORCESTER, MA",WORCESTER,2502701608.0,20420.0,"Worcester, MA",,,MA_01608,Complete data,True,True,True
01609,01609,9670694.0,56961.0,+42.2851138,-071.8299870,MA,Massachusetts,25,24856.0,MA_01609,zip code,2.0,446.0,01609,Massachusetts,MA,"Worcester, MA",49340.0,25027.0,"Worcester County, MA",1347.0,county,"WORCESTER, MA",WORCESTER,2502701609.0,20420.0,"Worcester, MA",,,MA_01609,Complete data,True,True,True
01610,01610,5522924.0,13856.0,+42.2470490,-071.8083657,MA,Massachusetts,25,24879.0,MA_01610,zip code,2.0,447.0,01610,Massachusetts,MA,"Worcester, MA",49340.0,25027.0,"Worcester County, MA",1347.0,county,"WORCESTER, MA",WORCESTER,2502701610.0,20420.0,"Worcester, MA",,,MA_01610,Complete data,True,True,True
01611,01611,8851609.0,647541.0,+42.2409772,-071.8770349,MA,Massachusetts,25,25068.0,MA_01611,zip code,2.0,448.0,01611,Massachusetts,MA,"Worcester, MA",49340.0,25027.0,"Worcester County, MA",1347.0,county,"CHERRY VALLEY, MA",CHERRY VALLEY,2502701611.0,,,,,MA_01611,Complete data,True,True,True
01612,01612,39529248.0,1981211.0,+42.2967977,-071.9289911,MA,Massachusetts,25,24586.0,MA_01612,zip code,2.0,449.0,01612,Massachusetts,MA,"Worcester, MA",49340.0,25027.0,"Worcester County, MA",1347.0,county,"PAXTON, MA",PAXTON,2502701612.0,29800.0,"Paxton, MA",,,MA_01612,Complete data,True,True,True
01701,01701,43741623.0,1611795.0,+42.3195867,-071.4428004,MA,Massachusetts,25,24771.0,MA_01701,zip code,2.0,456.0,01701,Massachusetts,MA,"Boston, MA",14454.0,25017.0,"Middlesex County, MA",1342.0,county,"FRAMINGHAM, MA",FRAMINGHAM,2501701701.0,29626.0,"Framingham, MA",,,MA_01701,Complete data,True,True,True
01702,01702,21266303.0,2172804.0,+42.2823790,-071.4366226,MA,Massachusetts,25,24718.0,MA_01702,zip code,2.0,457.0,01702,Massachusetts,MA,"Boston, MA",14454.0,25017.0,"Middlesex County, MA",1342.0,county,"FRAMINGHAM, MA",FRAMINGHAM,2501701702.0,29626.0,"Framingham, MA",,,MA_01702,Complete data,True,True,True
01718,01718,357026.0,10651.0,+42.5228158,-071.4302706,MA,Massachusetts,25,24949.0,MA_01718,zip code,2.0,461.0,01718,Massachusetts,MA,"Boston, MA",14454.0,25017.0,"Middlesex County, MA",1342.0,county,"ACTON, MA",ACTON,2501701718.0,29620.0,"Acton, MA",,,MA_01718,Complete data,True,True,True
01719,01719,26636068.0,317226.0,+42.4859849,-071.5209848,MA,Massachusetts,25,24817.0,MA_01719,zip code,2.0,462.0,01719,Massachusetts,MA,"Boston, MA",14454.0,25017.0,"Middlesex County, MA",1342.0,county,"BOXBOROUGH, MA",BOXBOROUGH,2501701719.0,29833.0,"Boxborough, MA",,,MA_01719,Complete data,True,True,True
01720,01720,50822179.0,1103758.0,+42.4839530,-071.4384947,MA,Massachusetts,25,24723.0,MA_01720,zip code,2.0,463.0,01720,Massachusetts,MA,"Boston, MA",14454.0,25017.0,"Middlesex County, MA",1342.0,county,"ACTON, MA",ACTON,2501701720.0,29620.0,"Acton, MA",,,MA_01720,Complete data,True,True,True
01721,01721,31954434.0,1389649.0,+42.2577546,-071.4735257,MA,Massachusetts,25,24716.0,MA_01721,zip code,2.0,464.0,01721,Massachusetts,MA,"Boston, MA",14454.0,25017.0,"Middlesex County, MA",1342.0,county,"ASHLAND, MA",ASHLAND,2501701721.0,29747.0,"Ashland, MA",,,MA_01721,Complete data,True,True,True
01730,01730,32232234.0,434495.0,+42.4993324,-071.2819012,MA,Massachusetts,25,24779.0,MA_01730,zip code,2.0,465.0,01730,Massachusetts,MA,"Boston, MA",14454.0,25017.0,"Middlesex County, MA",1342.0,county,"BEDFORD, MA",BEDFORD,2501701730.0,29655.0,"Bedford, MA",,,MA_01730,Complete data,True,True,True
01731,01731,6053081.0,13757.0,+42.4646484,-071.2848296,MA,Massachusetts,25,24950.0,MA_01731,,,,,,,,,,,,,,,,,,,,,Census only,True,False,True
01740,01740,51659942.0,345877.0,+42.4399331,-071.6018846,MA,Massachusetts,25,24745.0,MA_01740,zip code,2.0,467.0,01740,Massachusetts,MA,"Worcester, MA",49340.0,25027.0,"Worcester County, MA",1347.0,county,"BOLTON, MA",BOLTON,2502701740.0,,,,,MA_01740,Complete data,True,True,True
01741,01741,39560501.0,646536.0,+42.5368071,-071.3613240,MA,Massachusetts,25,24639.0,MA_01741,zip code,2.0,468.0,01741,Massachusetts,MA,"Boston, MA",14454.0,25017.0,"Middlesex County, MA",1342.0,county,"CARLISLE, MA",CARLISLE,2501701741.0,29792.0,"Carlisle, MA",,,MA_01741,Complete data,True,True,True
01742,01742,62482967.0,3365809.0,+42.4629107,-071.3644962,MA,Massachusetts,25,24822.0,MA_01742,zip code,2.0,469.0,01742,Massachusetts,MA,"Boston, MA",14454.0,25017.0,"Middlesex County, MA",1342.0,county,"CONCORD, MA",CONCORD,2501701742.0,29674.0,"Concord, MA",,,MA_01742,Complete data,True,True,True
01745,01745,1009855.0,3023.0,+42.2921140,-071.4991971,MA,Massachusetts,25,24768.0,MA_01745,zip code,2.0,470.0,01745,Massachusetts,MA,"Worcester, MA",49340.0,25027.0,"Worcester County, MA",1347.0,county,"FAYVILLE, MA",FAYVILLE,2502701745.0,,,,,MA_01745,Complete data,True,True,True
01746,01746,48312729.0,1035601.0,+42.1959508,-071.4534301,MA,Massachusetts,25,25008.0,MA_01746,zip code,2.0,471.0,01746,Massachusetts,MA,"Boston, MA",14454.0,25017.0,"Middlesex County, MA",1342.0,county,"HOLLISTON, MA",HOLLISTON,2501701746.0,29682.0,"Holliston, MA",,,MA_01746,Complete data,True,True,True
01747,01747,13403958.0,443734.0,+42.1230066,-071.5314040,MA,Massachusetts,25,24710.0,MA_01747,zip code,2.0,472.0,01747,Massachusetts,MA,"Worcester, MA",49340.0,25027.0,"Worcester County, MA",1347.0,county,"HOPEDALE, MA",HOPEDALE,2502701747.0,36121.0,"Hopedale, MA",,,MA_01747,Complete data,True,True,True
01748,01748,67924822.0,4218481.0,+42.2240957,-071.5404885,MA,Massachusetts,25,24952.0,MA_01748,zip code,2.0,473.0,01748,Massachusetts,MA,"Boston, MA",14454.0,25017.0,"Middlesex County, MA",1342.0,county,"HOPKINTON, MA",HOPKINTON,2501701748.0,36122.0,"Hopkinton, MA",,,MA_01748,Complete data,True,True,True
01749,01749,29858111.0,874321.0,+42.3890712,-071.5458637,MA,Massachusetts,25,25085.0,MA_01749,zip code,2.0,474.0,01749,Massachusetts,MA,"Boston, MA",14454.0,25017.0,"Middlesex County, MA",1342.0,county,"HUDSON, MA",HUDSON,2501701749.0,29707.0,"Hudson, MA",,,MA_01749,Complete data,True,True,True
01752,01752,54038662.0,3204061.0,+42.3496175,-071.5472140,MA,Massachusetts,25,24727.0,MA_01752,zip code,2.0,475.0,01752,Massachusetts,MA,"Boston, MA",14454.0,25017.0,"Middlesex County, MA",1342.0,county,"MARLBOROUGH, MA",MARLBOROUGH,2501701752.0,9821.0,"Marlborough, MA",,,MA_01752,Complete data,True,True,True
01754,01754,13463058.0,403014.0,+42.4259551,-071.4562562,MA,Massachusetts,25,24724.0,MA_01754,zip code,2.0,476.0,01754,Massachusetts,MA,"Boston, MA",14454.0,25017.0,"Middlesex County, MA",1342.0,county,"MAYNARD, MA",MAYNARD,2501701754.0,36134.0,"Maynard, MA",,,MA_01754,Complete data,True,True,True
01756,01756,46027756.0,553484.0,+42.0938697,-071.5445190,MA,Massachusetts,25,24707.0,MA_01756,zip code,2.0,477.0,01756,Massachusetts,MA,"Worcester, MA",49340.0,25027.0,"Worcester County, MA",1347.0,county,"MENDON, MA",MENDON,2502701756.0,29654.0,"Mendon, MA",,,MA_01756,Complete data,True,True,True
01757,01757,39197303.0,706132.0,+42.1586917,-071.5214188,MA,Massachusetts,25,24765.0,MA_01757,zip code,2.0,478.0,01757,Massachusetts,MA,"Worcester, MA",49340.0,25027.0,"Worcester County, MA",1347.0,county,"MILFORD, MA",MILFORD,2502701757.0,29690.0,"Milford, MA",,,MA_01757,Complete data,True,True,True
01760,01760,38282076.0,2585716.0,+42.2848223,-071.3488109,MA,Massachusetts,25,24632.0,MA_01760,zip code,2.0,479.0,01760,Massachusetts,MA,"Boston, MA",14454.0,25017.0,"Middlesex County, MA",1342.0,county,"NATICK, MA",NATICK,2501701760.0,29757.0,"Natick, MA",,,MA_01760,Complete data,True,True,True
01770,01770,40890896.0,952549.0,+42.2319469,-071.3729634,MA,Massachusetts,25,24635.0,MA_01770,zip code,2.0,480.0,01770,Massachusetts,MA,"Boston, MA",14454.0,25017.0,"Middlesex County, MA",1342.0,county,"SHERBORN, MA",SHERBORN,2501701770.0,29708.0,"Sherborn, MA",,,MA_01770,Complete data,True,True,True
01772,01772,35261324.0,3917459.0,+42.3028765,-071.5308277,MA,Massachusetts,25,25067.0,MA_01772,zip code,2.0,481.0,01772,Massachusetts,MA,"Worcester, MA",49340.0,25027.0,"Worcester County, MA",1347.0,county,"SOUTHBOROUGH, MA",SOUTHBOROUGH,2502701772.0,29828.0,"Southborough, MA",,,MA_01772,Complete data,True,True,True
01773,01773,35904237.0,2003910.0,+42.4255064,-071.3108115,MA,Massachusetts,25,24926.0,MA_01773,zip code,2.0,482.0,01773,Massachusetts,MA,"Boston, MA",14454.0,25017.0,"Middlesex County, MA",1342.0,county,"LINCOLN, MA",LINCOLN,2501701773.0,29685.0,"Lincoln, MA",,,MA_01773,Complete data,True,True,True
01775,01775,44897979.0,1744679.0,+42.4296884,-071.5125140,MA,Massachusetts,25,24764.0,MA_01775,zip code,2.0,483.0,01775,Massachusetts,MA,"Boston, MA",14454.0,25017.0,"Middlesex County, MA",1342.0,county,"STOW, MA",STOW,2501701775.0,29751.0,"Stow, MA",,,MA_01775,Complete data,True,True,True
01776,01776,63212002.0,1235073.0,+42.3833674,-071.4210704,MA,Massachusetts,25,24777.0,MA_01776,zip code,2.0,484.0,01776,Massachusetts,MA,"Boston, MA",14454.0,25017.0,"Middlesex County, MA",1342.0,county,"SUDBURY, MA",SUDBURY,2501701776.0,29829.0,"Sudbury, MA",,,MA_01776,Complete data,True,True,True
01778,01778,38930950.0,2109229.0,+42.3562749,-071.3619421,MA,Massachusetts,25,24821.0,MA_01778,zip code,2.0,485.0,01778,Massachusetts,MA,"Boston, MA",14454.0,25017.0,"Middlesex County, MA",1342.0,county,"WAYLAND, MA",WAYLAND,2501701778.0,29624.0,"Wayland, MA",,,MA_01778,Complete data,True,True,True
01801,01801,32909892.0,756650.0,+42.4887033,-071.1543831,MA,Massachusetts,25,24726.0,MA_01801,zip code,2.0,487.0,01801,Massachusetts,MA,"Boston, MA",14454.0,25017.0,"Middlesex County, MA",1342.0,county,"WOBURN, MA",WOBURN,2501701801.0,20294.0,"Woburn, MA",,,MA_01801,Complete data,True,True,True
01803,01803,29193384.0,286288.0,+42.5032267,-071.2017130,MA,Massachusetts,25,24642.0,MA_01803,zip code,2.0,488.0,01803,Massachusetts,MA,"Boston, MA",14454.0,25017.0,"Middlesex County, MA",1342.0,county,"BURLINGTON, MA",BURLINGTON,2501701803.0,36100.0,"Burlington, MA",,,MA_01803,Complete data,True,True,True
01810,01810,79050294.0,3442657.0,+42.6480437,-071.1617514,MA,Massachusetts,25,24945.0,MA_01810,zip code,2.0,493.0,01810,Massachusetts,MA,"Boston, MA",14454.0,25009.0,"Essex County, MA",1338.0,county,"ANDOVER, MA",ANDOVER,2500901810.0,29580.0,"Andover, MA",,,MA_01810,Complete data,True,True,True
01821,01821,42972051.0,1044539.0,+42.5493295,-071.2517245,MA,Massachusetts,25,25013.0,MA_01821,zip code,2.0,497.0,01821,Massachusetts,MA,"Boston, MA",14454.0,25017.0,"Middlesex County, MA",1342.0,county,"BILLERICA, MA",BILLERICA,2501701821.0,29563.0,"Billerica, MA",,,MA_01821,Complete data,True,True,True
01824,01824,46780800.0,997373.0,+42.5907900,-071.3551823,MA,Massachusetts,25,24629.0,MA_01824,zip code,2.0,499.0,01824,Massachusetts,MA,"Boston, MA",14454.0,25017.0,"Middlesex County, MA",1342.0,county,"CHELMSFORD, MA",CHELMSFORD,2501701824.0,29646.0,"Chelmsford, MA",,,MA_01824,Complete data,True,True,True
01826,01826,53831286.0,1936242.0,+42.6797230,-071.3006796,MA,Massachusetts,25,25003.0,MA_01826,zip code,2.0,500.0,01826,Massachusetts,MA,"Boston, MA",14454.0,25017.0,"Middlesex County, MA",1342.0,county,"DRACUT, MA",DRACUT,2501701826.0,29583.0,"Dracut, MA",,,MA_01826,Complete data,True,True,True
01827,01827,42621746.0,771479.0,+42.6761491,-071.4997715,MA,Massachusetts,25,25019.0,MA_01827,zip code,2.0,501.0,01827,Massachusetts,MA,"Boston, MA",14454.0,25017.0,"Middlesex County, MA",1342.0,county,"DUNSTABLE, MA",DUNSTABLE,2501701827.0,29754.0,"Dunstable, MA",,,MA_01827,Complete data,True,True,True
01830,01830,35919008.0,3404235.0,+42.7963128,-071.0534357,MA,Massachusetts,25,24944.0,MA_01830,zip code,2.0,502.0,01830,Massachusetts,MA,"Boston, MA",14454.0,25009.0,"Essex County, MA",1338.0,county,"HAVERHILL, MA",HAVERHILL,2500901830.0,7494.0,"Haverhill, MA",,,MA_01830,Complete data,True,True,True
01832,01832,29415737.0,1254633.0,+42.7911140,-071.1328585,MA,Massachusetts,25,25073.0,MA_01832,zip code,2.0,504.0,01832,Massachusetts,MA,"Boston, MA",14454.0,25009.0,"Essex County, MA",1338.0,county,"HAVERHILL, MA",HAVERHILL,2500901832.0,7494.0,"Haverhill, MA",,,MA_01832,Complete data,True,True,True
01833,01833,33214886.0,746648.0,+42.7262256,-070.9833179,MA,Massachusetts,25,24628.0,MA_01833,zip code,2.0,505.0,01833,Massachusetts,MA,"Boston, MA",14454.0,25009.0,"Essex County, MA",1338.0,county,"GEORGETOWN, MA",GEORGETOWN,2500901833.0,29785.0,"Georgetown, MA",,,MA_01833,Complete data,True,True,True
01834,01834,22999252.0,1338979.0,+42.7539000,-071.0159351,MA,Massachusetts,25,24813.0,MA_01834,zip code,2.0,506.0,01834,Massachusetts,MA,"Boston, MA",14454.0,25009.0,"Essex County, MA",1338.0,county,"GROVELAND, MA",GROVELAND,2500901834.0,29570.0,"Groveland, MA",,,MA_01834,Complete data,True,True,True
01835,01835,20228823.0,2231298.0,+42.7513250,-071.0944112,MA,Massachusetts,25,25075.0,MA_01835,zip code,2.0,507.0,01835,Massachusetts,MA,"Boston, MA",14454.0,25009.0,"Essex County, MA",1338.0,county,"HAVERHILL, MA",HAVERHILL,2500901835.0,7494.0,"Haverhill, MA",,,MA_01835,Complete data,True,True,True
01840,01840,1322161.0,200773.0,+42.7067633,-071.1604026,MA,Massachusetts,25,24626.0,MA_01840,zip code,2.0,508.0,01840,Massachusetts,MA,"Boston, MA",14454.0,25009.0,"Essex County, MA",1338.0,county,"LAWRENCE, MA",LAWRENCE,2500901840.0,8820.0,"Lawrence, MA",,,MA_01840,Complete data,True,True,True
01841,01841,7882537.0,453504.0,+42.7150794,-071.1483002,MA,Massachusetts,25,24769.0,MA_01841,zip code,2.0,509.0,01841,Massachusetts,MA,"Boston, MA",14454.0,25009.0,"Essex County, MA",1338.0,county,"LAWRENCE, MA",LAWRENCE,2500901841.0,8820.0,"Lawrence, MA",,,MA_01841,Complete data,True,True,True
01843,01843,8739324.0,637403.0,+42.6899881,-071.1603896,MA,Massachusetts,25,24713.0,MA_01843,zip code,2.0,511.0,01843,Massachusetts,MA,"Boston, MA",14454.0,25009.0,"Essex County, MA",1338.0,county,"LAWRENCE, MA",LAWRENCE,2500901843.0,8820.0,"Lawrence, MA",,,MA_01843,Complete data,True,True,True
01844,01844,57235670.0,2009693.0,+42.7426414,-071.1786505,MA,Massachusetts,25,25001.0,MA_01844,zip code,2.0,512.0,01844,Massachusetts,MA,"Boston, MA",14454.0,25009.0,"Essex County, MA",1338.0,county,"METHUEN, MA",METHUEN,2500901844.0,29702.0,"Methuen, MA",,,MA_01844,Complete data,True,True,True
01845,01845,68400105.0,3709346.0,+42.6739092,-071.0913339,MA,Massachusetts,25,24812.0,MA_01845,zip code,2.0,513.0,01845,Massachusetts,MA,"Boston, MA",14454.0,25009.0,"Essex County, MA",1338.0,county,"NORTH ANDOVER, MA",NORTH ANDOVER,2500901845.0,29664.0,"North Andover, MA",,,MA_01845,Complete data,True,True,True
01850,01850,3524698.0,305903.0,+42.6560445,-071.3033091,MA,Massachusetts,25,24630.0,MA_01850,zip code,2.0,514.0,01850,Massachusetts,MA,"Boston, MA",14454.0,25017.0,"Middlesex County, MA",1342.0,county,"LOWELL, MA",LOWELL,2501701850.0,9416.0,"Lowell, MA",,,MA_01850,Complete data,True,True,True
01851,01851,8362294.0,290032.0,+42.6279987,-071.3367568,MA,Massachusetts,25,24811.0,MA_01851,zip code,2.0,515.0,01851,Massachusetts,MA,"Boston, MA",14454.0,25017.0,"Middlesex County, MA",1342.0,county,"LOWELL, MA",LOWELL,2501701851.0,9416.0,"Lowell, MA",,,MA_01851,Complete data,True,True,True
01852,01852,12879516.0,587990.0,+42.6329784,-071.2956162,MA,Massachusetts,25,24770.0,MA_01852,zip code,2.0,516.0,01852,Massachusetts,MA,"Boston, MA",14454.0,25017.0,"Middlesex County, MA",1342.0,county,"LOWELL, MA",LOWELL,2501701852.0,9416.0,"Lowell, MA",,,MA_01852,Complete data,True,True,True
01854,01854,10257075.0,1177249.0,+42.6494812,-071.3482291,MA,Massachusetts,25,24943.0,MA_01854,zip code,2.0,518.0,01854,Massachusetts,MA,"Boston, MA",14454.0,25017.0,"Middlesex County, MA",1342.0,county,"LOWELL, MA",LOWELL,2501701854.0,9416.0,"Lowell, MA",,,MA_01854,Complete data,True,True,True
01860,01860,22011371.0,1032793.0,+42.8386028,-071.0119970,MA,Massachusetts,25,24947.0,MA_01860,zip code,2.0,519.0,01860,Massachusetts,MA,"Boston, MA",14454.0,25009.0,"Essex County, MA",1338.0,county,"MERRIMAC, MA",MERRIMAC,2500901860.0,29637.0,"Merrimac, MA",,,MA_01860,Complete data,True,True,True
01862,01862,23583704.0,891947.0,+42.5785430,-071.2955915,MA,Massachusetts,25,25017.0,MA_01862,zip code,2.0,520.0,01862,Massachusetts,MA,"Boston, MA",14454.0,25017.0,"Middlesex County, MA",1342.0,county,"NORTH BILLERICA, MA",NORTH BILLERICA,2501701862.0,28722.0,"North Billerica, MA",,,MA_01862,Complete data,True,True,True
01863,01863,11538804.0,839641.0,+42.6304838,-071.3978948,MA,Massachusetts,25,24783.0,MA_01863,zip code,2.0,521.0,01863,Massachusetts,MA,"Boston, MA",14454.0,25017.0,"Middlesex County, MA",1342.0,county,"NORTH CHELMSFORD, MA",NORTH CHELMSFORD,2501701863.0,28775.0,"North Chelmsford, MA",,,MA_01863,Complete data,True,True,True
01864,01864,34075952.0,859059.0,+42.5784007,-071.0844481,MA,Massachusetts,25,24728.0,MA_01864,zip code,2.0,522.0,01864,Massachusetts,MA,"Boston, MA",14454.0,25017.0,"Middlesex County, MA",1342.0,county,"NORTH READING, MA",NORTH READING,2501701864.0,29768.0,"North Reading, MA",,,MA_01864,Complete data,True,True,True
01867,01867,25808798.0,36722.0,+42.5351829,-071.1054234,MA,Massachusetts,25,25016.0,MA_01867,zip code,2.0,525.0,01867,Massachusetts,MA,"Boston, MA",14454.0,25017.0,"Middlesex County, MA",1342.0,county,"READING, MA",READING,2501701867.0,36155.0,"Reading, MA",,,MA_01867,Complete data,True,True,True
01876,01876,53952841.0,1118084.0,+42.6118926,-071.2272264,MA,Massachusetts,25,24946.0,MA_01876,zip code,2.0,526.0,01876,Massachusetts,MA,"Boston, MA",14454.0,25017.0,"Middlesex County, MA",1342.0,county,"TEWKSBURY, MA",TEWKSBURY,2501701876.0,29675.0,"Tewksbury, MA",,,MA_01876,Complete data,True,True,True
01879,01879,43412053.0,3391782.0,+42.6677617,-071.4288204,MA,Massachusetts,25,24627.0,MA_01879,zip code,2.0,527.0,01879,Massachusetts,MA,"Boston, MA",14454.0,25017.0,"Middlesex County, MA",1342.0,county,"TYNGSBORO, MA",TYNGSBORO,2501701879.0,,,,,MA_01879,Complete data,True,True,True
01880,01880,19127757.0,1560573.0,+42.5043613,-071.0640612,MA,Massachusetts,25,24640.0,MA_01880,zip code,2.0,528.0,01880,Massachusetts,MA,"Boston, MA",14454.0,25017.0,"Middlesex County, MA",1342.0,county,"WAKEFIELD, MA",WAKEFIELD,2501701880.0,36174.0,"Wakefield, MA",,,MA_01880,Complete data,True,True,True
01886,01886,78324291.0,2895769.0,+42.5855413,-071.4402500,MA,Massachusetts,25,25084.0,MA_01886,zip code,2.0,530.0,01886,Massachusetts,MA,"Boston, MA",14454.0,25017.0,"Middlesex County, MA",1342.0,county,"WESTFORD, MA",WESTFORD,2501701886.0,29638.0,"Westford, MA",,,MA_01886,Complete data,True,True,True
01887,01887,43960967.0,439325.0,+42.5646465,-071.1645158,MA,Massachusetts,25,24643.0,MA_01887,zip code,2.0,531.0,01887,Massachusetts,MA,"Boston, MA",14454.0,25017.0,"Middlesex County, MA",1342.0,county,"WILMINGTON, MA",WILMINGTON,2501701887.0,29661.0,"Wilmington, MA",,,MA_01887,Complete data,True,True,True
01890,01890,15624027.0,817439.0,+42.4527518,-071.1443188,MA,Massachusetts,25,25014.0,MA_01890,zip code,2.0,534.0,01890,Massachusetts,MA,"Boston, MA",14454.0,25017.0,"Middlesex County, MA",1342.0,county,"WINCHESTER, MA",WINCHESTER,2501701890.0,29622.0,"Winchester, MA",,,MA_01890,Complete data,True,True,True
01901,01901,702544.0,68752.0,+42.4604187,-070.9463791,MA,Massachusetts,25,24852.0,MA_01901,zip code,2.0,536.0,01901,Massachusetts,MA,"Boston, MA",14454.0,25009.0,"Essex County, MA",1338.0,county,"LYNN, MA",LYNN,2500901901.0,9515.0,"Lynn, MA",,,MA_01901,Complete data,True,True,True
01902,01902,6137720.0,355962.0,+42.4710392,-070.9415353,MA,Massachusetts,25,24581.0,MA_01902,zip code,2.0,537.0,01902,Massachusetts,MA,"Boston, MA",14454.0,25009.0,"Essex County, MA",1338.0,county,"LYNN, MA",LYNN,2500901902.0,9515.0,"Lynn, MA",,,MA_01902,Complete data,True,True,True
01904,01904,10995329.0,1301718.0,+42.4914468,-070.9714409,MA,Massachusetts,25,24851.0,MA_01904,zip code,2.0,539.0,01904,Massachusetts,MA,"Boston, MA",14454.0,25009.0,"Essex County, MA",1338.0,county,"LYNN, MA",LYNN,2500901904.0,9515.0,"Lynn, MA",,,MA_01904,Complete data,True,True,True
01905,01905,7899658.0,1146185.0,+42.4623782,-070.9723434,MA,Massachusetts,25,25041.0,MA_01905,zip code,2.0,540.0,01905,Massachusetts,MA,"Boston, MA",14454.0,25009.0,"Essex County, MA",1338.0,county,"LYNN, MA",LYNN,2500901905.0,9515.0,"Lynn, MA",,,MA_01905,Complete data,True,True,True
01906,01906,29987389.0,2604727.0,+42.4696749,-071.0127853,MA,Massachusetts,25,24850.0,MA_01906,zip code,2.0,541.0,01906,Massachusetts,MA,"Boston, MA",14454.0,25009.0,"Essex County, MA",1338.0,county,"SAUGUS, MA",SAUGUS,2500901906.0,36162.0,"Saugus, MA",,,MA_01906,Complete data,True,True,True
01907,01907,7829329.0,1473056.0,+42.4741451,-070.9065967,MA,Massachusetts,25,25042.0,MA_01907,zip code,2.0,542.0,01907,Massachusetts,MA,"Boston, MA",14454.0,25009.0,"Essex County, MA",1338.0,county,"SWAMPSCOTT, MA",SWAMPSCOTT,2500901907.0,29817.0,"Swampscott, MA",,,MA_01907,Complete data,True,True,True
01908,01908,2786306.0,3481257.0,+42.4282342,-070.9260711,MA,Massachusetts,25,24585.0,MA_01908,zip code,2.0,543.0,01908,Massachusetts,MA,"Boston, MA",14454.0,25009.0,"Essex County, MA",1338.0,county,"NAHANT, MA",NAHANT,2500901908.0,29576.0,"Nahant, MA",,,MA_01908,Complete data,True,True,True
01913,01913,31836415.0,3729191.0,+42.8512771,-070.9557921,MA,Massachusetts,25,24715.0,MA_01913,zip code,2.0,545.0,01913,Massachusetts,MA,"Boston, MA",14454.0,25009.0,"Essex County, MA",1338.0,county,"AMESBURY, MA",AMESBURY,2500901913.0,29733.0,"Amesbury, MA",,,MA_01913,Complete data,True,True,True
01915,01915,36799788.0,3223239.0,+42.5704419,-070.8676930,MA,Massachusetts,25,24999.0,MA_01915,zip code,2.0,546.0,01915,Massachusetts,MA,"Boston, MA",14454.0,25009.0,"Essex County, MA",1338.0,county,"BEVERLY, MA",BEVERLY,2500901915.0,1490.0,"Beverly, MA",,,MA_01915,Complete data,True,True,True
01921,01921,61109211.0,2200642.0,+42.6831075,-071.0271876,MA,Massachusetts,25,24735.0,MA_01921,zip code,2.0,547.0,01921,Massachusetts,MA,"Boston, MA",14454.0,25009.0,"Essex County, MA",1338.0,county,"BOXFORD, MA",BOXFORD,2500901921.0,29686.0,"Boxford, MA",,,MA_01921,Complete data,True,True,True
01922,01922,23481780.0,717421.0,+42.7573131,-070.9142408,MA,Massachusetts,25,24711.0,MA_01922,zip code,2.0,548.0,01922,Massachusetts,MA,"Boston, MA",14454.0,25009.0,"Essex County, MA",1338.0,county,"BYFIELD, MA",BYFIELD,2500901922.0,28768.0,"Byfield, MA",,,MA_01922,Complete data,True,True,True
01923,01923,34203253.0,2346845.0,+42.5741744,-070.9505165,MA,Massachusetts,25,24872.0,MA_01923,zip code,2.0,549.0,01923,Massachusetts,MA,"Boston, MA",14454.0,25009.0,"Essex County, MA",1338.0,county,"DANVERS, MA",DANVERS,2500901923.0,36103.0,"Danvers, MA",,,MA_01923,Complete data,True,True,True
01929,01929,36097046.0,5384242.0,+42.6404513,-070.7711646,MA,Massachusetts,25,24714.0,MA_01929,zip code,2.0,550.0,01929,Massachusetts,MA,"Boston, MA",14454.0,25009.0,"Essex County, MA",1338.0,county,"ESSEX, MA",ESSEX,2500901929.0,36111.0,"Essex, MA",,,MA_01929,Complete data,True,True,True
01930,01930,67838491.0,14005536.0,+42.6202913,-070.6779562,MA,Massachusetts,25,25045.0,MA_01930,zip code,2.0,551.0,01930,Massachusetts,MA,"Boston, MA",14454.0,25009.0,"Essex County, MA",1338.0,county,"GLOUCESTER, MA",GLOUCESTER,2500901930.0,6697.0,"Gloucester, MA",,,MA_01930,Complete data,True,True,True
01937,01937,189212.0,0.0,+42.5857233,-070.9840508,MA,Massachusetts,25,24609.0,MA_01937,,,,,,,,,,,,,,,,,,,,,Census only,True,False,True
01938,01938,83151460.0,16631283.0,+42.6864640,-070.8395935,MA,Massachusetts,25,24712.0,MA_01938,zip code,2.0,555.0,01938,Massachusetts,MA,"Boston, MA",14454.0,25009.0,"Essex County, MA",1338.0,county,"IPSWICH, MA",IPSWICH,2500901938.0,36126.0,"Ipswich, MA",,,MA_01938,Complete data,True,True,True
01940,01940,26099895.0,1597238.0,+42.5341456,-071.0383332,MA,Massachusetts,25,24685.0,MA_01940,zip code,2.0,556.0,01940,Massachusetts,MA,"Boston, MA",14454.0,25009.0,"Essex County, MA",1338.0,county,"LYNNFIELD, MA",LYNNFIELD,2500901940.0,36131.0,"Lynnfield, MA",,,MA_01940,Complete data,True,True,True
01944,01944,23904339.0,3206997.0,+42.5766364,-070.7671544,MA,Massachusetts,25,25000.0,MA_01944,zip code,2.0,557.0,01944,Massachusetts,MA,"Boston, MA",14454.0,25009.0,"Essex County, MA",1338.0,county,"MANCHESTER, MA",MANCHESTER,2500901944.0,29618.0,"Manchester, MA",,,MA_01944,Complete data,True,True,True
01945,01945,11473387.0,12314632.0,+42.5043168,-070.8515419,MA,Massachusetts,25,24686.0,MA_01945,zip code,2.0,558.0,01945,Massachusetts,MA,"Boston, MA",14454.0,25009.0,"Essex County, MA",1338.0,county,"MARBLEHEAD, MA",MARBLEHEAD,2500901945.0,29695.0,"Marblehead, MA",,,MA_01945,Complete data,True,True,True
01949,01949,34827993.0,2696524.0,+42.6103219,-071.0062955,MA,Massachusetts,25,25043.0,MA_01949,zip code,2.0,559.0,01949,Massachusetts,MA,"Boston, MA",14454.0,25009.0,"Essex County, MA",1338.0,county,"MIDDLETON, MA",MIDDLETON,2500901949.0,29803.0,"Middleton, MA",,,MA_01949,Complete data,True,True,True
01950,01950,21626955.0,5967100.0,+42.8123584,-070.8910952,MA,Massachusetts,25,24899.0,MA_01950,zip code,2.0,560.0,01950,Massachusetts,MA,"Boston, MA",14454.0,25009.0,"Essex County, MA",1338.0,county,"NEWBURYPORT, MA",NEWBURYPORT,2500901950.0,11531.0,"Newburyport, MA",,,MA_01950,Complete data,True,True,True
01951,01951,37052613.0,6865110.0,+42.7733507,-070.8502113,MA,Massachusetts,25,24942.0,MA_01951,zip code,2.0,561.0,01951,Massachusetts,MA,"Boston, MA",14454.0,25009.0,"Essex County, MA",1338.0,county,"NEWBURY, MA",NEWBURY,2500901951.0,29796.0,"Newbury, MA",,,MA_01951,Complete data,True,True,True
01952,01952,39817066.0,6241763.0,+42.8447944,-070.8414987,MA,Massachusetts,25,25002.0,MA_01952,zip code,2.0,562.0,01952,Massachusetts,MA,"Boston, MA",14454.0,25009.0,"Essex County, MA",1338.0,county,"SALISBURY, MA",SALISBURY,2500901952.0,29683.0,"Salisbury, MA",,,MA_01952,Complete data,True,True,True
01960,01960,41480955.0,1408149.0,+42.5343100,-070.9694427,MA,Massachusetts,25,24608.0,MA_01960,zip code,2.0,563.0,01960,Massachusetts,MA,"Boston, MA",14454.0,25009.0,"Essex County, MA",1338.0,county,"PEABODY, MA",PEABODY,2500901960.0,13521.0,"Peabody, MA",,,MA_01960,Complete data,True,True,True
01965,01965,2277205.0,16067.0,+42.5641012,-070.8247230,MA,Massachusetts,25,25071.0,MA_01965,zip code,2.0,565.0,01965,Massachusetts,MA,"Boston, MA",14454.0,25009.0,"Essex County, MA",1338.0,county,"PRIDES CROSSING, MA",PRIDES CROSSING,2500901965.0,,,,,MA_01965,Complete data,True,True,True
01966,01966,18098036.0,4176221.0,+42.6406993,-070.6202498,MA,Massachusetts,25,24736.0,MA_01966,zip code,2.0,566.0,01966,Massachusetts,MA,"Boston, MA",14454.0,25009.0,"Essex County, MA",1338.0,county,"ROCKPORT, MA",ROCKPORT,2500901966.0,29824.0,"Rockport, MA",,,MA_01966,Complete data,True,True,True
01969,01969,47139582.0,5571536.0,+42.7214946,-070.8866372,MA,Massachusetts,25,25072.0,MA_01969,zip code,2.0,567.0,01969,Massachusetts,MA,"Boston, MA",14454.0,25009.0,"Essex County, MA",1338.0,county,"ROWLEY, MA",ROWLEY,2500901969.0,29759.0,"Rowley, MA",,,MA_01969,Complete data,True,True,True
01970,01970,21347913.0,24157023.0,+42.5292476,-070.8680167,MA,Massachusetts,25,24582.0,MA_01970,zip code,2.0,568.0,01970,Massachusetts,MA,"Boston, MA",14454.0,25009.0,"Essex County, MA",1338.0,county,"SALEM, MA",SALEM,2500901970.0,15302.0,"Salem, MA",,,MA_01970,Complete data,True,True,True
01982,01982,36781482.0,1910349.0,+42.6262226,-070.8572297,MA,Massachusetts,25,24853.0,MA_01982,zip code,2.0,570.0,01982,Massachusetts,MA,"Boston, MA",14454.0,25009.0,"Essex County, MA",1338.0,county,"SOUTH HAMILTON, MA",SOUTH HAMILTON,2500901982.0,28728.0,"South Hamilton, MA",,,MA_01982,Complete data,True,True,True
01983,01983,30815148.0,2337347.0,+42.6413870,-070.9433833,MA,Massachusetts,25,24977.0,MA_01983,zip code,2.0,571.0,01983,Massachusetts,MA,"Boston, MA",14454.0,25009.0,"Essex County, MA",1338.0,county,"TOPSFIELD, MA",TOPSFIELD,2500901983.0,36171.0,"Topsfield, MA",,,MA_01983,Complete data,True,True,True
01984,01984,19837024.0,1249348.0,+42.6006684,-070.8832599,MA,Massachusetts,25,24873.0,MA_01984,zip code,2.0,572.0,01984,Massachusetts,MA,"Boston, MA",14454.0,25009.0,"Essex County, MA",1338.0,county,"WENHAM, MA",WENHAM,2500901984.0,29567.0,"Wenham, MA",,,MA_01984,Complete data,True,True,True
01985,01985,34828194.0,3307591.0,+42.7995647,-070.9644283,MA,Massachusetts,25,25004.0,MA_01985,zip code,2.0,573.0,01985,Massachusetts,MA,"Boston, MA",14454.0,25009.0,"Essex County, MA",1338.0,county,"WEST NEWBURY, MA",WEST NEWBURY,2500901985.0,29749.0,"West Newbury, MA",,,MA_01985,Complete data,True,True,True
02019,02019,47507316.0,1422520.0,+42.0766822,-071.4744898,MA,Massachusetts,25,24791.0,MA_02019,zip code,2.0,575.0,02019,Massachusetts,MA,"Boston, MA",14454.0,25021.0,"Norfolk County, MA",1344.0,county,"BELLINGHAM, MA",BELLINGHAM,2502102019.0,29764.0,"Bellingham, MA",,,MA_02019,Complete data,True,True,True
02021,02021,48552504.0,2058132.0,+42.1757371,-071.1253849,MA,Massachusetts,25,25078.0,MA_02021,zip code,2.0,577.0,02021,Massachusetts,MA,"Boston, MA",14454.0,25021.0,"Norfolk County, MA",1344.0,county,"CANTON, MA",CANTON,2502102021.0,29589.0,"Canton, MA",,,MA_02021,Complete data,True,True,True
02025,02025,25311924.0,2745298.0,+42.2364282,-070.8143328,MA,Massachusetts,25,24948.0,MA_02025,zip code,2.0,578.0,02025,Massachusetts,MA,"Boston, MA",14454.0,25021.0,"Norfolk County, MA",1344.0,county,"COHASSET, MA",COHASSET,2502102025.0,29606.0,"Cohasset, MA",,,MA_02025,Complete data,True,True,True
02026,02026,26600181.0,1072471.0,+42.2468719,-071.1794622,MA,Massachusetts,25,24814.0,MA_02026,zip code,2.0,579.0,02026,Massachusetts,MA,"Boston, MA",14454.0,25021.0,"Norfolk County, MA",1344.0,county,"DEDHAM, MA",DEDHAM,2502102026.0,36104.0,"Dedham, MA",,,MA_02026,Complete data,True,True,True
02030,02030,39098446.0,837909.0,+42.2341598,-071.2911666,MA,Massachusetts,25,25009.0,MA_02030,zip code,2.0,581.0,02030,Massachusetts,MA,"Boston, MA",14454.0,25021.0,"Norfolk County, MA",1344.0,county,"DOVER, MA",DOVER,2502102030.0,36106.0,"Dover, MA",,,MA_02030,Complete data,True,True,True
02032,02032,6056006.0,156977.0,+42.1568815,-071.2161866,MA,Massachusetts,25,24721.0,MA_02032,zip code,2.0,583.0,02032,Massachusetts,MA,"Boston, MA",14454.0,25021.0,"Norfolk County, MA",1344.0,county,"EAST WALPOLE, MA",EAST WALPOLE,2502102032.0,28732.0,"East Walpole, MA",,,MA_02032,Complete data,True,True,True
02035,02035,51426194.0,2574941.0,+42.0613376,-071.2458016,MA,Massachusetts,25,24901.0,MA_02035,zip code,2.0,584.0,02035,Massachusetts,MA,"Boston, MA",14454.0,25021.0,"Norfolk County, MA",1344.0,county,"FOXBORO, MA",FOXBORO,2502102035.0,,,,,MA_02035,Complete data,True,True,True
02038,02038,68995650.0,1008452.0,+42.0848585,-071.4105714,MA,Massachusetts,25,24774.0,MA_02038,zip code,2.0,585.0,02038,Massachusetts,MA,"Boston, MA",14454.0,25021.0,"Norfolk County, MA",1344.0,county,"FRANKLIN, MA",FRANKLIN,2502102038.0,29779.0,"Franklin, MA",,,MA_02038,Complete data,True,True,True
02043,02043,57445179.0,2154820.0,+42.2160985,-070.8812702,MA,Massachusetts,25,24826.0,MA_02043,zip code,2.0,588.0,02043,Massachusetts,MA,"Boston, MA",14454.0,25023.0,"Plymouth County, MA",1345.0,county,"HINGHAM, MA",HINGHAM,2502302043.0,36118.0,"Hingham, MA",,,MA_02043,Complete data,True,True,True
02045,02045,6924911.0,20977093.0,+42.2858696,-070.8795170,MA,Massachusetts,25,24650.0,MA_02045,zip code,2.0,590.0,02045,Massachusetts,MA,"Boston, MA",14454.0,25023.0,"Plymouth County, MA",1345.0,county,"HULL, MA",HULL,2502302045.0,36124.0,"Hull, MA",,,MA_02045,Complete data,True,True,True
02047,02047,1493808.0,0.0,+42.1455335,-070.6950496,MA,Massachusetts,25,24827.0,MA_02047,zip code,2.0,591.0,02047,Massachusetts,MA,"Boston, MA",14454.0,25023.0,"Plymouth County, MA",1345.0,county,"HUMAROCK, MA",HUMAROCK,2502302047.0,,,,,MA_02047,Complete data,True,True,True
02048,02048,52069077.0,822341.0,+42.0173020,-071.2164203,MA,Massachusetts,25,24953.0,MA_02048,zip code,2.0,592.0,02048,Massachusetts,MA,"Providence, RI",39300.0,25005.0,"Bristol County, MA",1336.0,county,"MANSFIELD, MA",MANSFIELD,2500502048.0,29673.0,"Mansfield, MA",,,MA_02048,Complete data,True,True,True
02050,02050,74489366.0,8834601.0,+42.1151393,-070.7103308,MA,Massachusetts,25,24913.0,MA_02050,zip code,2.0,593.0,02050,Massachusetts,MA,"Boston, MA",14454.0,25023.0,"Plymouth County, MA",1345.0,county,"MARSHFIELD, MA",MARSHFIELD,2502302050.0,29830.0,"Marshfield, MA",,,MA_02050,Complete data,True,True,True
02052,02052,37318957.0,639017.0,+42.1845991,-071.3053065,MA,Massachusetts,25,25007.0,MA_02052,zip code,2.0,595.0,02052,Massachusetts,MA,"Boston, MA",14454.0,25021.0,"Norfolk County, MA",1344.0,county,"MEDFIELD, MA",MEDFIELD,2502102052.0,29575.0,"Medfield, MA",,,MA_02052,Complete data,True,True,True
02053,02053,29880122.0,340370.0,+42.1562029,-071.4303445,MA,Massachusetts,25,24773.0,MA_02053,zip code,2.0,596.0,02053,Massachusetts,MA,"Boston, MA",14454.0,25021.0,"Norfolk County, MA",1344.0,county,"MEDWAY, MA",MEDWAY,2502102053.0,29802.0,"Medway, MA",,,MA_02053,Complete data,True,True,True
02054,02054,31164729.0,598294.0,+42.1731025,-071.3637564,MA,Massachusetts,25,24720.0,MA_02054,zip code,2.0,597.0,02054,Massachusetts,MA,"Boston, MA",14454.0,25021.0,"Norfolk County, MA",1344.0,county,"MILLIS, MA",MILLIS,2502102054.0,29670.0,"Millis, MA",,,MA_02054,Complete data,True,True,True
02056,02056,38585031.0,1293044.0,+42.1162441,-071.3292739,MA,Massachusetts,25,24815.0,MA_02056,zip code,2.0,599.0,02056,Massachusetts,MA,"Boston, MA",14454.0,25021.0,"Norfolk County, MA",1344.0,county,"NORFOLK, MA",NORFOLK,2502102056.0,29591.0,"Norfolk, MA",,,MA_02056,Complete data,True,True,True
02061,02061,54212246.0,803957.0,+42.1645688,-070.8188439,MA,Massachusetts,25,24792.0,MA_02061,zip code,2.0,602.0,02061,Massachusetts,MA,"Boston, MA",14454.0,25023.0,"Plymouth County, MA",1345.0,county,"NORWELL, MA",NORWELL,2502302061.0,29770.0,"Norwell, MA",,,MA_02061,Complete data,True,True,True
02062,02062,27322212.0,446600.0,+42.1873895,-071.1924772,MA,Massachusetts,25,24633.0,MA_02062,zip code,2.0,603.0,02062,Massachusetts,MA,"Boston, MA",14454.0,25021.0,"Norfolk County, MA",1344.0,county,"NORWOOD, MA",NORWOOD,2502102062.0,29533.0,"Norwood, MA",,,MA_02062,Complete data,True,True,True
02066,02066,42729922.0,9633336.0,+42.2022731,-070.7581843,MA,Massachusetts,25,25024.0,MA_02066,zip code,2.0,605.0,02066,Massachusetts,MA,"Boston, MA",14454.0,25023.0,"Plymouth County, MA",1345.0,county,"SCITUATE, MA",SCITUATE,2502302066.0,29709.0,"Scituate, MA",,,MA_02066,Complete data,True,True,True
02067,02067,58754580.0,2468687.0,+42.1076002,-071.1818279,MA,Massachusetts,25,24921.0,MA_02067,zip code,2.0,606.0,02067,Massachusetts,MA,"Boston, MA",14454.0,25021.0,"Norfolk County, MA",1344.0,county,"SHARON, MA",SHARON,2502102067.0,29767.0,"Sharon, MA",,,MA_02067,Complete data,True,True,True
02071,02071,2491313.0,32220.0,+42.1064249,-071.2689507,MA,Massachusetts,25,24900.0,MA_02071,zip code,2.0,608.0,02071,Massachusetts,MA,"Boston, MA",14454.0,25021.0,"Norfolk County, MA",1344.0,county,"SOUTH WALPOLE, MA",SOUTH WALPOLE,2502102071.0,,,,,MA_02071,Complete data,True,True,True
02072,02072,41662682.0,969179.0,+42.1190060,-071.1036499,MA,Massachusetts,25,24912.0,MA_02072,zip code,2.0,609.0,02072,Massachusetts,MA,"Boston, MA",14454.0,25021.0,"Norfolk County, MA",1344.0,county,"STOUGHTON, MA",STOUGHTON,2502102072.0,29791.0,"Stoughton, MA",,,MA_02072,Complete data,True,True,True
02081,02081,45909997.0,1401513.0,+42.1474034,-071.2579720,MA,Massachusetts,25,24717.0,MA_02081,zip code,2.0,610.0,02081,Massachusetts,MA,"Boston, MA",14454.0,25021.0,"Norfolk County, MA",1344.0,county,"WALPOLE, MA",WALPOLE,2502102081.0,36175.0,"Walpole, MA",,,MA_02081,Complete data,True,True,True
02090,02090,28204382.0,768345.0,+42.2196452,-071.2167679,MA,Massachusetts,25,25006.0,MA_02090,zip code,2.0,611.0,02090,Massachusetts,MA,"Boston, MA",14454.0,25021.0,"Norfolk County, MA",1344.0,county,"WESTWOOD, MA",WESTWOOD,2502102090.0,29720.0,"Westwood, MA",,,MA_02090,Complete data,True,True,True
02093,02093,56219361.0,2341255.0,+42.0526709,-071.3568580,MA,Massachusetts,25,24923.0,MA_02093,zip code,2.0,612.0,02093,Massachusetts,MA,"Boston, MA",14454.0,25021.0,"Norfolk County, MA",1344.0,county,"WRENTHAM, MA",WRENTHAM,2502102093.0,29552.0,"Wrentham, MA",,,MA_02093,Complete data,True,True,True
02108,02108,709321.0,14973.0,+42.3550969,-071.0657367,MA,Massachusetts,25,24681.0,MA_02108,zip code,2.0,613.0,02108,Massachusetts,MA,"Boston, MA",14454.0,25025.0,"Suffolk County, MA",1346.0,county,"BOSTON, MA",BOSTON,2502502108.0,1826.0,"Boston, MA",,,MA_02108,Complete data,True,True,True
02109,02109,439201.0,294934.0,+42.3669188,-071.0504161,MA,Massachusetts,25,24680.0,MA_02109,zip code,2.0,614.0,02109,Massachusetts,MA,"Boston, MA",14454.0,25025.0,"Suffolk County, MA",1346.0,county,"BOSTON, MA",BOSTON,2502502109.0,1826.0,"Boston, MA",,,MA_02109,Complete data,True,True,True
02110,02110,463307.0,242405.0,+42.3582538,-071.0519272,MA,Massachusetts,25,25031.0,MA_02110,zip code,2.0,615.0,02110,Massachusetts,MA,"Boston, MA",14454.0,25025.0,"Suffolk County, MA",1346.0,county,"BOSTON, MA",BOSTON,2502502110.0,1826.0,"Boston, MA",,,MA_02110,Complete data,True,True,True
02111,02111,507653.0,0.0,+42.3506804,-071.0605270,MA,Massachusetts,25,24571.0,MA_02111,zip code,2.0,616.0,02111,Massachusetts,MA,"Boston, MA",14454.0,25025.0,"Suffolk County, MA",1346.0,county,"BOSTON, MA",BOSTON,2502502111.0,1826.0,"Boston, MA",,,MA_02111,Complete data,True,True,True
02113,02113,252065.0,0.0,+42.3652641,-071.0552217,MA,Massachusetts,25,24671.0,MA_02113,zip code,2.0,618.0,02113,Massachusetts,MA,"Boston, MA",14454.0,25025.0,"Suffolk County, MA",1346.0,county,"BOSTON, MA",BOSTON,2502502113.0,1826.0,"Boston, MA",,,MA_02113,Complete data,True,True,True
02114,02114,1148431.0,265592.0,+42.3636506,-071.0668878,MA,Massachusetts,25,24842.0,MA_02114,zip code,2.0,619.0,02114,Massachusetts,MA,"Boston, MA",14454.0,25025.0,"Suffolk County, MA",1346.0,county,"BOSTON, MA",BOSTON,2502502114.0,1826.0,"Boston, MA",,,MA_02114,Complete data,True,True,True
02115,02115,1840706.0,6888.0,+42.3394223,-071.0945311,MA,Massachusetts,25,24964.0,MA_02115,zip code,2.0,620.0,02115,Massachusetts,MA,"Boston, MA",14454.0,25025.0,"Suffolk County, MA",1346.0,county,"BOSTON, MA",BOSTON,2502502115.0,1826.0,"Boston, MA",,,MA_02115,Complete data,True,True,True
02116,02116,1681930.0,429920.0,+42.3509789,-071.0765907,MA,Massachusetts,25,24916.0,MA_02116,zip code,2.0,621.0,02116,Massachusetts,MA,"Boston, MA",14454.0,25025.0,"Suffolk County, MA",1346.0,county,"BOSTON, MA",BOSTON,2502502116.0,1826.0,"Boston, MA",,,MA_02116,Complete data,True,True,True
02118,02118,2817079.0,4897.0,+42.3378600,-071.0698052,MA,Massachusetts,25,25030.0,MA_02118,zip code,2.0,623.0,02118,Massachusetts,MA,"Boston, MA",14454.0,25025.0,"Suffolk County, MA",1346.0,county,"BOSTON, MA",BOSTON,2502502118.0,1826.0,"Boston, MA",,,MA_02118,Complete data,True,True,True
02119,02119,4183288.0,0.0,+42.3240658,-071.0851879,MA,Massachusetts,25,24668.0,MA_02119,zip code,2.0,624.0,02119,Massachusetts,MA,"Boston, MA",14454.0,25025.0,"Suffolk County, MA",1346.0,county,"ROXBURY, MA",ROXBURY,2502502119.0,,,,,MA_02119,Complete data,True,True,True
02120,02120,1603250.0,0.0,+42.3321343,-071.0966062,MA,Massachusetts,25,24576.0,MA_02120,zip code,2.0,625.0,02120,Massachusetts,MA,"Boston, MA",14454.0,25025.0,"Suffolk County, MA",1346.0,county,"ROXBURY CROSSING, MA",ROXBURY CROSSING,2502502120.0,,,,,MA_02120,Complete data,True,True,True
02121,02121,4883837.0,27540.0,+42.3054030,-071.0869710,MA,Massachusetts,25,24669.0,MA_02121,zip code,2.0,626.0,02121,Massachusetts,MA,"Boston, MA",14454.0,25025.0,"Suffolk County, MA",1346.0,county,"DORCHESTER, MA",DORCHESTER,2502502121.0,,,,,MA_02121,Complete data,True,True,True
02122,02122,4396164.0,534970.0,+42.2950881,-071.0525334,MA,Massachusetts,25,24866.0,MA_02122,zip code,2.0,627.0,02122,Massachusetts,MA,"Boston, MA",14454.0,25025.0,"Suffolk County, MA",1346.0,county,"DORCHESTER, MA",DORCHESTER,2502502122.0,,,,,MA_02122,Complete data,True,True,True
02124,02124,7686578.0,192764.0,+42.2859221,-071.0750459,MA,Massachusetts,25,25037.0,MA_02124,zip code,2.0,629.0,02124,Massachusetts,MA,"Boston, MA",14454.0,25025.0,"Suffolk County, MA",1346.0,county,"DORCHESTER CENTER, MA",DORCHESTER CENTER,2502502124.0,,,,,MA_02124,Complete data,True,True,True
02125,02125,5614893.0,798801.0,+42.3156824,-071.0555547,MA,Massachusetts,25,25034.0,MA_02125,zip code,2.0,630.0,02125,Massachusetts,MA,"Boston, MA",14454.0,25025.0,"Suffolk County, MA",1346.0,county,"DORCHESTER, MA",DORCHESTER,2502502125.0,,,,,MA_02125,Complete data,True,True,True
02126,02126,4735330.0,44520.0,+42.2774364,-071.0899681,MA,Massachusetts,25,25038.0,MA_02126,zip code,2.0,631.0,02126,Massachusetts,MA,"Boston, MA",14454.0,25025.0,"Suffolk County, MA",1346.0,county,"MATTAPAN, MA",MATTAPAN,2502502126.0,,,,,MA_02126,Complete data,True,True,True
02127,02127,5329383.0,1638885.0,+42.3353007,-071.0382163,MA,Massachusetts,25,24663.0,MA_02127,zip code,2.0,632.0,02127,Massachusetts,MA,"Boston, MA",14454.0,25025.0,"Suffolk County, MA",1346.0,county,"SOUTH BOSTON, MA",SOUTH BOSTON,2502502127.0,,,,,MA_02127,Complete data,True,True,True
02128,02128,13013996.0,2887418.0,+42.3615186,-071.0073933,MA,Massachusetts,25,25032.0,MA_02128,zip code,2.0,633.0,02128,Massachusetts,MA,"Boston, MA",14454.0,25025.0,"Suffolk County, MA",1346.0,county,"EAST BOSTON, MA",EAST BOSTON,2502502128.0,,,,,MA_02128,Complete data,True,True,True
02129,02129,3503738.0,1257516.0,+42.3796570,-071.0614875,MA,Massachusetts,25,24674.0,MA_02129,zip code,2.0,634.0,02129,Massachusetts,MA,"Boston, MA",14454.0,25025.0,"Suffolk County, MA",1346.0,county,"CHARLESTOWN, MA",CHARLESTOWN,2502502129.0,,,,,MA_02129,Complete data,True,True,True
02130,02130,9169358.0,322138.0,+42.3081754,-071.1134714,MA,Massachusetts,25,24975.0,MA_02130,zip code,2.0,635.0,02130,Massachusetts,MA,"Boston, MA",14454.0,25025.0,"Suffolk County, MA",1346.0,county,"JAMAICA PLAIN, MA",JAMAICA PLAIN,2502502130.0,,,,,MA_02130,Complete data,True,True,True
02131,02131,7219980.0,18985.0,+42.2823231,-071.1247457,MA,Massachusetts,25,24577.0,MA_02131,zip code,2.0,636.0,02131,Massachusetts,MA,"Boston, MA",14454.0,25025.0,"Suffolk County, MA",1346.0,county,"ROSLINDALE, MA",ROSLINDALE,2502502131.0,,,,,MA_02131,Complete data,True,True,True
02132,02132,12597325.0,249019.0,+42.2790822,-071.1604493,MA,Massachusetts,25,24733.0,MA_02132,zip code,2.0,637.0,02132,Massachusetts,MA,"Boston, MA",14454.0,25025.0,"Suffolk County, MA",1346.0,county,"WEST ROXBURY, MA",WEST ROXBURY,2502502132.0,,,,,MA_02132,Complete data,True,True,True
02133,02133,33655.0,0.0,+42.3583524,-071.0638580,MA,Massachusetts,25,24849.0,MA_02133,zip code,2.0,638.0,02133,Massachusetts,MA,"Boston, MA",14454.0,25025.0,"Suffolk County, MA",1346.0,county,"BOSTON, MA",BOSTON,2502502133.0,1826.0,"Boston, MA",,,MA_02133,Complete data,True,True,True
02134,02134,3200540.0,248635.0,+42.3587862,-071.1295808,MA,Massachusetts,25,24830.0,MA_02134,zip code,2.0,639.0,02134,Massachusetts,MA,"Boston, MA",14454.0,25025.0,"Suffolk County, MA",1346.0,county,"ALLSTON, MA",ALLSTON,2502502134.0,,,,,MA_02134,Complete data,True,True,True
02135,02135,6733233.0,118310.0,+42.3496885,-071.1539638,MA,Massachusetts,25,24829.0,MA_02135,zip code,2.0,640.0,02135,Massachusetts,MA,"Boston, MA",14454.0,25025.0,"Suffolk County, MA",1346.0,county,"BRIGHTON, MA",BRIGHTON,2502502135.0,,,,,MA_02135,Complete data,True,True,True
02136,02136,11909815.0,273099.0,+42.2547490,-071.1270719,MA,Massachusetts,25,24678.0,MA_02136,zip code,2.0,641.0,02136,Massachusetts,MA,"Boston, MA",14454.0,25025.0,"Suffolk County, MA",1346.0,county,"HYDE PARK, MA",HYDE PARK,2502502136.0,,,,,MA_02136,Complete data,True,True,True
02138,02138,7092308.0,845254.0,+42.3796372,-071.1351523,MA,Massachusetts,25,24636.0,MA_02138,zip code,2.0,643.0,02138,Massachusetts,MA,"Boston, MA",14454.0,25017.0,"Middlesex County, MA",1342.0,county,"CAMBRIDGE, MA",CAMBRIDGE,2501702138.0,2833.0,"Cambridge, MA",,,MA_02138,Complete data,True,True,True
02139,02139,4020283.0,531791.0,+42.3623914,-071.1023358,MA,Massachusetts,25,24863.0,MA_02139,zip code,2.0,644.0,02139,Massachusetts,MA,"Boston, MA",14454.0,25017.0,"Middlesex County, MA",1342.0,county,"CAMBRIDGE, MA",CAMBRIDGE,2501702139.0,2833.0,"Cambridge, MA",,,MA_02139,Complete data,True,True,True
02140,02140,3000281.0,55423.0,+42.3921567,-071.1339957,MA,Massachusetts,25,24871.0,MA_02140,zip code,2.0,645.0,02140,Massachusetts,MA,"Boston, MA",14454.0,25017.0,"Middlesex County, MA",1342.0,county,"CAMBRIDGE, MA",CAMBRIDGE,2501702140.0,2833.0,"Cambridge, MA",,,MA_02140,Complete data,True,True,True
02141,02141,1576707.0,26516.0,+42.3702998,-071.0825603,MA,Massachusetts,25,24862.0,MA_02141,zip code,2.0,646.0,02141,Massachusetts,MA,"Boston, MA",14454.0,25017.0,"Middlesex County, MA",1342.0,county,"CAMBRIDGE, MA",CAMBRIDGE,2501702141.0,2833.0,"Cambridge, MA",,,MA_02141,Complete data,True,True,True
02142,02142,812488.0,369817.0,+42.3625054,-071.0809599,MA,Massachusetts,25,24924.0,MA_02142,zip code,2.0,647.0,02142,Massachusetts,MA,"Boston, MA",14454.0,25017.0,"Middlesex County, MA",1342.0,county,"CAMBRIDGE, MA",CAMBRIDGE,2501702142.0,2833.0,"Cambridge, MA",,,MA_02142,Complete data,True,True,True
02143,02143,3999228.0,0.0,+42.3814001,-071.0967203,MA,Massachusetts,25,24580.0,MA_02143,zip code,2.0,648.0,02143,Massachusetts,MA,"Boston, MA",14454.0,25017.0,"Middlesex County, MA",1342.0,county,"SOMERVILLE, MA",SOMERVILLE,2501702143.0,16064.0,"Somerville, MA",,,MA_02143,Complete data,True,True,True
02144,02144,2827967.0,22497.0,+42.4000768,-071.1230878,MA,Massachusetts,25,24570.0,MA_02144,zip code,2.0,649.0,02144,Massachusetts,MA,"Boston, MA",14454.0,25017.0,"Middlesex County, MA",1342.0,county,"SOMERVILLE, MA",SOMERVILLE,2501702144.0,16064.0,"Somerville, MA",,,MA_02144,Complete data,True,True,True
02145,02145,3602751.0,229564.0,+42.3915769,-071.0899097,MA,Massachusetts,25,24865.0,MA_02145,zip code,2.0,650.0,02145,Massachusetts,MA,"Boston, MA",14454.0,25017.0,"Middlesex County, MA",1342.0,county,"SOMERVILLE, MA",SOMERVILLE,2501702145.0,16064.0,"Somerville, MA",,,MA_02145,Complete data,True,True,True
02148,02148,13070353.0,99337.0,+42.4293799,-071.0587065,MA,Massachusetts,25,24579.0,MA_02148,zip code,2.0,651.0,02148,Massachusetts,MA,"Boston, MA",14454.0,25017.0,"Middlesex County, MA",1342.0,county,"MALDEN, MA",MALDEN,2501702148.0,9614.0,"Malden, MA",,,MA_02148,Complete data,True,True,True
02149,02149,8855940.0,636006.0,+42.4059375,-071.0546487,MA,Massachusetts,25,24869.0,MA_02149,zip code,2.0,652.0,02149,Massachusetts,MA,"Boston, MA",14454.0,25017.0,"Middlesex County, MA",1342.0,county,"EVERETT, MA",EVERETT,2501702149.0,5664.0,"Everett, MA",,,MA_02149,Complete data,True,True,True
02150,02150,5734757.0,638655.0,+42.3968243,-071.0313479,MA,Massachusetts,25,24845.0,MA_02150,zip code,2.0,653.0,02150,Massachusetts,MA,"Boston, MA",14454.0,25025.0,"Suffolk County, MA",1346.0,county,"CHELSEA, MA",CHELSEA,2502502150.0,3443.0,"Chelsea, MA",,,MA_02150,Complete data,True,True,True
02151,02151,14776695.0,3305047.0,+42.4182902,-071.0012511,MA,Massachusetts,25,24684.0,MA_02151,zip code,2.0,654.0,02151,Massachusetts,MA,"Boston, MA",14454.0,25025.0,"Suffolk County, MA",1346.0,county,"REVERE, MA",REVERE,2502502151.0,14653.0,"Revere, MA",,,MA_02151,Complete data,True,True,True
02152,02152,4300022.0,3143327.0,+42.3773816,-070.9770258,MA,Massachusetts,25,24583.0,MA_02152,zip code,2.0,655.0,02152,Massachusetts,MA,"Boston, MA",14454.0,25025.0,"Suffolk County, MA",1346.0,county,"WINTHROP, MA",WINTHROP,2502502152.0,29821.0,"Winthrop, MA",,,MA_02152,Complete data,True,True,True
02155,02155,21209217.0,1455805.0,+42.4238395,-071.1076732,MA,Massachusetts,25,24973.0,MA_02155,zip code,2.0,657.0,02155,Massachusetts,MA,"Boston, MA",14454.0,25017.0,"Middlesex County, MA",1342.0,county,"MEDFORD, MA",MEDFORD,2501702155.0,10142.0,"Medford, MA",,,MA_02155,Complete data,True,True,True
02163,02163,475171.0,0.0,+42.3672264,-071.1250920,MA,Massachusetts,25,24919.0,MA_02163,,,,,,,,,,,,,,,,,,,,,Census only,True,False,True
02169,02169,31328854.0,3717305.0,+42.2400156,-071.0152045,MA,Massachusetts,25,24936.0,MA_02169,zip code,2.0,660.0,02169,Massachusetts,MA,"Boston, MA",14454.0,25021.0,"Norfolk County, MA",1344.0,county,"QUINCY, MA",QUINCY,2502102169.0,14424.0,"Quincy, MA",,,MA_02169,Complete data,True,True,True
02170,02170,5399981.0,185829.0,+42.2664149,-071.0155763,MA,Massachusetts,25,24665.0,MA_02170,zip code,2.0,661.0,02170,Massachusetts,MA,"Boston, MA",14454.0,25021.0,"Norfolk County, MA",1344.0,county,"QUINCY, MA",QUINCY,2502102170.0,14424.0,"Quincy, MA",,,MA_02170,Complete data,True,True,True
02171,02171,6352350.0,4374006.0,+42.2914702,-071.0258217,MA,Massachusetts,25,25076.0,MA_02171,zip code,2.0,662.0,02171,Massachusetts,MA,"Boston, MA",14454.0,25021.0,"Norfolk County, MA",1344.0,county,"QUINCY, MA",QUINCY,2502102171.0,14424.0,"Quincy, MA",,,MA_02171,Complete data,True,True,True
02176,02176,12128985.0,219702.0,+42.4557230,-071.0590194,MA,Massachusetts,25,25074.0,MA_02176,zip code,2.0,663.0,02176,Massachusetts,MA,"Boston, MA",14454.0,25017.0,"Middlesex County, MA",1342.0,county,"MELROSE, MA",MELROSE,2501702176.0,10229.0,"Melrose, MA",,,MA_02176,Complete data,True,True,True
02180,02180,15485469.0,1633328.0,+42.4742082,-071.0976654,MA,Massachusetts,25,24780.0,MA_02180,zip code,2.0,664.0,02180,Massachusetts,MA,"Boston, MA",14454.0,25017.0,"Middlesex County, MA",1342.0,county,"STONEHAM, MA",STONEHAM,2501702180.0,36168.0,"Stoneham, MA",,,MA_02180,Complete data,True,True,True
02184,02184,35644316.0,2076505.0,+42.2061879,-071.0023199,MA,Massachusetts,25,24922.0,MA_02184,zip code,2.0,665.0,02184,Massachusetts,MA,"Boston, MA",14454.0,25021.0,"Norfolk County, MA",1344.0,county,"BRAINTREE, MA",BRAINTREE,2502102184.0,29818.0,"Braintree, MA",,,MA_02184,Complete data,True,True,True
02186,02186,35472536.0,1251664.0,+42.2415589,-071.0824369,MA,Massachusetts,25,24631.0,MA_02186,zip code,2.0,667.0,02186,Massachusetts,MA,"Boston, MA",14454.0,25021.0,"Norfolk County, MA",1344.0,county,"MILTON, MA",MILTON,2502102186.0,36138.0,"Milton, MA",,,MA_02186,Complete data,True,True,True
02188,02188,10002025.0,410633.0,+42.2046624,-070.9576331,MA,Massachusetts,25,24772.0,MA_02188,zip code,2.0,669.0,02188,Massachusetts,MA,"Boston, MA",14454.0,25021.0,"Norfolk County, MA",1344.0,county,"WEYMOUTH, MA",WEYMOUTH,2502102188.0,,,,,MA_02188,Complete data,True,True,True
02189,02189,10385719.0,1305396.0,+42.2119676,-070.9296393,MA,Massachusetts,25,24719.0,MA_02189,zip code,2.0,670.0,02189,Massachusetts,MA,"Boston, MA",14454.0,25021.0,"Norfolk County, MA",1344.0,county,"EAST WEYMOUTH, MA",EAST WEYMOUTH,2502102189.0,,,,,MA_02189,Complete data,True,True,True
02190,02190,18119180.0,1374552.0,+42.1667306,-070.9523629,MA,Massachusetts,25,24902.0,MA_02190,zip code,2.0,671.0,02190,Massachusetts,MA,"Boston, MA",14454.0,25021.0,"Norfolk County, MA",1344.0,county,"SOUTH WEYMOUTH, MA",SOUTH WEYMOUTH,2502102190.0,,,,,MA_02190,Complete data,True,True,True
02191,02191,4644520.0,2059455.0,+42.2450770,-070.9465280,MA,Massachusetts,25,24903.0,MA_02191,zip code,2.0,672.0,02191,Massachusetts,MA,"Boston, MA",14454.0,25021.0,"Norfolk County, MA",1344.0,county,"NORTH WEYMOUTH, MA",NORTH WEYMOUTH,2502102191.0,,,,,MA_02191,Complete data,True,True,True
02199,02199,148321.0,0.0,+42.3474763,-071.0820329,MA,Massachusetts,25,25027.0,MA_02199,zip code,2.0,674.0,02199,Massachusetts,MA,"Boston, MA",14454.0,25025.0,"Suffolk County, MA",1346.0,county,"BOSTON, MA",BOSTON,2502502199.0,1826.0,"Boston, MA",,,MA_02199,Complete data,True,True,True
02203,02203,24997.0,0.0,+42.3614446,-071.0594531,MA,Massachusetts,25,24683.0,MA_02203,,,,,,,,,,,,,,,,,,,,,Census only,True,False,True
02205,02205,147199.0,0.0,+42.3494035,-071.0556211,MA,Massachusetts,25,24870.0,MA_02205,,,,,,,,,,,,,,,,,,,,,Census only,True,False,True
02210,02210,2389837.0,1310036.0,+42.3480361,-071.0392835,MA,Massachusetts,25,24682.0,MA_02210,zip code,2.0,681.0,02210,Massachusetts,MA,"Boston, MA",14454.0,25025.0,"Suffolk County, MA",1346.0,county,"BOSTON, MA",BOSTON,2502502210.0,1826.0,"Boston, MA",,,MA_02210,Complete data,True,True,True
02215,02215,2290567.0,334746.0,+42.3476346,-071.1030821,MA,Massachusetts,25,24661.0,MA_02215,zip code,2.0,684.0,02215,Massachusetts,MA,"Boston, MA",14454.0,25025.0,"Suffolk County, MA",1346.0,county,"BOSTON, MA",BOSTON,2502502215.0,1826.0,"Boston, MA",,,MA_02215,Complete data,True,True,True
02301,02301,32238497.0,422574.0,+42.0783714,-071.0423041,MA,Massachusetts,25,24794.0,MA_02301,zip code,2.0,700.0,02301,Massachusetts,MA,"Boston, MA",14454.0,25023.0,"Plymouth County, MA",1345.0,county,"BROCKTON, MA",BROCKTON,2502302301.0,2332.0,"Brockton, MA",,,MA_02301,Complete data,True,True,True
02302,02302,23003343.0,53235.0,+42.0889069,-070.9983750,MA,Massachusetts,25,25092.0,MA_02302,zip code,2.0,701.0,02302,Massachusetts,MA,"Boston, MA",14454.0,25023.0,"Plymouth County, MA",1345.0,county,"BROCKTON, MA",BROCKTON,2502302302.0,2332.0,"Brockton, MA",,,MA_02302,Complete data,True,True,True
02322,02322,11114827.0,639905.0,+42.1324607,-071.0540130,MA,Massachusetts,25,24958.0,MA_02322,zip code,2.0,705.0,02322,Massachusetts,MA,"Boston, MA",14454.0,25021.0,"Norfolk County, MA",1344.0,county,"AVON, MA",AVON,2502102322.0,29667.0,"Avon, MA",,,MA_02322,Complete data,True,True,True
02324,02324,69886119.0,2900365.0,+41.9723761,-070.9787727,MA,Massachusetts,25,25094.0,MA_02324,zip code,2.0,706.0,02324,Massachusetts,MA,"Boston, MA",14454.0,25023.0,"Plymouth County, MA",1345.0,county,"BRIDGEWATER, MA",BRIDGEWATER,2502302324.0,36097.0,"Bridgewater, MA",,,MA_02324,Complete data,True,True,True
02325,02325,789349.0,1294.0,+41.9901010,-070.9624084,MA,Massachusetts,25,24962.0,MA_02325,,,,,,,,,,,,,,,,,,,,,Census only,True,False,True
02330,02330,96621910.0,6262842.0,+41.8751792,-070.7467149,MA,Massachusetts,25,24562.0,MA_02330,zip code,2.0,709.0,02330,Massachusetts,MA,"Boston, MA",14454.0,25023.0,"Plymouth County, MA",1345.0,county,"CARVER, MA",CARVER,2502302330.0,29604.0,"Carver, MA",,,MA_02330,Complete data,True,True,True
02332,02332,61388708.0,35994841.0,+42.0444072,-070.7060604,MA,Massachusetts,25,24960.0,MA_02332,zip code,2.0,711.0,02332,Massachusetts,MA,"Boston, MA",14454.0,25023.0,"Plymouth County, MA",1345.0,county,"DUXBURY, MA",DUXBURY,2502302332.0,36107.0,"Duxbury, MA",,,MA_02332,Complete data,True,True,True
02333,02333,44530896.0,784261.0,+42.0371161,-070.9421781,MA,Massachusetts,25,24796.0,MA_02333,zip code,2.0,712.0,02333,Massachusetts,MA,"Boston, MA",14454.0,25023.0,"Plymouth County, MA",1345.0,county,"EAST BRIDGEWATER, MA",EAST BRIDGEWATER,2502302333.0,29809.0,"East Bridgewater, MA",,,MA_02333,Complete data,True,True,True
02338,02338,41372593.0,3659389.0,+42.0026344,-070.8637056,MA,Massachusetts,25,24992.0,MA_02338,zip code,2.0,715.0,02338,Massachusetts,MA,"Boston, MA",14454.0,25023.0,"Plymouth County, MA",1345.0,county,"HALIFAX, MA",HALIFAX,2502302338.0,29669.0,"Halifax, MA",,,MA_02338,Complete data,True,True,True
02339,02339,40242013.0,236948.0,+42.1229562,-070.8563099,MA,Massachusetts,25,25093.0,MA_02339,zip code,2.0,716.0,02339,Massachusetts,MA,"Boston, MA",14454.0,25023.0,"Plymouth County, MA",1345.0,county,"HANOVER, MA",HANOVER,2502302339.0,29713.0,"Hanover, MA",,,MA_02339,Complete data,True,True,True
02341,02341,38604168.0,1850993.0,+42.0502398,-070.8673595,MA,Massachusetts,25,24560.0,MA_02341,zip code,2.0,718.0,02341,Massachusetts,MA,"Boston, MA",14454.0,25023.0,"Plymouth County, MA",1345.0,county,"HANSON, MA",HANSON,2502302341.0,29577.0,"Hanson, MA",,,MA_02341,Complete data,True,True,True
02343,02343,18157031.0,279916.0,+42.1403459,-070.9978612,MA,Massachusetts,25,25079.0,MA_02343,zip code,2.0,719.0,02343,Massachusetts,MA,"Boston, MA",14454.0,25021.0,"Norfolk County, MA",1344.0,county,"HOLBROOK, MA",HOLBROOK,2502102343.0,36119.0,"Holbrook, MA",,,MA_02343,Complete data,True,True,True
02346,02346,178823603.0,8200531.0,+41.8780043,-070.8692669,MA,Massachusetts,25,24959.0,MA_02346,zip code,2.0,722.0,02346,Massachusetts,MA,"Boston, MA",14454.0,25023.0,"Plymouth County, MA",1345.0,county,"MIDDLEBORO, MA",MIDDLEBORO,2502302346.0,,,,,MA_02346,Complete data,True,True,True
02347,02347,76656455.0,16894835.0,+41.8343838,-070.9568262,MA,Massachusetts,25,24914.0,MA_02347,zip code,2.0,723.0,02347,Massachusetts,MA,"Boston, MA",14454.0,25023.0,"Plymouth County, MA",1345.0,county,"LAKEVILLE, MA",LAKEVILLE,2502302347.0,29612.0,"Lakeville, MA",,,MA_02347,Complete data,True,True,True
02350,02350,295044.0,432.0,+42.0210125,-070.8457909,MA,Massachusetts,25,25026.0,MA_02350,zip code,2.0,726.0,02350,Massachusetts,MA,"Boston, MA",14454.0,25023.0,"Plymouth County, MA",1345.0,county,"MONPONSETT, MA",MONPONSETT,2502302350.0,,,,,MA_02350,Complete data,True,True,True
02351,02351,25806382.0,594786.0,+42.1157637,-070.9565970,MA,Massachusetts,25,24793.0,MA_02351,zip code,2.0,727.0,02351,Massachusetts,MA,"Boston, MA",14454.0,25023.0,"Plymouth County, MA",1345.0,county,"ABINGTON, MA",ABINGTON,2502302351.0,29811.0,"Abington, MA",,,MA_02351,Complete data,True,True,True
02356,02356,35241721.0,748117.0,+42.0605390,-071.1196708,MA,Massachusetts,25,24758.0,MA_02356,zip code,2.0,729.0,02356,Massachusetts,MA,"Providence, RI",39300.0,25005.0,"Bristol County, MA",1336.0,county,"NORTH EASTON, MA",NORTH EASTON,2500502356.0,,,,,MA_02356,Complete data,True,True,True
02357,02357,1005514.0,52827.0,+42.0639737,-071.0773683,MA,Massachusetts,25,24807.0,MA_02357,,,,,,,,,,,,,,,,,,,,,Census only,True,False,True
02359,02359,56429333.0,4585316.0,+42.0678041,-070.8057131,MA,Massachusetts,25,24961.0,MA_02359,zip code,2.0,732.0,02359,Massachusetts,MA,"Boston, MA",14454.0,25023.0,"Plymouth County, MA",1345.0,county,"PEMBROKE, MA",PEMBROKE,2502302359.0,29808.0,"Pembroke, MA",,,MA_02359,Complete data,True,True,True
02360,02360,249633877.0,36417799.0,+41.8820616,-070.6312893,MA,Massachusetts,25,25091.0,MA_02360,zip code,2.0,733.0,02360,Massachusetts,MA,"Boston, MA",14454.0,25023.0,"Plymouth County, MA",1345.0,county,"PLYMOUTH, MA",PLYMOUTH,2502302360.0,36152.0,"Plymouth, MA",,,MA_02360,Complete data,True,True,True
02364,02364,48286878.0,4766946.0,+41.9871959,-070.7419417,MA,Massachusetts,25,24795.0,MA_02364,zip code,2.0,736.0,02364,Massachusetts,MA,"Boston, MA",14454.0,25023.0,"Plymouth County, MA",1345.0,county,"KINGSTON, MA",KINGSTON,2502302364.0,36127.0,"Kingston, MA",,,MA_02364,Complete data,True,True,True
02366,02366,115964.0,0.0,+41.8487533,-070.6611756,MA,Massachusetts,25,25025.0,MA_02366,,,,,,,,,,,,,,,,,,,,,Census only,True,False,True
02367,02367,38023287.0,1099161.0,+41.9591000,-070.8027525,MA,Massachusetts,25,24790.0,MA_02367,zip code,2.0,738.0,02367,Massachusetts,MA,"Boston, MA",14454.0,25023.0,"Plymouth County, MA",1345.0,county,"PLYMPTON, MA",PLYMPTON,2502302367.0,29614.0,"Plympton, MA",,,MA_02367,Complete data,True,True,True
02368,02368,24149133.0,1047246.0,+42.1789925,-071.0526540,MA,Massachusetts,25,24816.0,MA_02368,zip code,2.0,739.0,02368,Massachusetts,MA,"Boston, MA",14454.0,25021.0,"Norfolk County, MA",1344.0,county,"RANDOLPH, MA",RANDOLPH,2502102368.0,36154.0,"Randolph, MA",,,MA_02368,Complete data,True,True,True
02370,02370,25974455.0,238552.0,+42.1292512,-070.9087358,MA,Massachusetts,25,24561.0,MA_02370,zip code,2.0,740.0,02370,Massachusetts,MA,"Boston, MA",14454.0,25023.0,"Plymouth County, MA",1345.0,county,"ROCKLAND, MA",ROCKLAND,2502302370.0,29581.0,"Rockland, MA",,,MA_02370,Complete data,True,True,True
02375,02375,35694175.0,426324.0,+42.0056899,-071.0780409,MA,Massachusetts,25,24937.0,MA_02375,zip code,2.0,741.0,02375,Massachusetts,MA,"Providence, RI",39300.0,25005.0,"Bristol County, MA",1336.0,county,"SOUTH EASTON, MA",SOUTH EASTON,2500502375.0,,,,,MA_02375,Complete data,True,True,True
02379,02379,39685598.0,906621.0,+42.0216172,-071.0267170,MA,Massachusetts,25,24797.0,MA_02379,zip code,2.0,742.0,02379,Massachusetts,MA,"Boston, MA",14454.0,25023.0,"Plymouth County, MA",1345.0,county,"WEST BRIDGEWATER, MA",WEST BRIDGEWATER,2502302379.0,29642.0,"West Bridgewater, MA",,,MA_02379,Complete data,True,True,True
02382,02382,17964269.0,59307.0,+42.0789741,-070.9393902,MA,Massachusetts,25,24649.0,MA_02382,zip code,2.0,744.0,02382,Massachusetts,MA,"Boston, MA",14454.0,25023.0,"Plymouth County, MA",1345.0,county,"WHITMAN, MA",WHITMAN,2502302382.0,29741.0,"Whitman, MA",,,MA_02382,Complete data,True,True,True
02420,02420,18227365.0,124757.0,+42.4590609,-071.2177285,MA,Massachusetts,25,25011.0,MA_02420,zip code,2.0,745.0,02420,Massachusetts,MA,"Boston, MA",14454.0,25017.0,"Middlesex County, MA",1342.0,county,"LEXINGTON, MA",LEXINGTON,2501702420.0,36128.0,"Lexington, MA",,,MA_02420,Complete data,True,True,True
02421,02421,24782361.0,416287.0,+42.4385472,-071.2395735,MA,Massachusetts,25,25012.0,MA_02421,zip code,2.0,746.0,02421,Massachusetts,MA,"Boston, MA",14454.0,25017.0,"Middlesex County, MA",1342.0,county,"LEXINGTON, MA",LEXINGTON,2501702421.0,36128.0,"Lexington, MA",,,MA_02421,Complete data,True,True,True
02445,02445,6762930.0,139681.0,+42.3254833,-071.1350449,MA,Massachusetts,25,25028.0,MA_02445,zip code,2.0,747.0,02445,Massachusetts,MA,"Boston, MA",14454.0,25021.0,"Norfolk County, MA",1344.0,county,"BROOKLINE, MA",BROOKLINE,2502102445.0,29676.0,"Brookline, MA",,,MA_02445,Complete data,True,True,True
02446,02446,3322379.0,12178.0,+42.3434991,-071.1222435,MA,Massachusetts,25,24968.0,MA_02446,zip code,2.0,748.0,02446,Massachusetts,MA,"Boston, MA",14454.0,25021.0,"Norfolk County, MA",1344.0,county,"BROOKLINE, MA",BROOKLINE,2502102446.0,29676.0,"Brookline, MA",,,MA_02446,Complete data,True,True,True
02451,02451,13782000.0,1825045.0,+42.4015299,-071.2529971,MA,Massachusetts,25,25015.0,MA_02451,zip code,2.0,750.0,02451,Massachusetts,MA,"Boston, MA",14454.0,25017.0,"Middlesex County, MA",1342.0,county,"WALTHAM, MA",WALTHAM,2501702451.0,18529.0,"Waltham, MA",,,MA_02451,Complete data,True,True,True
02452,02452,9876345.0,87710.0,+42.3956087,-071.2199475,MA,Massachusetts,25,24725.0,MA_02452,zip code,2.0,751.0,02452,Massachusetts,MA,"Boston, MA",14454.0,25017.0,"Middlesex County, MA",1342.0,county,"WALTHAM, MA",WALTHAM,2501702452.0,18529.0,"Waltham, MA",,,MA_02452,Complete data,True,True,True
02453,02453,9303072.0,721278.0,+42.3686854,-071.2411034,MA,Massachusetts,25,25083.0,MA_02453,zip code,2.0,752.0,02453,Massachusetts,MA,"Boston, MA",14454.0,25017.0,"Middlesex County, MA",1342.0,county,"WALTHAM, MA",WALTHAM,2501702453.0,18529.0,"Waltham, MA",,,MA_02453,Complete data,True,True,True
02457,02457,528144.0,0.0,+42.2983090,-071.2730195,MA,Massachusetts,25,24904.0,MA_02457,,,,,,,,,,,,,,,,,,,,,Census only,True,False,True
02458,02458,5090903.0,87254.0,+42.3535846,-071.1881919,MA,Massachusetts,25,24778.0,MA_02458,zip code,2.0,757.0,02458,Massachusetts,MA,"Boston, MA",14454.0,25017.0,"Middlesex County, MA",1342.0,county,"NEWTON, MA",NEWTON,2501702458.0,11619.0,"Newton, MA",,,MA_02458,Complete data,True,True,True
02459,02459,13037033.0,253564.0,+42.3147789,-071.1920167,MA,Massachusetts,25,25082.0,MA_02459,zip code,2.0,758.0,02459,Massachusetts,MA,"Boston, MA",14454.0,25017.0,"Middlesex County, MA",1342.0,county,"NEWTON CENTER, MA",NEWTON CENTER,2501702459.0,,,,,MA_02459,Complete data,True,True,True
02460,02460,3490994.0,23261.0,+42.3518240,-071.2084904,MA,Massachusetts,25,24637.0,MA_02460,zip code,2.0,759.0,02460,Massachusetts,MA,"Boston, MA",14454.0,25017.0,"Middlesex County, MA",1342.0,county,"NEWTONVILLE, MA",NEWTONVILLE,2501702460.0,,,,,MA_02460,Complete data,True,True,True
02461,02461,3976047.0,45954.0,+42.3173616,-071.2065077,MA,Massachusetts,25,24776.0,MA_02461,zip code,2.0,760.0,02461,Massachusetts,MA,"Boston, MA",14454.0,25017.0,"Middlesex County, MA",1342.0,county,"NEWTON HIGHLANDS, MA",NEWTON HIGHLANDS,2501702461.0,,,,,MA_02461,Complete data,True,True,True
02462,02462,1808867.0,61174.0,+42.3316751,-071.2559471,MA,Massachusetts,25,24819.0,MA_02462,zip code,2.0,761.0,02462,Massachusetts,MA,"Boston, MA",14454.0,25017.0,"Middlesex County, MA",1342.0,county,"NEWTON LOWER FALLS, MA",NEWTON LOWER FALLS,2501702462.0,,,,,MA_02462,Complete data,True,True,True
02464,02464,1425965.0,29229.0,+42.3129751,-071.2188818,MA,Massachusetts,25,24820.0,MA_02464,zip code,2.0,762.0,02464,Massachusetts,MA,"Boston, MA",14454.0,25017.0,"Middlesex County, MA",1342.0,county,"NEWTON UPPER FALLS, MA",NEWTON UPPER FALLS,2501702464.0,,,,,MA_02464,Complete data,True,True,True
02465,02465,5571348.0,698.0,+42.3495328,-071.2273393,MA,Massachusetts,25,24905.0,MA_02465,zip code,2.0,763.0,02465,Massachusetts,MA,"Boston, MA",14454.0,25017.0,"Middlesex County, MA",1342.0,county,"WEST NEWTON, MA",WEST NEWTON,2501702465.0,28730.0,"West Newton, MA",,,MA_02465,Complete data,True,True,True
02466,02466,4111216.0,209132.0,+42.3455142,-071.2476606,MA,Massachusetts,25,25010.0,MA_02466,zip code,2.0,764.0,02466,Massachusetts,MA,"Boston, MA",14454.0,25017.0,"Middlesex County, MA",1342.0,county,"AUBURNDALE, MA",AUBURNDALE,2501702466.0,28723.0,"Auburndale, MA",,,MA_02466,Complete data,True,True,True
02467,02467,12705822.0,476664.0,+42.3143213,-071.1527779,MA,Massachusetts,25,24660.0,MA_02467,zip code,2.0,765.0,02467,Massachusetts,MA,"Boston, MA",14454.0,25021.0,"Norfolk County, MA",1344.0,county,"CHESTNUT HILL, MA",CHESTNUT HILL,2502102467.0,,,,,MA_02467,Complete data,True,True,True
02468,02468,3978271.0,45929.0,+42.3291748,-071.2315831,MA,Massachusetts,25,24775.0,MA_02468,zip code,2.0,766.0,02468,Massachusetts,MA,"Boston, MA",14454.0,25017.0,"Middlesex County, MA",1342.0,county,"WABAN, MA",WABAN,2501702468.0,28762.0,"Waban, MA",,,MA_02468,Complete data,True,True,True
02472,02472,10438047.0,332543.0,+42.3694508,-071.1779249,MA,Massachusetts,25,24925.0,MA_02472,zip code,2.0,768.0,02472,Massachusetts,MA,"Boston, MA",14454.0,25017.0,"Middlesex County, MA",1342.0,county,"WATERTOWN, MA",WATERTOWN,2501702472.0,29540.0,"Watertown, MA",,,MA_02472,Complete data,True,True,True
02474,02474,7919381.0,474355.0,+42.4209494,-071.1563695,MA,Massachusetts,25,24722.0,MA_02474,zip code,2.0,769.0,02474,Massachusetts,MA,"Boston, MA",14454.0,25017.0,"Middlesex County, MA",1342.0,county,"ARLINGTON, MA",ARLINGTON,2501702474.0,29773.0,"Arlington, MA",,,MA_02474,Complete data,True,True,True
02476,02476,5398605.0,413740.0,+42.4164795,-071.1734865,MA,Massachusetts,25,24818.0,MA_02476,zip code,2.0,771.0,02476,Massachusetts,MA,"Boston, MA",14454.0,25017.0,"Middlesex County, MA",1342.0,county,"ARLINGTON, MA",ARLINGTON,2501702476.0,29773.0,"Arlington, MA",,,MA_02476,Complete data,True,True,True
02478,02478,12031277.0,183512.0,+42.3953169,-071.1802841,MA,Massachusetts,25,24638.0,MA_02478,zip code,2.0,773.0,02478,Massachusetts,MA,"Boston, MA",14454.0,25017.0,"Middlesex County, MA",1342.0,county,"BELMONT, MA",BELMONT,2501702478.0,29700.0,"Belmont, MA",,,MA_02478,Complete data,True,True,True
02481,02481,15772057.0,732657.0,+42.3105142,-071.2777695,MA,Massachusetts,25,25077.0,MA_02481,zip code,2.0,775.0,02481,Massachusetts,MA,"Boston, MA",14454.0,25021.0,"Norfolk County, MA",1344.0,county,"WELLESLEY HILLS, MA",WELLESLEY HILLS,2502102481.0,,,,,MA_02481,Complete data,True,True,True
02482,02482,9633699.0,574104.0,+42.2932742,-071.2964416,MA,Massachusetts,25,25081.0,MA_02482,zip code,2.0,776.0,02482,Massachusetts,MA,"Boston, MA",14454.0,25021.0,"Norfolk County, MA",1344.0,county,"WELLESLEY, MA",WELLESLEY,2502102482.0,36180.0,"Wellesley, MA",,,MA_02482,Complete data,True,True,True
02492,02492,24619092.0,1050053.0,+42.2764827,-071.2437138,MA,Massachusetts,25,25023.0,MA_02492,zip code,2.0,777.0,02492,Massachusetts,MA,"Boston, MA",14454.0,25021.0,"Norfolk County, MA",1344.0,county,"NEEDHAM, MA",NEEDHAM,2502102492.0,29787.0,"Needham, MA",,,MA_02492,Complete data,True,True,True
02493,02493,43564010.0,1326827.0,+42.3605016,-071.3034335,MA,Massachusetts,25,24781.0,MA_02493,zip code,2.0,778.0,02493,Massachusetts,MA,"Boston, MA",14454.0,25017.0,"Middlesex County, MA",1342.0,county,"WESTON, MA",WESTON,2501702493.0,29572.0,"Weston, MA",,,MA_02493,Complete data,True,True,True
02494,02494,7253071.0,58389.0,+42.2995634,-071.2312151,MA,Massachusetts,25,25090.0,MA_02494,zip code,2.0,779.0,02494,Massachusetts,MA,"Boston, MA",14454.0,25021.0,"Norfolk County, MA",1344.0,county,"NEEDHAM HEIGHTS, MA",NEEDHAM HEIGHTS,2502102494.0,,,,,MA_02494,Complete data,True,True,True
02532,02532,35708392.0,8348819.0,+41.7495216,-070.5949282,MA,Massachusetts,25,25096.0,MA_02532,zip code,2.0,781.0,02532,Massachusetts,MA,"Barnstable Town, MA",12700.0,25001.0,"Barnstable County, MA",1334.0,county,"BUZZARDS BAY, MA",BUZZARDS BAY,2500102532.0,21727.0,"Buzzards Bay, MA",,,MA_02532,Complete data,True,True,True
02534,02534,7094494.0,1502593.0,+41.6690041,-070.6152799,MA,Massachusetts,25,24963.0,MA_02534,zip code,2.0,782.0,02534,Massachusetts,MA,"Barnstable Town, MA",12700.0,25001.0,"Barnstable County, MA",1334.0,county,"CATAUMET, MA",CATAUMET,2500102534.0,,,,,MA_02534,Complete data,True,True,True
02535,02535,63107762.0,65886349.0,+41.3379606,-070.7616743,MA,Massachusetts,25,24584.0,MA_02535,zip code,2.0,783.0,02535,Massachusetts,MA,"Vineyard Haven, MA",47240.0,25007.0,"Dukes County, MA",1337.0,county,"CHILMARK, MA",CHILMARK,2500702535.0,29585.0,"Chilmark, MA",,,MA_02535,Complete data,True,True,True
02536,02536,70869433.0,8700646.0,+41.5962951,-070.5674709,MA,Massachusetts,25,24564.0,MA_02536,zip code,2.0,784.0,02536,Massachusetts,MA,"Barnstable Town, MA",12700.0,25001.0,"Barnstable County, MA",1334.0,county,"EAST FALMOUTH, MA",EAST FALMOUTH,2500102536.0,22287.0,"East Falmouth, MA",,,MA_02536,Complete data,True,True,True
02537,02537,35537876.0,891854.0,+41.7284214,-070.4358105,MA,Massachusetts,25,24834.0,MA_02537,zip code,2.0,785.0,02537,Massachusetts,MA,"Barnstable Town, MA",12700.0,25001.0,"Barnstable County, MA",1334.0,county,"EAST SANDWICH, MA",EAST SANDWICH,2500102537.0,22386.0,"East Sandwich, MA",,,MA_02537,Complete data,True,True,True
02538,02538,16224024.0,1944915.0,+41.7773777,-070.6424469,MA,Massachusetts,25,24915.0,MA_02538,zip code,2.0,786.0,02538,Massachusetts,MA,"Boston, MA",14454.0,25023.0,"Plymouth County, MA",1345.0,county,"EAST WAREHAM, MA",EAST WAREHAM,2502302538.0,,,,,MA_02538,Complete data,True,True,True
02539,02539,69445842.0,53089143.0,+41.3776550,-070.5220800,MA,Massachusetts,25,24687.0,MA_02539,zip code,2.0,787.0,02539,Massachusetts,MA,"Vineyard Haven, MA",47240.0,25007.0,"Dukes County, MA",1337.0,county,"EDGARTOWN, MA",EDGARTOWN,2500702539.0,36110.0,"Edgartown, MA",,,MA_02539,Complete data,True,True,True
02540,02540,28502286.0,4924536.0,+41.5694661,-070.6272020,MA,Massachusetts,25,24799.0,MA_02540,zip code,2.0,788.0,02540,Massachusetts,MA,"Barnstable Town, MA",12700.0,25001.0,"Barnstable County, MA",1334.0,county,"FALMOUTH, MA",FALMOUTH,2500102540.0,36112.0,"Falmouth, MA",,,MA_02540,Complete data,True,True,True
02542,02542,73931039.0,127974.0,+41.7078390,-070.5455199,MA,Massachusetts,25,25097.0,MA_02542,zip code,2.0,790.0,02542,Massachusetts,MA,"Barnstable Town, MA",12700.0,25001.0,"Barnstable County, MA",1334.0,county,"BUZZARDS BAY, MA",BUZZARDS BAY,2500102542.0,21727.0,"Buzzards Bay, MA",,,MA_02542,Complete data,True,True,True
02543,02543,29325480.0,67999816.0,+41.4724225,-070.7850490,MA,Massachusetts,25,24800.0,MA_02543,zip code,2.0,791.0,02543,Massachusetts,MA,"Barnstable Town, MA",12700.0,25001.0,"Barnstable County, MA",1334.0,county,"WOODS HOLE, MA",WOODS HOLE,2500102543.0,26613.0,"Woods Hole, MA",,,MA_02543,Complete data,True,True,True
02553,02553,512178.0,1878048.0,+41.7131382,-070.6222835,MA,Massachusetts,25,24654.0,MA_02553,,,,,,,,,,,,,,,,,,,,,Census only,True,False,True
02554,02554,103565881.0,41992864.0,+41.2901141,-070.0962936,MA,Massachusetts,25,24592.0,MA_02554,,,,,,,,,,,,,,,,,,,,,Census only,True,False,True
02556,02556,10222407.0,1170408.0,+41.6394465,-070.6245154,MA,Massachusetts,25,24828.0,MA_02556,zip code,2.0,795.0,02556,Massachusetts,MA,"Barnstable Town, MA",12700.0,25001.0,"Barnstable County, MA",1334.0,county,"NORTH FALMOUTH, MA",NORTH FALMOUTH,2500102556.0,24303.0,"North Falmouth, MA",,,MA_02556,Complete data,True,True,True
02557,02557,8391732.0,10309248.0,+41.4464033,-070.5617613,MA,Massachusetts,25,24874.0,MA_02557,zip code,2.0,796.0,02557,Massachusetts,MA,"Vineyard Haven, MA",47240.0,25007.0,"Dukes County, MA",1337.0,county,"OAK BLUFFS, MA",OAK BLUFFS,2500702557.0,29807.0,"Oak Bluffs, MA",,,MA_02557,Complete data,True,True,True
02558,02558,2892355.0,2748107.0,+41.7462753,-070.6516894,MA,Massachusetts,25,24653.0,MA_02558,,,,,,,,,,,,,,,,,,,,,Census only,True,False,True
02559,02559,13810030.0,3819900.0,+41.6902429,-070.6162831,MA,Massachusetts,25,25098.0,MA_02559,zip code,2.0,798.0,02559,Massachusetts,MA,"Barnstable Town, MA",12700.0,25001.0,"Barnstable County, MA",1334.0,county,"POCASSET, MA",POCASSET,2500102559.0,24810.0,"Pocasset, MA",,,MA_02559,Complete data,True,True,True
02561,02561,2147291.0,0.0,+41.7678106,-070.5328539,MA,Massachusetts,25,24662.0,MA_02561,zip code,2.0,799.0,02561,Massachusetts,MA,"Barnstable Town, MA",12700.0,25001.0,"Barnstable County, MA",1334.0,county,"SAGAMORE, MA",SAGAMORE,2500102561.0,25111.0,"Sagamore, MA",,,MA_02561,Complete data,True,True,True
02562,02562,8739180.0,246880.0,+41.7879838,-070.5275916,MA,Massachusetts,25,24835.0,MA_02562,zip code,2.0,800.0,02562,Massachusetts,MA,"Barnstable Town, MA",12700.0,25001.0,"Barnstable County, MA",1334.0,county,"SAGAMORE BEACH, MA",SAGAMORE BEACH,2500102562.0,,,,,MA_02562,Complete data,True,True,True
02563,02563,34198978.0,3110562.0,+41.7511325,-070.5025180,MA,Massachusetts,25,24967.0,MA_02563,zip code,2.0,801.0,02563,Massachusetts,MA,"Barnstable Town, MA",12700.0,25001.0,"Barnstable County, MA",1334.0,county,"SANDWICH, MA",SANDWICH,2500102563.0,29694.0,"Sandwich, MA",,,MA_02563,Complete data,True,True,True
02564,02564,15718341.0,3058208.0,+41.2718801,-069.9845261,MA,Massachusetts,25,24752.0,MA_02564,,,,,,,,,,,,,,,,,,,,,Census only,True,False,True
02568,02568,33277885.0,11161375.0,+41.4494039,-070.6163598,MA,Massachusetts,25,25044.0,MA_02568,zip code,2.0,804.0,02568,Massachusetts,MA,"Vineyard Haven, MA",47240.0,25007.0,"Dukes County, MA",1337.0,county,"VINEYARD HAVEN, MA",VINEYARD HAVEN,2500702568.0,26011.0,"Vineyard Haven, MA",,,MA_02568,Complete data,True,True,True
02571,02571,48437268.0,21293992.0,+41.7514297,-070.6993523,MA,Massachusetts,25,25095.0,MA_02571,zip code,2.0,805.0,02571,Massachusetts,MA,"Boston, MA",14454.0,25023.0,"Plymouth County, MA",1345.0,county,"WAREHAM, MA",WAREHAM,2502302571.0,29743.0,"Wareham, MA",,,MA_02571,Complete data,True,True,True
02575,02575,58918065.0,10855635.0,+41.3944058,-070.6564473,MA,Massachusetts,25,24875.0,MA_02575,zip code,2.0,808.0,02575,Massachusetts,MA,"Vineyard Haven, MA",47240.0,25007.0,"Dukes County, MA",1337.0,county,"WEST TISBURY, MA",WEST TISBURY,2500702575.0,29765.0,"West Tisbury, MA",,,MA_02575,Complete data,True,True,True
02576,02576,24357199.0,683430.0,+41.7722213,-070.7629481,MA,Massachusetts,25,24652.0,MA_02576,zip code,2.0,809.0,02576,Massachusetts,MA,"Boston, MA",14454.0,25023.0,"Plymouth County, MA",1345.0,county,"WEST WAREHAM, MA",WEST WAREHAM,2502302576.0,26445.0,"West Wareham, MA",,,MA_02576,Complete data,True,True,True
02584,02584,353095.0,0.0,+41.2575780,-070.0052939,MA,Massachusetts,25,24938.0,MA_02584,,,,,,,,,,,,,,,,,,,,,Census only,True,False,True
02601,02601,22710543.0,1918828.0,+41.6611607,-070.2931965,MA,Massachusetts,25,24832.0,MA_02601,zip code,2.0,811.0,02601,Massachusetts,MA,"Barnstable Town, MA",12700.0,25001.0,"Barnstable County, MA",1334.0,county,"HYANNIS, MA",HYANNIS,2500102601.0,,,,,MA_02601,Complete data,True,True,True
02630,02630,12638020.0,5237761.0,+41.7067558,-070.3124888,MA,Massachusetts,25,24658.0,MA_02630,zip code,2.0,812.0,02630,Massachusetts,MA,"Barnstable Town, MA",12700.0,25001.0,"Barnstable County, MA",1334.0,county,"BARNSTABLE, MA",BARNSTABLE,2500102630.0,29671.0,"Barnstable, MA",,,MA_02630,Complete data,True,True,True
02631,02631,57482411.0,6603731.0,+41.7475128,-070.0662227,MA,Massachusetts,25,24601.0,MA_02631,zip code,2.0,813.0,02631,Massachusetts,MA,"Barnstable Town, MA",12700.0,25001.0,"Barnstable County, MA",1334.0,county,"BREWSTER, MA",BREWSTER,2500102631.0,29786.0,"Brewster, MA",,,MA_02631,Complete data,True,True,True
02632,02632,19323103.0,3790658.0,+41.6590971,-070.3468771,MA,Massachusetts,25,24600.0,MA_02632,zip code,2.0,814.0,02632,Massachusetts,MA,"Barnstable Town, MA",12700.0,25001.0,"Barnstable County, MA",1334.0,county,"CENTERVILLE, MA",CENTERVILLE,2500102632.0,,,,,MA_02632,Complete data,True,True,True
02633,02633,22359890.0,12143129.0,+41.6873609,-069.9801605,MA,Massachusetts,25,24655.0,MA_02633,zip code,2.0,815.0,02633,Massachusetts,MA,"Barnstable Town, MA",12700.0,25001.0,"Barnstable County, MA",1334.0,county,"CHATHAM, MA",CHATHAM,2500102633.0,36101.0,"Chatham, MA",,,MA_02633,Complete data,True,True,True
02635,02635,14214894.0,2809145.0,+41.6240537,-070.4393967,MA,Massachusetts,25,24567.0,MA_02635,zip code,2.0,817.0,02635,Massachusetts,MA,"Barnstable Town, MA",12700.0,25001.0,"Barnstable County, MA",1334.0,county,"COTUIT, MA",COTUIT,2500102635.0,,,,,MA_02635,Complete data,True,True,True
02637,02637,1999717.0,77928.0,+41.7057259,-070.2709278,MA,Massachusetts,25,24966.0,MA_02637,zip code,2.0,819.0,02637,Massachusetts,MA,"Barnstable Town, MA",12700.0,25001.0,"Barnstable County, MA",1334.0,county,"CUMMAQUID, MA",CUMMAQUID,2500102637.0,,,,,MA_02637,Complete data,True,True,True
02638,02638,14598333.0,628545.0,+41.7302454,-070.1973919,MA,Massachusetts,25,24836.0,MA_02638,zip code,2.0,820.0,02638,Massachusetts,MA,"Barnstable Town, MA",12700.0,25001.0,"Barnstable County, MA",1334.0,county,"DENNIS, MA",DENNIS,2500102638.0,29536.0,"Dennis, MA",,,MA_02638,Complete data,True,True,True
02639,02639,7243252.0,671481.0,+41.6680669,-070.1369791,MA,Massachusetts,25,24918.0,MA_02639,zip code,2.0,821.0,02639,Massachusetts,MA,"Barnstable Town, MA",12700.0,25001.0,"Barnstable County, MA",1334.0,county,"DENNIS PORT, MA",DENNIS PORT,2500102639.0,22165.0,"Dennis Port, MA",,,MA_02639,Complete data,True,True,True
02641,02641,4295299.0,193215.0,+41.7539512,-070.1553929,MA,Massachusetts,25,24838.0,MA_02641,zip code,2.0,822.0,02641,Massachusetts,MA,"Barnstable Town, MA",12700.0,25001.0,"Barnstable County, MA",1334.0,county,"EAST DENNIS, MA",EAST DENNIS,2500102641.0,22277.0,"East Dennis, MA",,,MA_02641,Complete data,True,True,True
02642,02642,36176094.0,8813470.0,+41.8415999,-069.9749731,MA,Massachusetts,25,24831.0,MA_02642,zip code,2.0,823.0,02642,Massachusetts,MA,"Barnstable Town, MA",12700.0,25001.0,"Barnstable County, MA",1334.0,county,"EASTHAM, MA",EASTHAM,2500102642.0,29795.0,"Eastham, MA",,,MA_02642,Complete data,True,True,True
02643,02643,5660262.0,8610257.0,+41.7535400,-069.9346611,MA,Massachusetts,25,24656.0,MA_02643,,,,,,,,,,,,,,,,,,,,,Census only,True,False,True
02644,02644,8739160.0,447047.0,+41.6834882,-070.5107856,MA,Massachusetts,25,24839.0,MA_02644,zip code,2.0,825.0,02644,Massachusetts,MA,"Barnstable Town, MA",12700.0,25001.0,"Barnstable County, MA",1334.0,county,"FORESTDALE, MA",FORESTDALE,2500102644.0,22652.0,"Forestdale, MA",,,MA_02644,Complete data,True,True,True
02645,02645,43837386.0,4718650.0,+41.7012864,-070.0616629,MA,Massachusetts,25,24841.0,MA_02645,zip code,2.0,826.0,02645,Massachusetts,MA,"Barnstable Town, MA",12700.0,25001.0,"Barnstable County, MA",1334.0,county,"HARWICH, MA",HARWICH,2500102645.0,29735.0,"Harwich, MA",,,MA_02645,Complete data,True,True,True
02646,02646,7520248.0,609368.0,+41.6705961,-070.0714493,MA,Massachusetts,25,24970.0,MA_02646,zip code,2.0,827.0,02646,Massachusetts,MA,"Barnstable Town, MA",12700.0,25001.0,"Barnstable County, MA",1334.0,county,"HARWICH PORT, MA",HARWICH PORT,2500102646.0,23015.0,"Harwich Port, MA",,,MA_02646,Complete data,True,True,True
02647,02647,1117338.0,381164.0,+41.6301267,-070.3101436,MA,Massachusetts,25,24569.0,MA_02647,zip code,2.0,828.0,02647,Massachusetts,MA,"Barnstable Town, MA",12700.0,25001.0,"Barnstable County, MA",1334.0,county,"HYANNIS PORT, MA",HYANNIS PORT,2500102647.0,,,,,MA_02647,Complete data,True,True,True
02648,02648,25856964.0,2665942.0,+41.6703745,-070.4120345,MA,Massachusetts,25,24566.0,MA_02648,zip code,2.0,829.0,02648,Massachusetts,MA,"Barnstable Town, MA",12700.0,25001.0,"Barnstable County, MA",1334.0,county,"MARSTONS MILLS, MA",MARSTONS MILLS,2500102648.0,,,,,MA_02648,Complete data,True,True,True
02649,02649,60588099.0,10000498.0,+41.6176232,-070.4927131,MA,Massachusetts,25,24833.0,MA_02649,zip code,2.0,830.0,02649,Massachusetts,MA,"Barnstable Town, MA",12700.0,25001.0,"Barnstable County, MA",1334.0,county,"MASHPEE, MA",MASHPEE,2500102649.0,29541.0,"Mashpee, MA",,,MA_02649,Complete data,True,True,True
02650,02650,3532937.0,615649.0,+41.7019470,-069.9614533,MA,Massachusetts,25,24657.0,MA_02650,zip code,2.0,831.0,02650,Massachusetts,MA,"Barnstable Town, MA",12700.0,25001.0,"Barnstable County, MA",1334.0,county,"NORTH CHATHAM, MA",NORTH CHATHAM,2500102650.0,,,,,MA_02650,Complete data,True,True,True
02652,02652,21759212.0,7336306.0,+42.0495342,-070.0949865,MA,Massachusetts,25,24969.0,MA_02652,zip code,2.0,833.0,02652,Massachusetts,MA,"Barnstable Town, MA",12700.0,25001.0,"Barnstable County, MA",1334.0,county,"NORTH TRURO, MA",NORTH TRURO,2500102652.0,,,,,MA_02652,Complete data,True,True,True
02653,02653,31214598.0,13567799.0,+41.7691250,-069.9735799,MA,Massachusetts,25,24993.0,MA_02653,zip code,2.0,834.0,02653,Massachusetts,MA,"Barnstable Town, MA",12700.0,25001.0,"Barnstable County, MA",1334.0,county,"ORLEANS, MA",ORLEANS,2500102653.0,36147.0,"Orleans, MA",,,MA_02653,Complete data,True,True,True
02655,02655,16759946.0,4560355.0,+41.6279841,-070.3920127,MA,Massachusetts,25,24602.0,MA_02655,zip code,2.0,835.0,02655,Massachusetts,MA,"Barnstable Town, MA",12700.0,25001.0,"Barnstable County, MA",1334.0,county,"OSTERVILLE, MA",OSTERVILLE,2500102655.0,,,,,MA_02655,Complete data,True,True,True
02657,02657,25046216.0,12765872.0,+42.0598291,-070.2004073,MA,Massachusetts,25,24917.0,MA_02657,zip code,2.0,836.0,02657,Massachusetts,MA,"Barnstable Town, MA",12700.0,25001.0,"Barnstable County, MA",1334.0,county,"PROVINCETOWN, MA",PROVINCETOWN,2500102657.0,29532.0,"Provincetown, MA",,,MA_02657,Complete data,True,True,True
02659,02659,5133617.0,237118.0,+41.6814735,-070.0235287,MA,Massachusetts,25,24664.0,MA_02659,zip code,2.0,837.0,02659,Massachusetts,MA,"Barnstable Town, MA",12700.0,25001.0,"Barnstable County, MA",1334.0,county,"SOUTH CHATHAM, MA",SOUTH CHATHAM,2500102659.0,,,,,MA_02659,Complete data,True,True,True
02660,02660,21686739.0,1432865.0,+41.7085259,-070.1565820,MA,Massachusetts,25,24837.0,MA_02660,zip code,2.0,838.0,02660,Massachusetts,MA,"Barnstable Town, MA",12700.0,25001.0,"Barnstable County, MA",1334.0,county,"SOUTH DENNIS, MA",SOUTH DENNIS,2500102660.0,25451.0,"South Dennis, MA",,,MA_02660,Complete data,True,True,True
02663,02663,7398019.0,5890594.0,+41.8975396,-069.9699068,MA,Massachusetts,25,24920.0,MA_02663,,,,,,,,,,,,,,,,,,,,,Census only,True,False,True
02664,02664,18090074.0,2264163.0,+41.6747755,-070.1942792,MA,Massachusetts,25,24659.0,MA_02664,zip code,2.0,842.0,02664,Massachusetts,MA,"Barnstable Town, MA",12700.0,25001.0,"Barnstable County, MA",1334.0,county,"SOUTH YARMOUTH, MA",SOUTH YARMOUTH,2500102664.0,25618.0,"South Yarmouth, MA",,,MA_02664,Complete data,True,True,True
02666,02666,32509649.0,4125156.0,+41.9853872,-070.0377394,MA,Massachusetts,25,24861.0,MA_02666,zip code,2.0,843.0,02666,Massachusetts,MA,"Barnstable Town, MA",12700.0,25001.0,"Barnstable County, MA",1334.0,county,"TRURO, MA",TRURO,2500102666.0,29677.0,"Truro, MA",,,MA_02666,Complete data,True,True,True
02667,02667,43842888.0,12938340.0,+41.9233891,-070.0210443,MA,Massachusetts,25,24565.0,MA_02667,zip code,2.0,844.0,02667,Massachusetts,MA,"Barnstable Town, MA",12700.0,25001.0,"Barnstable County, MA",1334.0,county,"WELLFLEET, MA",WELLFLEET,2500102667.0,29704.0,"Wellfleet, MA",,,MA_02667,Complete data,True,True,True
02668,02668,37080781.0,5212967.0,+41.7143279,-070.3560000,MA,Massachusetts,25,24563.0,MA_02668,zip code,2.0,845.0,02668,Massachusetts,MA,"Barnstable Town, MA",12700.0,25001.0,"Barnstable County, MA",1334.0,county,"WEST BARNSTABLE, MA",WEST BARNSTABLE,2500102668.0,,,,,MA_02668,Complete data,True,True,True
02670,02670,5500890.0,1637444.0,+41.6601031,-070.1706808,MA,Massachusetts,25,25029.0,MA_02670,zip code,2.0,847.0,02670,Massachusetts,MA,"Barnstable Town, MA",12700.0,25001.0,"Barnstable County, MA",1334.0,county,"WEST DENNIS, MA",WEST DENNIS,2500102670.0,26276.0,"West Dennis, MA",,,MA_02670,Complete data,True,True,True
02671,02671,4491710.0,428304.0,+41.6703363,-070.1110683,MA,Massachusetts,25,24840.0,MA_02671,zip code,2.0,848.0,02671,Massachusetts,MA,"Barnstable Town, MA",12700.0,25001.0,"Barnstable County, MA",1334.0,county,"WEST HARWICH, MA",WEST HARWICH,2500102671.0,,,,,MA_02671,Complete data,True,True,True
02672,02672,1279040.0,52591.0,+41.6357000,-070.3136344,MA,Massachusetts,25,24568.0,MA_02672,zip code,2.0,849.0,02672,Massachusetts,MA,"Barnstable Town, MA",12700.0,25001.0,"Barnstable County, MA",1334.0,county,"WEST HYANNISPORT, MA",WEST HYANNISPORT,2500102672.0,,,,,MA_02672,Complete data,True,True,True
02673,02673,24010170.0,9003982.0,+41.6529482,-070.2473831,MA,Massachusetts,25,24798.0,MA_02673,zip code,2.0,850.0,02673,Massachusetts,MA,"Barnstable Town, MA",12700.0,25001.0,"Barnstable County, MA",1334.0,county,"WEST YARMOUTH, MA",WEST YARMOUTH,2500102673.0,26471.0,"West Yarmouth, MA",,,MA_02673,Complete data,True,True,True
02675,02675,22697549.0,1674219.0,+41.7039498,-070.2315520,MA,Massachusetts,25,24965.0,MA_02675,zip code,2.0,851.0,02675,Massachusetts,MA,"Barnstable Town, MA",12700.0,25001.0,"Barnstable County, MA",1334.0,county,"YARMOUTH PORT, MA",YARMOUTH PORT,2500102675.0,26657.0,"Yarmouth Port, MA",,,MA_02675,Complete data,True,True,True
02702,02702,43519549.0,2930989.0,+41.7851128,-071.0590468,MA,Massachusetts,25,24911.0,MA_02702,zip code,2.0,852.0,02702,Massachusetts,MA,"Providence, RI",39300.0,25005.0,"Bristol County, MA",1336.0,county,"ASSONET, MA",ASSONET,2500502702.0,,,,,MA_02702,Complete data,True,True,True
02703,02703,69317801.0,2569324.0,+41.9316531,-071.2945028,MA,Massachusetts,25,25088.0,MA_02703,zip code,2.0,853.0,02703,Massachusetts,MA,"Providence, RI",39300.0,25005.0,"Bristol County, MA",1336.0,county,"ATTLEBORO, MA",ATTLEBORO,2500502703.0,710.0,"Attleboro, MA",,,MA_02703,Complete data,True,True,True
02713,02713,9279963.0,3183380.0,+41.4270831,-070.8856622,MA,Massachusetts,25,24737.0,MA_02713,zip code,2.0,855.0,02713,Massachusetts,MA,"Vineyard Haven, MA",47240.0,25007.0,"Dukes County, MA",1337.0,county,"CUTTYHUNK, MA",CUTTYHUNK,2500702713.0,,,,,MA_02713,Complete data,True,True,True
02715,02715,28952893.0,1225332.0,+41.8055942,-071.1577069,MA,Massachusetts,25,24648.0,MA_02715,zip code,2.0,857.0,02715,Massachusetts,MA,"Providence, RI",39300.0,25005.0,"Bristol County, MA",1336.0,county,"DIGHTON, MA",DIGHTON,2500502715.0,29766.0,"Dighton, MA",,,MA_02715,Complete data,True,True,True
02717,02717,57444540.0,2060703.0,+41.7586293,-070.9876253,MA,Massachusetts,25,24825.0,MA_02717,zip code,2.0,858.0,02717,Massachusetts,MA,"Providence, RI",39300.0,25005.0,"Bristol County, MA",1336.0,county,"EAST FREETOWN, MA",EAST FREETOWN,2500502717.0,,,,,MA_02717,Complete data,True,True,True
02718,02718,26647392.0,851762.0,+41.8624856,-071.0116902,MA,Massachusetts,25,24647.0,MA_02718,zip code,2.0,859.0,02718,Massachusetts,MA,"Providence, RI",39300.0,25005.0,"Bristol County, MA",1336.0,county,"EAST TAUNTON, MA",EAST TAUNTON,2500502718.0,,,,,MA_02718,Complete data,True,True,True
02719,02719,32066915.0,8666395.0,+41.6336673,-070.8713617,MA,Massachusetts,25,25050.0,MA_02719,zip code,2.0,860.0,02719,Massachusetts,MA,"Providence, RI",39300.0,25005.0,"Bristol County, MA",1336.0,county,"FAIRHAVEN, MA",FAIRHAVEN,2500502719.0,29726.0,"Fairhaven, MA",,,MA_02719,Complete data,True,True,True
02720,02720,34142505.0,9023169.0,+41.7271371,-071.1098583,MA,Massachusetts,25,24589.0,MA_02720,zip code,2.0,861.0,02720,Massachusetts,MA,"Providence, RI",39300.0,25005.0,"Bristol County, MA",1336.0,county,"FALL RIVER, MA",FALL RIVER,2500502720.0,5932.0,"Fall River, MA",,,MA_02720,Complete data,True,True,True
02721,02721,10419556.0,5244485.0,+41.6744294,-071.1485315,MA,Massachusetts,25,24981.0,MA_02721,zip code,2.0,862.0,02721,Massachusetts,MA,"Providence, RI",39300.0,25005.0,"Bristol County, MA",1336.0,county,"FALL RIVER, MA",FALL RIVER,2500502721.0,5932.0,"Fall River, MA",,,MA_02721,Complete data,True,True,True
02723,02723,4130257.0,696297.0,+41.6922085,-071.1321315,MA,Massachusetts,25,24785.0,MA_02723,zip code,2.0,864.0,02723,Massachusetts,MA,"Providence, RI",39300.0,25005.0,"Bristol County, MA",1336.0,county,"FALL RIVER, MA",FALL RIVER,2500502723.0,5932.0,"Fall River, MA",,,MA_02723,Complete data,True,True,True
02724,02724,4664630.0,1211542.0,+41.6830676,-071.1778881,MA,Massachusetts,25,24823.0,MA_02724,zip code,2.0,865.0,02724,Massachusetts,MA,"Providence, RI",39300.0,25005.0,"Bristol County, MA",1336.0,county,"FALL RIVER, MA",FALL RIVER,2500502724.0,5932.0,"Fall River, MA",,,MA_02724,Complete data,True,True,True
02725,02725,6146865.0,6823497.0,+41.7200425,-071.1882719,MA,Massachusetts,25,24956.0,MA_02725,zip code,2.0,866.0,02725,Massachusetts,MA,"Providence, RI",39300.0,25005.0,"Bristol County, MA",1336.0,county,"SOMERSET, MA",SOMERSET,2500502725.0,36166.0,"Somerset, MA",,,MA_02725,Complete data,True,True,True
02726,02726,14313467.0,3516583.0,+41.7596996,-071.1445917,MA,Massachusetts,25,24615.0,MA_02726,zip code,2.0,867.0,02726,Massachusetts,MA,"Providence, RI",39300.0,25005.0,"Bristol County, MA",1336.0,county,"SOMERSET, MA",SOMERSET,2500502726.0,36166.0,"Somerset, MA",,,MA_02726,Complete data,True,True,True
02738,02738,36580511.0,9511973.0,+41.7061622,-070.7501641,MA,Massachusetts,25,25021.0,MA_02738,zip code,2.0,868.0,02738,Massachusetts,MA,"Boston, MA",14454.0,25023.0,"Plymouth County, MA",1345.0,county,"MARION, MA",MARION,2502302738.0,29635.0,"Marion, MA",,,MA_02738,Complete data,True,True,True
02739,02739,44886391.0,7825946.0,+41.6656442,-070.8158758,MA,Massachusetts,25,24732.0,MA_02739,zip code,2.0,869.0,02739,Massachusetts,MA,"Boston, MA",14454.0,25023.0,"Plymouth County, MA",1345.0,county,"MATTAPOISETT, MA",MATTAPOISETT,2502302739.0,29602.0,"Mattapoisett, MA",,,MA_02739,Complete data,True,True,True
02740,02740,14885564.0,2118947.0,+41.6381711,-070.9383981,MA,Massachusetts,25,24864.0,MA_02740,zip code,2.0,870.0,02740,Massachusetts,MA,"Providence, RI",39300.0,25005.0,"Bristol County, MA",1336.0,county,"NEW BEDFORD, MA",NEW BEDFORD,2500502740.0,11459.0,"New Bedford, MA",,,MA_02740,Complete data,True,True,True
02743,02743,46770765.0,1349648.0,+41.7095988,-070.8981109,MA,Massachusetts,25,24691.0,MA_02743,zip code,2.0,873.0,02743,Massachusetts,MA,"Providence, RI",39300.0,25005.0,"Bristol County, MA",1336.0,county,"ACUSHNET, MA",ACUSHNET,2500502743.0,29782.0,"Acushnet, MA",,,MA_02743,Complete data,True,True,True
02744,02744,3369419.0,1345734.0,+41.6062520,-070.9136318,MA,Massachusetts,25,25033.0,MA_02744,zip code,2.0,874.0,02744,Massachusetts,MA,"Providence, RI",39300.0,25005.0,"Bristol County, MA",1336.0,county,"NEW BEDFORD, MA",NEW BEDFORD,2500502744.0,11459.0,"New Bedford, MA",,,MA_02744,Complete data,True,True,True
02745,02745,25432488.0,581802.0,+41.7026957,-070.9470573,MA,Massachusetts,25,25040.0,MA_02745,zip code,2.0,875.0,02745,Massachusetts,MA,"Providence, RI",39300.0,25005.0,"Bristol County, MA",1336.0,county,"NEW BEDFORD, MA",NEW BEDFORD,2500502745.0,11459.0,"New Bedford, MA",,,MA_02745,Complete data,True,True,True
02746,02746,7378880.0,300651.0,+41.6639126,-070.9475696,MA,Massachusetts,25,24734.0,MA_02746,zip code,2.0,876.0,02746,Massachusetts,MA,"Providence, RI",39300.0,25005.0,"Bristol County, MA",1336.0,county,"NEW BEDFORD, MA",NEW BEDFORD,2500502746.0,11459.0,"New Bedford, MA",,,MA_02746,Complete data,True,True,True
02747,02747,106209137.0,3908784.0,+41.6580000,-071.0134603,MA,Massachusetts,25,24876.0,MA_02747,zip code,2.0,877.0,02747,Massachusetts,MA,"Providence, RI",39300.0,25005.0,"Bristol County, MA",1336.0,county,"NORTH DARTMOUTH, MA",NORTH DARTMOUTH,2500502747.0,,,,,MA_02747,Complete data,True,True,True
02748,02748,60111971.0,9058944.0,+41.5530836,-070.9714529,MA,Massachusetts,25,24979.0,MA_02748,zip code,2.0,878.0,02748,Massachusetts,MA,"Providence, RI",39300.0,25005.0,"Bristol County, MA",1336.0,county,"SOUTH DARTMOUTH, MA",SOUTH DARTMOUTH,2500502748.0,,,,,MA_02748,Complete data,True,True,True
02760,02760,46512347.0,1337330.0,+41.9725669,-071.3343745,MA,Massachusetts,25,25087.0,MA_02760,zip code,2.0,879.0,02760,Massachusetts,MA,"Providence, RI",39300.0,25005.0,"Bristol County, MA",1336.0,county,"NORTH ATTLEBORO, MA",NORTH ATTLEBORO,2500502760.0,,,,,MA_02760,Complete data,True,True,True
02762,02762,28458092.0,1350452.0,+42.0128383,-071.3361880,MA,Massachusetts,25,25080.0,MA_02762,zip code,2.0,881.0,02762,Massachusetts,MA,"Boston, MA",14454.0,25021.0,"Norfolk County, MA",1344.0,county,"PLAINVILLE, MA",PLAINVILLE,2502102762.0,29561.0,"Plainville, MA",,,MA_02762,Complete data,True,True,True
02763,02763,2323201.0,20046.0,+41.9668655,-071.3085743,MA,Massachusetts,25,24910.0,MA_02763,zip code,2.0,882.0,02763,Massachusetts,MA,"Providence, RI",39300.0,25005.0,"Bristol County, MA",1336.0,county,"ATTLEBORO FALLS, MA",ATTLEBORO FALLS,2500502763.0,,,,,MA_02763,Complete data,True,True,True
02764,02764,28230398.0,271064.0,+41.8519289,-071.1535982,MA,Massachusetts,25,24789.0,MA_02764,zip code,2.0,883.0,02764,Massachusetts,MA,"Providence, RI",39300.0,25005.0,"Bristol County, MA",1336.0,county,"NORTH DIGHTON, MA",NORTH DIGHTON,2500502764.0,,,,,MA_02764,Complete data,True,True,True
02766,02766,72088056.0,3833390.0,+41.9653413,-071.1817803,MA,Massachusetts,25,25089.0,MA_02766,zip code,2.0,884.0,02766,Massachusetts,MA,"Providence, RI",39300.0,25005.0,"Bristol County, MA",1336.0,county,"NORTON, MA",NORTON,2500502766.0,29745.0,"Norton, MA",,,MA_02766,Complete data,True,True,True
02767,02767,64105034.0,789298.0,+41.9409960,-071.0484992,MA,Massachusetts,25,24955.0,MA_02767,zip code,2.0,885.0,02767,Massachusetts,MA,"Providence, RI",39300.0,25005.0,"Bristol County, MA",1336.0,county,"RAYNHAM, MA",RAYNHAM,2500502767.0,29812.0,"Raynham, MA",,,MA_02767,Complete data,True,True,True
02769,02769,121567203.0,1409688.0,+41.8468781,-071.2448699,MA,Massachusetts,25,24909.0,MA_02769,zip code,2.0,887.0,02769,Massachusetts,MA,"Providence, RI",39300.0,25005.0,"Bristol County, MA",1336.0,county,"REHOBOTH, MA",REHOBOTH,2500502769.0,29644.0,"Rehoboth, MA",,,MA_02769,Complete data,True,True,True
02770,02770,83802546.0,6375398.0,+41.7608637,-070.8389561,MA,Massachusetts,25,24651.0,MA_02770,zip code,2.0,888.0,02770,Massachusetts,MA,"Boston, MA",14454.0,25023.0,"Plymouth County, MA",1345.0,county,"ROCHESTER, MA",ROCHESTER,2502302770.0,29619.0,"Rochester, MA",,,MA_02770,Complete data,True,True,True
02771,02771,47633738.0,638668.0,+41.8397984,-071.3180471,MA,Massachusetts,25,24954.0,MA_02771,zip code,2.0,889.0,02771,Massachusetts,MA,"Providence, RI",39300.0,25005.0,"Bristol County, MA",1336.0,county,"SEEKONK, MA",SEEKONK,2500502771.0,29613.0,"Seekonk, MA",,,MA_02771,Complete data,True,True,True
02777,02777,58619888.0,6720357.0,+41.7581626,-071.2141812,MA,Massachusetts,25,24980.0,MA_02777,zip code,2.0,890.0,02777,Massachusetts,MA,"Providence, RI",39300.0,25005.0,"Bristol County, MA",1336.0,county,"SWANSEA, MA",SWANSEA,2500502777.0,29778.0,"Swansea, MA",,,MA_02777,Complete data,True,True,True
02779,02779,42766737.0,2360515.0,+41.8380611,-071.0776152,MA,Massachusetts,25,24957.0,MA_02779,zip code,2.0,891.0,02779,Massachusetts,MA,"Providence, RI",39300.0,25005.0,"Bristol County, MA",1336.0,county,"BERKLEY, MA",BERKLEY,2500502779.0,29814.0,"Berkley, MA",,,MA_02779,Complete data,True,True,True
02780,02780,85795156.0,3551539.0,+41.9091120,-071.1183464,MA,Massachusetts,25,25022.0,MA_02780,zip code,2.0,892.0,02780,Massachusetts,MA,"Providence, RI",39300.0,25005.0,"Bristol County, MA",1336.0,county,"TAUNTON, MA",TAUNTON,2500502780.0,17694.0,"Taunton, MA",,,MA_02780,Complete data,True,True,True
02790,02790,139564005.0,17602724.0,+41.5991765,-071.0823714,MA,Massachusetts,25,24740.0,MA_02790,zip code,2.0,894.0,02790,Massachusetts,MA,"Providence, RI",39300.0,25005.0,"Bristol County, MA",1336.0,county,"WESTPORT, MA",WESTPORT,2500502790.0,29668.0,"Westport, MA",,,MA_02790,Complete data,True,True,True
02791,02791,3374086.0,3099721.0,+41.5305542,-071.0849958,MA,Massachusetts,25,25049.0,MA_02791,zip code,2.0,895.0,02791,Massachusetts,MA,"Providence, RI",39300.0,25005.0,"Bristol County, MA",1336.0,county,"WESTPORT POINT, MA",WESTPORT POINT,2500502791.0,,,,,MA_02791,Complete data,True,True,True
